{
"type": "FeatureCollection",
"name": "curitiba_1km_protomaps_sidewalk_roads",
"crs": { "type": "name", "properties": { "name": "urn:ogc:def:crs:OGC:1.3:CRS84" } },
"features": [
{ "type": "Feature", "properties": { "name": "Travessa Doutor Lourival Schwansce Torres", "pmap:kind_detail": "residential", "pmap:min_zoom": 13.0, "pmap:kind": "minor_road", "pmap:level": 0.0, "oneway": "no", "highway": "minor_road", "pmap:link": null, "layer": null, "service": null, "building": null, "height": null, "amenity": null, "shop": null, "addr:housenumber": null, "footway": null, "sidewalk": null, "box_id": 1, "provider": "protomaps" }, "geometry": { "type": "LineString", "coordinates": [ [ -49.297627568836312, -25.437185210340242 ], [ -49.297596216201782, -25.437136595551376 ] ] } },
{ "type": "Feature", "properties": { "name": "Rua Euclides da Cunha", "pmap:kind_detail": "tertiary", "pmap:min_zoom": 10.0, "pmap:kind": "medium_road", "pmap:level": 0.0, "oneway": "yes", "highway": "medium_road", "pmap:link": null, "layer": null, "service": null, "building": null, "height": null, "amenity": null, "shop": null, "addr:housenumber": null, "footway": null, "sidewalk": null, "box_id": 1, "provider": "protomaps" }, "geometry": { "type": "LineString", "coordinates": [ [ -49.297859072685242, -25.434922646335316 ], [ -49.29689884185791, -25.436870146520999 ], [ -49.296750915073872, -25.437175027964731 ] ] } },
{ "type": "Feature", "properties": { "name": "Rua João Caetano", "pmap:kind_detail": "residential", "pmap:min_zoom": 13.0, "pmap:kind": "minor_road", "pmap:level": 0.0, "oneway": "no", "highway": "minor_road", "pmap:link": null, "layer": null, "service": null, "building": null, "height": null, "amenity": null, "shop": null, "addr:housenumber": null, "footway": null, "sidewalk": null, "box_id": 1, "provider": "protomaps" }, "geometry": { "type": "LineString", "coordinates": [ [ -49.295916211082414, -25.437165332837825 ], [ -49.295954704284668, -25.437155973662676 ], [ -49.29689884185791, -25.436870146520999 ] ] } },
{ "type": "Feature", "properties": { "name": "Rua Martin Pena", "pmap:kind_detail": "residential", "pmap:min_zoom": 13.0, "pmap:kind": "minor_road", "pmap:level": 0.0, "oneway": "no", "highway": "minor_road", "pmap:link": null, "layer": null, "service": null, "building": null, "height": null, "amenity": null, "shop": null, "addr:housenumber": null, "footway": null, "sidewalk": null, "box_id": 1, "provider": "protomaps" }, "geometry": { "type": "LineString", "coordinates": [ [ -49.295724034309387, -25.436196757153311 ], [ -49.295825958251953, -25.436346937515889 ], [ -49.296121001243591, -25.437107528384427 ] ] } },
{ "type": "Feature", "properties": { "name": "Rua Edgard Roquete Pinto", "pmap:kind_detail": "residential", "pmap:min_zoom": 13.0, "pmap:kind": "minor_road", "pmap:level": 0.0, "oneway": "no", "highway": "minor_road", "pmap:link": null, "layer": null, "service": null, "building": null, "height": null, "amenity": null, "shop": null, "addr:housenumber": null, "footway": null, "sidewalk": null, "box_id": 1, "provider": "protomaps" }, "geometry": { "type": "LineString", "coordinates": [ [ -49.295724034309387, -25.436196757153311 ], [ -49.295922517776489, -25.436167689986362 ], [ -49.29665207862854, -25.435939997178583 ] ] } },
{ "type": "Feature", "properties": { "name": "Rua Saldanha Marinho", "pmap:kind_detail": "residential", "pmap:min_zoom": 13.0, "pmap:kind": "minor_road", "pmap:level": 0.0, "oneway": "no", "highway": "minor_road", "pmap:link": null, "layer": null, "service": null, "building": null, "height": null, "amenity": null, "shop": null, "addr:housenumber": null, "footway": null, "sidewalk": null, "box_id": 1, "provider": "protomaps" }, "geometry": { "type": "LineString", "coordinates": [ [ -49.293836007118621, -25.437141171168989 ], [ -49.291062355041504, -25.436046576790734 ] ] } },
{ "type": "Feature", "properties": { "name": "Rua José Domakoski", "pmap:kind_detail": "residential", "pmap:min_zoom": 13.0, "pmap:kind": "minor_road", "pmap:level": 0.0, "oneway": "no", "highway": "minor_road", "pmap:link": null, "layer": null, "service": null, "building": null, "height": null, "amenity": null, "shop": null, "addr:housenumber": null, "footway": null, "sidewalk": null, "box_id": 1, "provider": "protomaps" }, "geometry": { "type": "LineString", "coordinates": [ [ -49.29689884185791, -25.436870146520999 ], [ -49.297727074359962, -25.43718636610167 ] ] } },
{ "type": "Feature", "properties": { "name": "Rua Euclides da Cunha", "pmap:kind_detail": "tertiary", "pmap:min_zoom": 10.0, "pmap:kind": "medium_road", "pmap:level": 0.0, "oneway": "no", "highway": "medium_road", "pmap:link": null, "layer": null, "service": null, "building": null, "height": null, "amenity": null, "shop": null, "addr:housenumber": null, "footway": null, "sidewalk": null, "box_id": 1, "provider": "protomaps" }, "geometry": { "type": "LineString", "coordinates": [ [ -49.299218369589205, -25.432170354042317 ], [ -49.297859072685242, -25.434922646335316 ] ] } },
{ "type": "Feature", "properties": { "name": "Rua Celso José Nichele", "pmap:kind_detail": "residential", "pmap:min_zoom": 13.0, "pmap:kind": "minor_road", "pmap:level": 0.0, "oneway": null, "highway": "minor_road", "pmap:link": null, "layer": null, "service": null, "building": null, "height": null, "amenity": null, "shop": null, "addr:housenumber": null, "footway": null, "sidewalk": null, "box_id": 1, "provider": "protomaps" }, "geometry": { "type": "LineString", "coordinates": [ [ -49.299236727740713, -25.430863068053167 ], [ -49.29914653301239, -25.431008267852654 ] ] } },
{ "type": "Feature", "properties": { "name": "Rua Frederico Cantarelli", "pmap:kind_detail": "residential", "pmap:min_zoom": 13.0, "pmap:kind": "minor_road", "pmap:level": 0.0, "oneway": "no", "highway": "minor_road", "pmap:link": null, "layer": null, "service": null, "building": null, "height": null, "amenity": null, "shop": null, "addr:housenumber": null, "footway": null, "sidewalk": null, "box_id": 1, "provider": "protomaps" }, "geometry": { "type": "LineString", "coordinates": [ [ -49.296936392784119, -25.428818541275717 ], [ -49.299252569891188, -25.429734946774879 ] ] } },
{ "type": "Feature", "properties": { "name": null, "pmap:kind_detail": "service", "pmap:min_zoom": 15.0, "pmap:kind": "minor_road", "pmap:level": 0.0, "oneway": null, "highway": "minor_road", "pmap:link": null, "layer": null, "service": "parking_aisle", "building": null, "height": null, "amenity": null, "shop": null, "addr:housenumber": null, "footway": null, "sidewalk": null, "box_id": 1, "provider": "protomaps" }, "geometry": { "type": "LineString", "coordinates": [ [ -49.293969869613647, -25.42884760844267 ], [ -49.294066429138184, -25.428610226579242 ], [ -49.294055700302124, -25.428590848467941 ], [ -49.293964505195618, -25.428556936773166 ], [ -49.293937683105469, -25.428561781300989 ], [ -49.293830394744873, -25.428794318636594 ] ] } },
{ "type": "Feature", "properties": { "name": "Rua General Aristides Athaýde Júnior", "pmap:kind_detail": "residential", "pmap:min_zoom": 13.0, "pmap:kind": "minor_road", "pmap:level": 0.0, "oneway": null, "highway": "minor_road", "pmap:link": null, "layer": null, "service": null, "building": null, "height": null, "amenity": null, "shop": null, "addr:housenumber": null, "footway": null, "sidewalk": null, "box_id": 1, "provider": "protomaps" }, "geometry": { "type": "LineString", "coordinates": [ [ -49.297521114349365, -25.432563361284505 ], [ -49.29715633392334, -25.433304574041742 ] ] } },
{ "type": "Feature", "properties": { "name": "Rua Padre Anchieta", "pmap:kind_detail": "tertiary", "pmap:min_zoom": 10.0, "pmap:kind": "medium_road", "pmap:level": 1.0, "oneway": "yes", "highway": "medium_road", "pmap:link": null, "layer": 1.0, "service": null, "building": null, "height": null, "amenity": null, "shop": null, "addr:housenumber": null, "footway": null, "sidewalk": null, "box_id": 1, "provider": "protomaps" }, "geometry": { "type": "MultiLineString", "coordinates": [ [ [ -49.29891049861908, -25.432975146149634 ], [ -49.298706650733948, -25.432897633704435 ] ], [ [ -49.298787117004395, -25.432732919758383 ], [ -49.298990964889526, -25.432810432203581 ] ] ] } },
{ "type": "Feature", "properties": { "name": "Canaleta Exclusiva BRT", "pmap:kind_detail": "service", "pmap:min_zoom": 14.0, "pmap:kind": "minor_road", "pmap:level": 1.0, "oneway": "no", "highway": "minor_road", "pmap:link": null, "layer": 1.0, "service": null, "building": null, "height": null, "amenity": null, "shop": null, "addr:housenumber": null, "footway": null, "sidewalk": null, "box_id": 1, "provider": "protomaps" }, "geometry": { "type": "LineString", "coordinates": [ [ -49.298749566078186, -25.432815276731407 ], [ -49.298948049545288, -25.432892789176609 ] ] } },
{ "type": "Feature", "properties": { "name": null, "pmap:kind_detail": "tertiary_link", "pmap:min_zoom": 10.0, "pmap:kind": "medium_road", "pmap:level": 0.0, "oneway": null, "highway": "medium_road", "pmap:link": 1.0, "layer": null, "service": null, "building": null, "height": null, "amenity": null, "shop": null, "addr:housenumber": null, "footway": null, "sidewalk": null, "box_id": 1, "provider": "protomaps" }, "geometry": { "type": "LineString", "coordinates": [ [ -49.298524260520935, -25.432631184674054 ], [ -49.298449158668518, -25.432795898620107 ] ] } },
{ "type": "Feature", "properties": { "name": "Rua Martim Afonso", "pmap:kind_detail": "primary", "pmap:min_zoom": 8.0, "pmap:kind": "major_road", "pmap:level": 0.0, "oneway": "yes", "highway": "major_road", "pmap:link": null, "layer": null, "service": null, "building": null, "height": null, "amenity": null, "shop": null, "addr:housenumber": null, "footway": null, "sidewalk": null, "box_id": 1, "provider": "protomaps" }, "geometry": { "type": "LineString", "coordinates": [ [ -49.299191285191476, -25.434099036984538 ], [ -49.296061992645264, -25.432873411065309 ], [ -49.289303909544216, -25.430212358668548 ] ] } },
{ "type": "Feature", "properties": { "name": "Rua Padre Anchieta", "pmap:kind_detail": "tertiary", "pmap:min_zoom": 10.0, "pmap:kind": "medium_road", "pmap:level": 0.0, "oneway": "yes", "highway": "medium_road", "pmap:link": null, "layer": null, "service": null, "building": null, "height": null, "amenity": null, "shop": null, "addr:housenumber": null, "footway": null, "sidewalk": null, "box_id": 1, "provider": "protomaps" }, "geometry": { "type": "MultiLineString", "coordinates": [ [ [ -49.298706650733948, -25.432897633704435 ], [ -49.289318413547669, -25.429185526697221 ] ], [ [ -49.298990964889526, -25.432810432203581 ], [ -49.299208179517308, -25.432895990183319 ] ], [ [ -49.299205431831645, -25.433091653181382 ], [ -49.29891049861908, -25.432975146149634 ] ], [ [ -49.289320990835044, -25.429003063897866 ], [ -49.298787117004395, -25.432732919758383 ] ] ] } },
{ "type": "Feature", "properties": { "name": "Rua General Aristides Athaýde Júnior", "pmap:kind_detail": "residential", "pmap:min_zoom": 13.0, "pmap:kind": "minor_road", "pmap:level": 0.0, "oneway": "no", "highway": "minor_road", "pmap:link": null, "layer": null, "service": null, "building": null, "height": null, "amenity": null, "shop": null, "addr:housenumber": null, "footway": null, "sidewalk": null, "box_id": 1, "provider": "protomaps" }, "geometry": { "type": "LineString", "coordinates": [ [ -49.299262088174451, -25.42905714877616 ], [ -49.29765522480011, -25.432287223198475 ] ] } },
{ "type": "Feature", "properties": { "name": "Rua Júlia Wanderley", "pmap:kind_detail": "residential", "pmap:min_zoom": 13.0, "pmap:kind": "minor_road", "pmap:level": 0.0, "oneway": "no", "highway": "minor_road", "pmap:link": null, "layer": null, "service": null, "building": null, "height": null, "amenity": null, "shop": null, "addr:housenumber": null, "footway": null, "sidewalk": null, "box_id": 1, "provider": "protomaps" }, "geometry": { "type": "LineString", "coordinates": [ [ -49.299234375117564, -25.428175833789119 ], [ -49.29927416540265, -25.428197128027445 ] ] } },
{ "type": "Feature", "properties": { "name": "Avenida Cândido Hartmann", "pmap:kind_detail": "secondary", "pmap:min_zoom": 10.0, "pmap:kind": "medium_road", "pmap:level": 0.0, "oneway": "yes", "highway": "medium_road", "pmap:link": null, "layer": null, "service": null, "building": null, "height": null, "amenity": null, "shop": null, "addr:housenumber": null, "footway": null, "sidewalk": null, "box_id": 1, "provider": "protomaps" }, "geometry": { "type": "LineString", "coordinates": [ [ -49.294232726097107, -25.429332061225178 ], [ -49.29440975189209, -25.4291818808626 ], [ -49.294640421867371, -25.429065612194798 ], [ -49.295176863670349, -25.428842763914844 ], [ -49.296260476112366, -25.428232353408884 ], [ -49.296403200399737, -25.428142960413375 ] ] } },
{ "type": "Feature", "properties": { "name": "Alameda Doutor Carlos de Carvalho", "pmap:kind_detail": "tertiary", "pmap:min_zoom": 10.0, "pmap:kind": "medium_road", "pmap:level": 0.0, "oneway": "yes", "highway": "medium_road", "pmap:link": null, "layer": null, "service": null, "building": null, "height": null, "amenity": null, "shop": null, "addr:housenumber": null, "footway": null, "sidewalk": null, "box_id": 1, "provider": "protomaps" }, "geometry": { "type": "LineString", "coordinates": [ [ -49.289212218399371, -25.436703766319528 ], [ -49.290217857650866, -25.437099146189336 ] ] } },
{ "type": "Feature", "properties": { "name": null, "pmap:kind_detail": "service", "pmap:min_zoom": 15.0, "pmap:kind": "minor_road", "pmap:level": 0.0, "oneway": "no", "highway": "minor_road", "pmap:link": null, "layer": null, "service": "parking_aisle", "building": null, "height": null, "amenity": null, "shop": null, "addr:housenumber": null, "footway": null, "sidewalk": null, "box_id": 1, "provider": "protomaps" }, "geometry": { "type": "LineString", "coordinates": [ [ -49.29341197013855, -25.432490693367129 ], [ -49.293578267097473, -25.432151576419372 ], [ -49.293497800827026, -25.432122509252423 ], [ -49.293529987335205, -25.432040152279395 ], [ -49.293245673179626, -25.431933572667244 ], [ -49.293208122253418, -25.43200624058462 ], [ -49.292693138122559, -25.431807614943793 ], [ -49.292532205581665, -25.432141887363723 ], [ -49.29341197013855, -25.432490693367129 ] ] } },
{ "type": "Feature", "properties": { "name": "Rua Saldanha Marinho", "pmap:kind_detail": "residential", "pmap:min_zoom": 13.0, "pmap:kind": "minor_road", "pmap:level": 0.0, "oneway": "yes", "highway": "minor_road", "pmap:link": null, "layer": null, "service": null, "building": null, "height": null, "amenity": null, "shop": null, "addr:housenumber": null, "footway": null, "sidewalk": null, "box_id": 1, "provider": "protomaps" }, "geometry": { "type": "LineString", "coordinates": [ [ -49.291062355041504, -25.436046576790734 ], [ -49.289231708354897, -25.435323946636402 ] ] } },
{ "type": "Feature", "properties": { "name": "Travessa Coronel Sílvio Van Erven", "pmap:kind_detail": "residential", "pmap:min_zoom": 13.0, "pmap:kind": "minor_road", "pmap:level": 0.0, "oneway": null, "highway": "minor_road", "pmap:link": null, "layer": null, "service": null, "building": null, "height": null, "amenity": null, "shop": null, "addr:housenumber": null, "footway": null, "sidewalk": null, "box_id": 1, "provider": "protomaps" }, "geometry": { "type": "LineString", "coordinates": [ [ -49.294291734695435, -25.436438983544566 ], [ -49.292939901351929, -25.435901240955982 ] ] } },
{ "type": "Feature", "properties": { "name": null, "pmap:kind_detail": "service", "pmap:min_zoom": 15.0, "pmap:kind": "minor_road", "pmap:level": 0.0, "oneway": "yes", "highway": "minor_road", "pmap:link": null, "layer": null, "service": "driveway", "building": null, "height": null, "amenity": null, "shop": null, "addr:housenumber": null, "footway": null, "sidewalk": null, "box_id": 1, "provider": "protomaps" }, "geometry": { "type": "MultiLineString", "coordinates": [ [ [ -49.292639493942261, -25.43191903908377 ], [ -49.292457103729248, -25.431851215694216 ] ], [ [ -49.293707013130188, -25.428741028830519 ], [ -49.293674826622009, -25.428755562413993 ], [ -49.292859435081482, -25.428445512633189 ], [ -49.292837977409363, -25.428421289994063 ], [ -49.292837977409363, -25.428397067354936 ], [ -49.292981361645218, -25.428103228711056 ] ], [ [ -49.294238090515137, -25.428959032582647 ], [ -49.293707013130188, -25.428741028830519 ] ], [ [ -49.293707013130188, -25.428741028830519 ], [ -49.293803572654724, -25.428489113383613 ], [ -49.293830394744873, -25.428363155660161 ], [ -49.293950551771943, -25.428114482185098 ] ], [ [ -49.294008760231556, -25.428115158055984 ], [ -49.294232726097107, -25.428198441714109 ] ] ] } },
{ "type": "Feature", "properties": { "name": "Rua Francisco Rocha", "pmap:kind_detail": "tertiary", "pmap:min_zoom": 10.0, "pmap:kind": "medium_road", "pmap:level": 0.0, "oneway": "yes", "highway": "medium_road", "pmap:link": null, "layer": null, "service": null, "building": null, "height": null, "amenity": null, "shop": null, "addr:housenumber": null, "footway": null, "sidewalk": null, "box_id": 1, "provider": "protomaps" }, "geometry": { "type": "LineString", "coordinates": [ [ -49.297310531876015, -25.428153495633385 ], [ -49.292244566451679, -25.437122686509291 ] ] } },
{ "type": "Feature", "properties": { "name": "Praça Alfredo Andersen", "pmap:kind_detail": "secondary", "pmap:min_zoom": 10.0, "pmap:kind": "medium_road", "pmap:level": 0.0, "oneway": "yes", "highway": "medium_road", "pmap:link": null, "layer": null, "service": null, "building": null, "height": null, "amenity": null, "shop": null, "addr:housenumber": null, "footway": null, "sidewalk": null, "box_id": 1, "provider": "protomaps" }, "geometry": { "type": "LineString", "coordinates": [ [ -49.290890693664551, -25.43505829311442 ], [ -49.29090142250061, -25.434903268224016 ], [ -49.290874600410461, -25.434796688611865 ], [ -49.290681481361389, -25.434418815441507 ], [ -49.290676116943359, -25.434380059218906 ], [ -49.290702939033508, -25.434297702245882 ], [ -49.290745854377747, -25.434254101495455 ], [ -49.291357398033142, -25.434099076605055 ] ] } },
{ "type": "Feature", "properties": { "name": "Praça Alfredo Andersen", "pmap:kind_detail": "tertiary", "pmap:min_zoom": 10.0, "pmap:kind": "medium_road", "pmap:level": 0.0, "oneway": "yes", "highway": "medium_road", "pmap:link": null, "layer": null, "service": null, "building": null, "height": null, "amenity": null, "shop": null, "addr:housenumber": null, "footway": null, "sidewalk": null, "box_id": 1, "provider": "protomaps" }, "geometry": { "type": "LineString", "coordinates": [ [ -49.291357398033142, -25.434099076605055 ], [ -49.291614890098572, -25.434627130137986 ], [ -49.291689991950989, -25.434714331638837 ], [ -49.291593432426453, -25.434733709750137 ], [ -49.291019439697266, -25.434951713502265 ], [ -49.290965795516968, -25.434980780669218 ], [ -49.290890693664551, -25.43505829311442 ] ] } },
{ "type": "Feature", "properties": { "name": "Alameda Princesa Izabel", "pmap:kind_detail": "tertiary", "pmap:min_zoom": 10.0, "pmap:kind": "medium_road", "pmap:level": 0.0, "oneway": "yes", "highway": "medium_road", "pmap:link": null, "layer": null, "service": null, "building": null, "height": null, "amenity": null, "shop": null, "addr:housenumber": null, "footway": null, "sidewalk": null, "box_id": 1, "provider": "protomaps" }, "geometry": { "type": "LineString", "coordinates": [ [ -49.299159179215593, -25.436385307059741 ], [ -49.289699792861938, -25.432645718257529 ], [ -49.289271794960754, -25.432485957205785 ] ] } },
{ "type": "Feature", "properties": { "name": "Rua Desembargador Otávio do Amaral", "pmap:kind_detail": "residential", "pmap:min_zoom": 13.0, "pmap:kind": "minor_road", "pmap:level": 0.0, "oneway": "yes", "highway": "minor_road", "pmap:link": null, "layer": null, "service": null, "building": null, "height": null, "amenity": null, "shop": null, "addr:housenumber": null, "footway": null, "sidewalk": null, "box_id": 1, "provider": "protomaps" }, "geometry": { "type": "MultiLineString", "coordinates": [ [ [ -49.292382001876831, -25.434975936141392 ], [ -49.291062355041504, -25.436046576790734 ] ], [ [ -49.293798208236694, -25.43198686247332 ], [ -49.292843341827393, -25.433890761908575 ] ] ] } },
{ "type": "Feature", "properties": { "name": "Rua Capitão Souza Franco", "pmap:kind_detail": "secondary", "pmap:min_zoom": 10.0, "pmap:kind": "medium_road", "pmap:level": 0.0, "oneway": "yes", "highway": "medium_road", "pmap:link": null, "layer": null, "service": null, "building": null, "height": null, "amenity": null, "shop": null, "addr:housenumber": null, "footway": null, "sidewalk": null, "box_id": 1, "provider": "protomaps" }, "geometry": { "type": "MultiLineString", "coordinates": [ [ [ -49.291357398033142, -25.434099076605055 ], [ -49.293277859687805, -25.430165320011092 ], [ -49.293336868286133, -25.430107185677191 ], [ -49.293846487998962, -25.429734157034659 ], [ -49.29415762424469, -25.42947739705993 ] ], [ [ -49.289898576707714, -25.437095437725862 ], [ -49.290890693664551, -25.43505829311442 ] ] ] } },
{ "type": "Feature", "properties": { "name": "Travessa Luiz Gama", "pmap:kind_detail": "residential", "pmap:min_zoom": 13.0, "pmap:kind": "minor_road", "pmap:level": 0.0, "oneway": "no", "highway": "minor_road", "pmap:link": null, "layer": null, "service": null, "building": null, "height": null, "amenity": null, "shop": null, "addr:housenumber": null, "footway": null, "sidewalk": null, "box_id": 1, "provider": "protomaps" }, "geometry": { "type": "LineString", "coordinates": [ [ -49.292188882827759, -25.43362915740602 ], [ -49.292199611663818, -25.433290040458264 ], [ -49.292290806770325, -25.432732919758383 ] ] } },
{ "type": "Feature", "properties": { "name": "Travessa Abílio César Borges", "pmap:kind_detail": "residential", "pmap:min_zoom": 13.0, "pmap:kind": "minor_road", "pmap:level": 0.0, "oneway": "no", "highway": "minor_road", "pmap:link": null, "layer": null, "service": null, "building": null, "height": null, "amenity": null, "shop": null, "addr:housenumber": null, "footway": null, "sidewalk": null, "box_id": 1, "provider": "protomaps" }, "geometry": { "type": "LineString", "coordinates": [ [ -49.291142821311951, -25.43137645196736 ], [ -49.291260838508606, -25.431613833830788 ], [ -49.291335940361023, -25.431686501748164 ], [ -49.292339086532593, -25.432083753029822 ] ] } },
{ "type": "Feature", "properties": { "name": "Rua Alferes Ângelo Sampaio", "pmap:kind_detail": "secondary", "pmap:min_zoom": 10.0, "pmap:kind": "medium_road", "pmap:level": 0.0, "oneway": "yes", "highway": "medium_road", "pmap:link": null, "layer": null, "service": null, "building": null, "height": null, "amenity": null, "shop": null, "addr:housenumber": null, "footway": null, "sidewalk": null, "box_id": 1, "provider": "protomaps" }, "geometry": { "type": "LineString", "coordinates": [ [ -49.291620254516602, -25.428474579800138 ], [ -49.28925554309491, -25.433636531631045 ] ] } },
{ "type": "Feature", "properties": { "name": "Alameda Augusto Stellfeld", "pmap:kind_detail": "tertiary", "pmap:min_zoom": 10.0, "pmap:kind": "medium_road", "pmap:level": 0.0, "oneway": "yes", "highway": "medium_road", "pmap:link": null, "layer": null, "service": null, "building": null, "height": null, "amenity": null, "shop": null, "addr:housenumber": null, "footway": null, "sidewalk": null, "box_id": 1, "provider": "protomaps" }, "geometry": { "type": "MultiLineString", "coordinates": [ [ [ -49.291689991950989, -25.434714331638837 ], [ -49.292382001876831, -25.434975936141392 ], [ -49.292714595794678, -25.435063137642242 ], [ -49.293293952941895, -25.435271452338721 ] ], [ [ -49.289253147437066, -25.433806135704113 ], [ -49.290466904640198, -25.434258946023281 ], [ -49.290595650672913, -25.434263790551107 ], [ -49.290745854377747, -25.434254101495455 ] ] ] } },
{ "type": "Feature", "properties": { "name": "Avenida Cândido Hartmann", "pmap:kind_detail": "tertiary", "pmap:min_zoom": 10.0, "pmap:kind": "medium_road", "pmap:level": 0.0, "oneway": "yes", "highway": "medium_road", "pmap:link": null, "layer": null, "service": null, "building": null, "height": null, "amenity": null, "shop": null, "addr:housenumber": null, "footway": null, "sidewalk": null, "box_id": 1, "provider": "protomaps" }, "geometry": { "type": "LineString", "coordinates": [ [ -49.289279616977858, -25.431932186154462 ], [ -49.289721250534058, -25.431749480609891 ] ] } },
{ "type": "Feature", "properties": { "name": "Alameda Júlia da Costa", "pmap:kind_detail": "residential", "pmap:min_zoom": 13.0, "pmap:kind": "minor_road", "pmap:level": 0.0, "oneway": "yes", "highway": "minor_road", "pmap:link": null, "layer": null, "service": null, "building": null, "height": null, "amenity": null, "shop": null, "addr:housenumber": null, "footway": null, "sidewalk": null, "box_id": 1, "provider": "protomaps" }, "geometry": { "type": "LineString", "coordinates": [ [ -49.289284602355117, -25.431579239137054 ], [ -49.289721250534058, -25.431749480609891 ] ] } },
{ "type": "Feature", "properties": { "name": "Rua Marechal José Bernardino Bormann", "pmap:kind_detail": "residential", "pmap:min_zoom": 13.0, "pmap:kind": "minor_road", "pmap:level": 0.0, "oneway": "no", "highway": "minor_road", "pmap:link": null, "layer": null, "service": null, "building": null, "height": null, "amenity": null, "shop": null, "addr:housenumber": null, "footway": null, "sidewalk": null, "box_id": 1, "provider": "protomaps" }, "geometry": { "type": "LineString", "coordinates": [ [ -49.299180289089271, -25.434882070632518 ], [ -49.29806721170403, -25.437190316813243 ] ] } },
{ "type": "Feature", "properties": { "name": "Alameda Augusto Stellfeld", "pmap:kind_detail": "residential", "pmap:min_zoom": 13.0, "pmap:kind": "minor_road", "pmap:level": 0.0, "oneway": "no", "highway": "minor_road", "pmap:link": null, "layer": null, "service": null, "building": null, "height": null, "amenity": null, "shop": null, "addr:housenumber": null, "footway": null, "sidewalk": null, "box_id": 1, "provider": "protomaps" }, "geometry": { "type": "LineString", "coordinates": [ [ -49.293293952941895, -25.435271452338721 ], [ -49.295724034309387, -25.436196757153311 ] ] } },
{ "type": "Feature", "properties": { "name": null, "pmap:kind_detail": "residential", "pmap:min_zoom": 13.0, "pmap:kind": "minor_road", "pmap:level": 0.0, "oneway": null, "highway": "minor_road", "pmap:link": null, "layer": null, "service": null, "building": null, "height": null, "amenity": null, "shop": null, "addr:housenumber": null, "footway": null, "sidewalk": null, "box_id": 1, "provider": "protomaps" }, "geometry": { "type": "MultiLineString", "coordinates": [ [ [ -49.295825958251953, -25.436346937515889 ], [ -49.295922517776489, -25.436167689986362 ] ], [ [ -49.295600652694702, -25.435411943645651 ], [ -49.295756220817566, -25.435038915003119 ] ] ] } },
{ "type": "Feature", "properties": { "name": "Rua General Aristides Athaýde Júnior", "pmap:kind_detail": "tertiary", "pmap:min_zoom": 10.0, "pmap:kind": "medium_road", "pmap:level": 0.0, "oneway": "yes", "highway": "medium_road", "pmap:link": null, "layer": null, "service": null, "building": null, "height": null, "amenity": null, "shop": null, "addr:housenumber": null, "footway": null, "sidewalk": null, "box_id": 1, "provider": "protomaps" }, "geometry": { "type": "LineString", "coordinates": [ [ -49.295246265497994, -25.43715755138772 ], [ -49.29715633392334, -25.433304574041742 ] ] } },
{ "type": "Feature", "properties": { "name": null, "pmap:kind_detail": "residential", "pmap:min_zoom": 13.0, "pmap:kind": "minor_road", "pmap:level": 0.0, "oneway": "yes", "highway": "minor_road", "pmap:link": null, "layer": null, "service": null, "building": null, "height": null, "amenity": null, "shop": null, "addr:housenumber": null, "footway": null, "sidewalk": null, "box_id": 1, "provider": "protomaps" }, "geometry": { "type": "LineString", "coordinates": [ [ -49.292553663253784, -25.434651352777113 ], [ -49.292612671852112, -25.434879045584889 ], [ -49.292714595794678, -25.435063137642242 ] ] } },
{ "type": "Feature", "properties": { "name": "Rua Bruno Filgueira", "pmap:kind_detail": "residential", "pmap:min_zoom": 13.0, "pmap:kind": "minor_road", "pmap:level": 0.0, "oneway": "no", "highway": "minor_road", "pmap:link": null, "layer": null, "service": null, "building": null, "height": null, "amenity": null, "shop": null, "addr:housenumber": null, "footway": null, "sidewalk": null, "box_id": 1, "provider": "protomaps" }, "geometry": { "type": "MultiLineString", "coordinates": [ [ [ -49.298399192273358, -25.42816613630232 ], [ -49.296609163284302, -25.431768858721192 ] ], [ [ -49.296373128890991, -25.432248466975874 ], [ -49.293943854072971, -25.437142423816535 ] ] ] } },
{ "type": "Feature", "properties": { "name": "Alameda Júlia da Costa", "pmap:kind_detail": "tertiary", "pmap:min_zoom": 10.0, "pmap:kind": "medium_road", "pmap:level": 0.0, "oneway": "yes", "highway": "medium_road", "pmap:link": null, "layer": null, "service": null, "building": null, "height": null, "amenity": null, "shop": null, "addr:housenumber": null, "footway": null, "sidewalk": null, "box_id": 1, "provider": "protomaps" }, "geometry": { "type": "LineString", "coordinates": [ [ -49.289721250534058, -25.431749480609891 ], [ -49.290069937705994, -25.431860904749868 ], [ -49.299172441664403, -25.435440886620615 ] ] } },
{ "type": "Feature", "properties": { "name": null, "pmap:kind_detail": "service", "pmap:min_zoom": 15.0, "pmap:kind": "minor_road", "pmap:level": 0.0, "oneway": "yes", "highway": "minor_road", "pmap:link": null, "layer": null, "service": "parking_aisle", "building": null, "height": null, "amenity": null, "shop": null, "addr:housenumber": null, "footway": null, "sidewalk": null, "box_id": 1, "provider": "protomaps" }, "geometry": { "type": "LineString", "coordinates": [ [ -49.292483925819397, -25.43230175678195 ], [ -49.292837977409363, -25.432432559033227 ], [ -49.29290771484375, -25.432296912254124 ] ] } },
{ "type": "Feature", "properties": { "name": null, "pmap:kind_detail": "service", "pmap:min_zoom": 14.0, "pmap:kind": "minor_road", "pmap:level": 0.0, "oneway": "yes", "highway": "minor_road", "pmap:link": null, "layer": null, "service": null, "building": null, "height": null, "amenity": null, "shop": null, "addr:housenumber": null, "footway": null, "sidewalk": null, "box_id": 1, "provider": "protomaps" }, "geometry": { "type": "MultiLineString", "coordinates": [ [ [ -49.292274713516235, -25.432224244336748 ], [ -49.292483925819397, -25.43230175678195 ] ], [ [ -49.293546080589294, -25.432495537894951 ], [ -49.29341197013855, -25.432490693367129 ], [ -49.293513894081116, -25.432558516756679 ] ] ] } },
{ "type": "Feature", "properties": { "name": null, "pmap:kind_detail": "service", "pmap:min_zoom": 14.0, "pmap:kind": "minor_road", "pmap:level": 0.0, "oneway": null, "highway": "minor_road", "pmap:link": null, "layer": null, "service": null, "building": null, "height": null, "amenity": null, "shop": null, "addr:housenumber": null, "footway": null, "sidewalk": null, "box_id": 1, "provider": "protomaps" }, "geometry": { "type": "MultiLineString", "coordinates": [ [ [ -49.295761585235596, -25.429414418198203 ], [ -49.295214414596558, -25.429167347279126 ] ], [ [ -49.296298027038574, -25.430678839960549 ], [ -49.295965433120728, -25.43053834865362 ] ], [ [ -49.297928810119629, -25.429990917009388 ], [ -49.297547936439514, -25.429879492869411 ] ], [ [ -49.29791271686554, -25.430988889741354 ], [ -49.297821521759033, -25.431192359910007 ] ], [ [ -49.297724962234497, -25.436409916377617 ], [ -49.297730326652527, -25.436337248460237 ], [ -49.297708868980408, -25.43629849223764 ], [ -49.297258257865906, -25.43613862281941 ] ], [ [ -49.298009276390076, -25.435930308122934 ], [ -49.297853708267212, -25.436201601681137 ], [ -49.297832250595093, -25.436216135264612 ], [ -49.297794699668884, -25.436216135264612 ], [ -49.297510385513306, -25.436109555652461 ] ], [ [ -49.299153216505573, -25.436809912296273 ], [ -49.299055337905884, -25.436782945020145 ], [ -49.298996329307556, -25.436782945020145 ] ], [ [ -49.293143749237061, -25.435014692363993 ], [ -49.293149061355749, -25.434918746422944 ] ], [ [ -49.293149061355749, -25.434918746422944 ], [ -49.29314911365509, -25.43491780180749 ] ], [ [ -49.29341733455658, -25.435053448586594 ], [ -49.293251037597656, -25.435000158780518 ], [ -49.293143749237061, -25.435014692363993 ] ], [ [ -49.293143749237061, -25.435014692363993 ], [ -49.293074011802673, -25.435087360281369 ], [ -49.293025732040405, -25.435169717254396 ] ], [ [ -49.293261766433716, -25.434971091613566 ], [ -49.293293952941895, -25.43489842369619 ], [ -49.293288588523865, -25.434874201057067 ], [ -49.293127655982971, -25.434816066723165 ], [ -49.293106198310852, -25.434820911250991 ], [ -49.293074011802673, -25.434883890112715 ], [ -49.293149061355749, -25.434918746422944 ] ], [ [ -49.293149061355749, -25.434918746422944 ], [ -49.293261766433716, -25.434971091613566 ] ], [ [ -49.290515184402466, -25.433415998181719 ], [ -49.290193319320679, -25.434157210938952 ] ], [ [ -49.291432499885559, -25.434254101495455 ], [ -49.291716814041138, -25.434007030576378 ], [ -49.291818737983704, -25.433982807937252 ], [ -49.291931390762329, -25.4339924969929 ], [ -49.292317628860474, -25.43415236641113 ] ], [ [ -49.291566610336304, -25.436991259716624 ], [ -49.291512966156006, -25.437092994800953 ], [ -49.291469998736588, -25.43711368986812 ] ], [ [ -49.291867017745972, -25.43636631562719 ], [ -49.291620254516602, -25.436894369160122 ] ], [ [ -49.290788769721985, -25.432456781672354 ], [ -49.290928244590759, -25.432200021697621 ] ], [ [ -49.290520548820496, -25.432432559033227 ], [ -49.290692210197449, -25.432107975668945 ] ] ] } },
{ "type": "Feature", "properties": { "name": "Canaleta Exclusiva BRT", "pmap:kind_detail": "service", "pmap:min_zoom": 14.0, "pmap:kind": "minor_road", "pmap:level": 0.0, "oneway": "no", "highway": "minor_road", "pmap:link": null, "layer": null, "service": null, "building": null, "height": null, "amenity": null, "shop": null, "addr:housenumber": null, "footway": null, "sidewalk": null, "box_id": 1, "provider": "protomaps" }, "geometry": { "type": "MultiLineString", "coordinates": [ [ [ -49.298948049545288, -25.432892789176609 ], [ -49.299206793271203, -25.43299470492089 ] ], [ [ -49.289319626146252, -25.429099679021196 ], [ -49.298749566078186, -25.432815276731407 ] ] ] } },
{ "type": "Feature", "properties": { "name": "Avenida Cândido Hartmann", "pmap:kind_detail": "residential", "pmap:min_zoom": 13.0, "pmap:kind": "minor_road", "pmap:level": 0.0, "oneway": "yes", "highway": "minor_road", "pmap:link": null, "layer": null, "service": null, "building": null, "height": null, "amenity": null, "shop": null, "addr:housenumber": null, "footway": null, "sidewalk": null, "box_id": 1, "provider": "protomaps" }, "geometry": { "type": "LineString", "coordinates": [ [ -49.289721250534058, -25.431749480609891 ], [ -49.2901611328125, -25.431652590053389 ], [ -49.2914217710495, -25.431298939522158 ], [ -49.291630983352661, -25.431216582549133 ], [ -49.291711449623108, -25.431163292743058 ], [ -49.292280077934265, -25.430359101124093 ] ] } },
{ "type": "Feature", "properties": { "name": "Rua Fernando Simas", "pmap:kind_detail": "tertiary", "pmap:min_zoom": 10.0, "pmap:kind": "medium_road", "pmap:level": 0.0, "oneway": "yes", "highway": "medium_road", "pmap:link": null, "layer": null, "service": null, "building": null, "height": null, "amenity": null, "shop": null, "addr:housenumber": null, "footway": null, "sidewalk": null, "box_id": 1, "provider": "protomaps" }, "geometry": { "type": "LineString", "coordinates": [ [ -49.289299915401912, -25.430495129768424 ], [ -49.290446676864285, -25.428073797943441 ] ] } },
{ "type": "Feature", "properties": { "name": "Avenida Cândido Hartmann", "pmap:kind_detail": "residential", "pmap:min_zoom": 13.0, "pmap:kind": "minor_road", "pmap:level": 0.0, "oneway": null, "highway": "minor_road", "pmap:link": null, "layer": null, "service": null, "building": null, "height": null, "amenity": null, "shop": null, "addr:housenumber": null, "footway": null, "sidewalk": null, "box_id": 1, "provider": "protomaps" }, "geometry": { "type": "LineString", "coordinates": [ [ -49.293717741966248, -25.429559754032955 ], [ -49.292446374893188, -25.430237987928468 ] ] } },
{ "type": "Feature", "properties": { "name": "Rua Professora Ephigênia do Rego Barros", "pmap:kind_detail": "residential", "pmap:min_zoom": 13.0, "pmap:kind": "minor_road", "pmap:level": 0.0, "oneway": "no", "highway": "minor_road", "pmap:link": null, "layer": null, "service": null, "building": null, "height": null, "amenity": null, "shop": null, "addr:housenumber": null, "footway": null, "sidewalk": null, "box_id": 1, "provider": "protomaps" }, "geometry": { "type": "LineString", "coordinates": [ [ -49.292119145393372, -25.430107185677191 ], [ -49.292703866958618, -25.428900898248745 ] ] } },
{ "type": "Feature", "properties": { "name": "Rua Marcelino Champagnat", "pmap:kind_detail": "secondary", "pmap:min_zoom": 10.0, "pmap:kind": "medium_road", "pmap:level": 0.0, "oneway": "yes", "highway": "medium_road", "pmap:link": null, "layer": null, "service": null, "building": null, "height": null, "amenity": null, "shop": null, "addr:housenumber": null, "footway": null, "sidewalk": null, "box_id": 1, "provider": "protomaps" }, "geometry": { "type": "LineString", "coordinates": [ [ -49.29415762424469, -25.42947739705993 ], [ -49.294232726097107, -25.429332061225178 ], [ -49.294243454933167, -25.428556936773166 ], [ -49.294221766102012, -25.428117631312745 ] ] } },
{ "type": "Feature", "properties": { "name": "Rua Padre Agostinho", "pmap:kind_detail": "primary", "pmap:min_zoom": 8.0, "pmap:kind": "major_road", "pmap:level": 0.0, "oneway": "yes", "highway": "major_road", "pmap:link": null, "layer": null, "service": null, "building": null, "height": null, "amenity": null, "shop": null, "addr:housenumber": null, "footway": null, "sidewalk": null, "box_id": 1, "provider": "protomaps" }, "geometry": { "type": "LineString", "coordinates": [ [ -49.290619041136978, -25.428075799301912 ], [ -49.29415762424469, -25.42947739705993 ], [ -49.299227520858828, -25.431518691125451 ] ] } },
{ "type": "Feature", "properties": { "name": "Rua Desembargador Otávio do Amaral", "pmap:kind_detail": "residential", "pmap:min_zoom": 13.0, "pmap:kind": "minor_road", "pmap:level": 0.0, "oneway": null, "highway": "minor_road", "pmap:link": null, "layer": null, "service": null, "building": null, "height": null, "amenity": null, "shop": null, "addr:housenumber": null, "footway": null, "sidewalk": null, "box_id": 1, "provider": "protomaps" }, "geometry": { "type": "LineString", "coordinates": [ [ -49.294307827949524, -25.430969511630053 ], [ -49.295450448989868, -25.428692583552266 ] ] } },
{ "type": "Feature", "properties": { "name": "Rua Desembargador Otávio do Amaral", "pmap:kind_detail": "residential", "pmap:min_zoom": 13.0, "pmap:kind": "minor_road", "pmap:level": 0.0, "oneway": "no", "highway": "minor_road", "pmap:link": null, "layer": null, "service": null, "building": null, "height": null, "amenity": null, "shop": null, "addr:housenumber": null, "footway": null, "sidewalk": null, "box_id": 1, "provider": "protomaps" }, "geometry": { "type": "MultiLineString", "coordinates": [ [ [ -49.292843341827393, -25.433890761908575 ], [ -49.292457103729248, -25.43489842369619 ], [ -49.292382001876831, -25.434975936141392 ] ], [ [ -49.293798208236694, -25.43198686247332 ], [ -49.294232726097107, -25.431129381048279 ] ], [ [ -49.295563101768494, -25.428280798687137 ], [ -49.295630417935236, -25.428133987470744 ] ] ] } },
{ "type": "Feature", "properties": { "name": "Rua Frederico Cantarelli", "pmap:kind_detail": "residential", "pmap:min_zoom": 13.0, "pmap:kind": "minor_road", "pmap:level": 0.0, "oneway": "yes", "highway": "minor_road", "pmap:link": null, "layer": null, "service": null, "building": null, "height": null, "amenity": null, "shop": null, "addr:housenumber": null, "footway": null, "sidewalk": null, "box_id": 1, "provider": "protomaps" }, "geometry": { "type": "LineString", "coordinates": [ [ -49.296936392784119, -25.428818541275717 ], [ -49.295154638299778, -25.428128463091543 ] ] } }
]
}
