{
"type": "FeatureCollection",
"name": "curitiba_1km_all_protoblocks",
"crs": { "type": "name", "properties": { "name": "urn:ogc:def:crs:OGC:1.3:CRS84" } },
"features": [
{ "type": "Feature", "properties": { "box_id": 1, "provider": "protomaps" }, "geometry": { "type": "Polygon", "coordinates": [ [ [ -49.267142414979851, -25.460779851949646 ], [ -49.267965359759117, -25.461124069283574 ], [ -49.268714377954751, -25.459573847837621 ], [ -49.268714189239482, -25.459573762554729 ], [ -49.267931335425466, -25.459254219437231 ], [ -49.26714071359163, -25.460779151156871 ], [ -49.267142414979851, -25.460779851949646 ] ] ] } },
{ "type": "Feature", "properties": { "box_id": 1, "provider": "protomaps" }, "geometry": { "type": "Polygon", "coordinates": [ [ [ -49.267965359759117, -25.461124069283574 ], [ -49.267142414979851, -25.460779851949646 ], [ -49.26714071359163, -25.460779151156871 ], [ -49.266148619265415, -25.46269261098238 ], [ -49.266149998168935, -25.462693124710928 ], [ -49.266597869762279, -25.462900138516432 ], [ -49.266600609235859, -25.462901404988287 ], [ -49.267023128285409, -25.463060769443043 ], [ -49.267024398304073, -25.46306124847462 ], [ -49.267026354061919, -25.463062174360047 ], [ -49.26753938151446, -25.462053752200308 ], [ -49.267963170757859, -25.461128599835831 ], [ -49.267965359759117, -25.461124069283574 ] ] ] } },
{ "type": "Feature", "properties": { "box_id": 1, "provider": "protomaps" }, "geometry": { "type": "Polygon", "coordinates": [ [ [ -49.267965359759117, -25.461124069283574 ], [ -49.268601536426395, -25.461390161398484 ], [ -49.269010770026597, -25.461551708763412 ], [ -49.269379377515165, -25.460799226002898 ], [ -49.269717335886426, -25.46002907331199 ], [ -49.268714377954751, -25.459573847837621 ], [ -49.267965359759117, -25.461124069283574 ] ] ] } },
{ "type": "Feature", "properties": { "box_id": 1, "provider": "protomaps" }, "geometry": { "type": "Polygon", "coordinates": [ [ [ -49.269010770026597, -25.461551708763412 ], [ -49.268601536426395, -25.461390161398484 ], [ -49.267965359759117, -25.461124069283574 ], [ -49.267963170757859, -25.461128599835831 ], [ -49.26753938151446, -25.462053752200308 ], [ -49.267026354061919, -25.463062174360047 ], [ -49.26702634995543, -25.463062183339453 ], [ -49.267024398187672, -25.463061256598365 ], [ -49.267023125199074, -25.463060776628925 ], [ -49.266536236016094, -25.464020156946425 ], [ -49.266187548264128, -25.463845812118993 ], [ -49.265672564929226, -25.463618193930909 ], [ -49.265671433348196, -25.463617769788314 ], [ -49.264382537093816, -25.463134949068728 ], [ -49.264381432212687, -25.463134536065763 ], [ -49.26389213946738, -25.464148363449077 ], [ -49.262835370914146, -25.463721455760382 ], [ -49.262018839735575, -25.463396993168903 ], [ -49.262003060805696, -25.464494999960621 ], [ -49.262001252431006, -25.464620835040158 ], [ -49.271944270272101, -25.464738257996434 ], [ -49.272073216153764, -25.455711853148696 ], [ -49.272028185545309, -25.455711323049215 ], [ -49.271571904048287, -25.455705950932806 ], [ -49.271283745702625, -25.455771435172856 ], [ -49.271047711295097, -25.455819872376274 ], [ -49.27109089919599, -25.45570028619553 ], [ -49.269912113371909, -25.455686397109325 ], [ -49.269304275506812, -25.457001742256082 ], [ -49.268660545337646, -25.457878457481442 ], [ -49.269266724317603, -25.458430642721122 ], [ -49.270139403593745, -25.459218632595537 ], [ -49.271251554341255, -25.460222833325329 ], [ -49.27071241993405, -25.461326072676794 ], [ -49.27010893812389, -25.461075318834393 ], [ -49.269379377515165, -25.460799226002898 ], [ -49.269010770026597, -25.461551708763412 ] ] ] } },
{ "type": "Feature", "properties": { "box_id": 1, "provider": "protomaps" }, "geometry": { "type": "Polygon", "coordinates": [ [ [ -49.269379377515165, -25.460799226002898 ], [ -49.27010893812389, -25.461075318834393 ], [ -49.27071241993405, -25.461326072676794 ], [ -49.271251554341255, -25.460222833325329 ], [ -49.270139403593745, -25.459218632595537 ], [ -49.269717335886426, -25.46002907331199 ], [ -49.269379377515165, -25.460799226002898 ] ] ] } },
{ "type": "Feature", "properties": { "box_id": 1, "provider": "protomaps" }, "geometry": { "type": "Polygon", "coordinates": [ [ [ -49.269717335886426, -25.46002907331199 ], [ -49.270139403593745, -25.459218632595537 ], [ -49.269266724317603, -25.458430642721122 ], [ -49.268714377954751, -25.459573847837621 ], [ -49.269717335886426, -25.46002907331199 ] ] ] } },
{ "type": "Feature", "properties": { "box_id": 1, "provider": "protomaps" }, "geometry": { "type": "Polygon", "coordinates": [ [ [ -49.26702634995543, -25.463062183339453 ], [ -49.267026354061919, -25.463062174360047 ], [ -49.267024398304073, -25.46306124847462 ], [ -49.267023128285409, -25.463060769443043 ], [ -49.267023125199074, -25.463060776628925 ], [ -49.267024398187672, -25.463061256598365 ], [ -49.26702634995543, -25.463062183339453 ] ] ] } },
{ "type": "Feature", "properties": { "box_id": 1, "provider": "protomaps" }, "geometry": { "type": "Polygon", "coordinates": [ [ [ -49.268714377954751, -25.459573847837621 ], [ -49.269266724317603, -25.458430642721122 ], [ -49.268660545337646, -25.457878457481442 ], [ -49.268252849684991, -25.458634078930551 ], [ -49.267931335425466, -25.459254219437231 ], [ -49.268714189239482, -25.459573762554729 ], [ -49.268714377954751, -25.459573847837621 ] ] ] } },
{ "type": "Feature", "properties": { "box_id": 1, "provider": "protomaps" }, "geometry": { "type": "Polygon", "coordinates": [ [ [ -49.267458915587035, -25.456793462310142 ], [ -49.268660545337646, -25.457878457481442 ], [ -49.269304275506812, -25.457001742256082 ], [ -49.269912113371909, -25.455686397109325 ], [ -49.269281317819427, -25.455678960849713 ], [ -49.267992353118174, -25.455663757202029 ], [ -49.267775416665998, -25.456110495841482 ], [ -49.267458915587035, -25.456793462310142 ] ] ] } },
{ "type": "Feature", "properties": { "box_id": 1, "provider": "protomaps" }, "geometry": { "type": "Polygon", "coordinates": [ [ [ -49.268660545337646, -25.457878457481442 ], [ -49.267458915587035, -25.456793462310142 ], [ -49.266824754158669, -25.458088344598689 ], [ -49.267475767446427, -25.458337125472283 ], [ -49.268252849684991, -25.458634078930551 ], [ -49.268660545337646, -25.457878457481442 ] ] ] } },
{ "type": "Feature", "properties": { "box_id": 1, "provider": "protomaps" }, "geometry": { "type": "Polygon", "coordinates": [ [ [ -49.271047711295097, -25.455819872376274 ], [ -49.271283745702625, -25.455771435172856 ], [ -49.271571904048287, -25.455705950932806 ], [ -49.27109089919599, -25.45570028619553 ], [ -49.271047711295097, -25.455819872376274 ] ] ] } },
{ "type": "Feature", "properties": { "box_id": 1, "provider": "protomaps" }, "geometry": { "type": "Polygon", "coordinates": [ [ [ -49.266536236016094, -25.464020156946425 ], [ -49.267023125199074, -25.463060776628925 ], [ -49.266600608731331, -25.462901440191146 ], [ -49.266597869762279, -25.462900138516432 ], [ -49.266149998168935, -25.462693124710928 ], [ -49.266148619265415, -25.46269261098238 ], [ -49.265629649274153, -25.46249937541976 ], [ -49.264844662534379, -25.462174791541738 ], [ -49.264380653775554, -25.463134243383429 ], [ -49.26438143222564, -25.463134535163128 ], [ -49.264382537093816, -25.463134949068728 ], [ -49.265671433348196, -25.463617769788314 ], [ -49.265672564929226, -25.463618193930909 ], [ -49.266187548264128, -25.463845812118993 ], [ -49.266536236016094, -25.464020156946425 ] ] ] } },
{ "type": "Feature", "properties": { "box_id": 1, "provider": "protomaps" }, "geometry": { "type": "Polygon", "coordinates": [ [ [ -49.267023125199074, -25.463060776628925 ], [ -49.267023128285409, -25.463060769443043 ], [ -49.266600609235859, -25.462901404988287 ], [ -49.266597869762279, -25.462900138516432 ], [ -49.266600608731331, -25.462901440191146 ], [ -49.267023125199074, -25.463060776628925 ] ] ] } },
{ "type": "Feature", "properties": { "box_id": 1, "provider": "protomaps" }, "geometry": { "type": "Polygon", "coordinates": [ [ [ -49.26438143222564, -25.463134535163128 ], [ -49.264380653775554, -25.463134243383429 ], [ -49.264380652755356, -25.463134245176938 ], [ -49.264381432212687, -25.463134536065763 ], [ -49.26438143222564, -25.463134535163128 ] ] ] } },
{ "type": "Feature", "properties": { "box_id": 1, "provider": "protomaps" }, "geometry": { "type": "Polygon", "coordinates": [ [ [ -49.264382537093816, -25.463134949068728 ], [ -49.26438143222564, -25.463134535163128 ], [ -49.264381432212687, -25.463134536065763 ], [ -49.264382537093816, -25.463134949068728 ] ] ] } },
{ "type": "Feature", "properties": { "box_id": 1, "provider": "protomaps" }, "geometry": { "type": "Polygon", "coordinates": [ [ [ -49.262835370914146, -25.463721455760382 ], [ -49.26389213946738, -25.464148363449077 ], [ -49.264381432212687, -25.463134536065763 ], [ -49.264380652755356, -25.463134245176938 ], [ -49.264379739768664, -25.463133903958251 ], [ -49.263443595697751, -25.462755993589479 ], [ -49.263906249597234, -25.461786780561759 ], [ -49.262713662206515, -25.461311491570793 ], [ -49.262614840927398, -25.461272839732317 ], [ -49.262052522523732, -25.461052897281171 ], [ -49.262036209201632, -25.462188231553366 ], [ -49.26201884445706, -25.46339666460586 ], [ -49.262018839735575, -25.463396993168903 ], [ -49.262835370914146, -25.463721455760382 ] ] ] } },
{ "type": "Feature", "properties": { "box_id": 1, "provider": "protomaps" }, "geometry": { "type": "Polygon", "coordinates": [ [ [ -49.263443595697751, -25.462755993589479 ], [ -49.264379739768664, -25.463133903958251 ], [ -49.264380652755356, -25.463134245176938 ], [ -49.264380653775554, -25.463134243383429 ], [ -49.264844662534379, -25.462174791541738 ], [ -49.263907670482247, -25.461787347169075 ], [ -49.263906249597234, -25.461786780561759 ], [ -49.263443595697751, -25.462755993589479 ] ] ] } },
{ "type": "Feature", "properties": { "box_id": 1, "provider": "protomaps" }, "geometry": { "type": "Polygon", "coordinates": [ [ [ -49.262615140109958, -25.461272226668967 ], [ -49.262713662206515, -25.461311491570793 ], [ -49.263906249597234, -25.461786780561759 ], [ -49.264836294078762, -25.459838379388692 ], [ -49.263564667836619, -25.459326079782631 ], [ -49.263564348208966, -25.459326732329316 ], [ -49.262615140109958, -25.461272226668967 ] ] ] } },
{ "type": "Feature", "properties": { "box_id": 1, "provider": "protomaps" }, "geometry": { "type": "Polygon", "coordinates": [ [ [ -49.262713662206515, -25.461311491570793 ], [ -49.262615140109958, -25.461272226668967 ], [ -49.262614840927398, -25.461272839732317 ], [ -49.262713662206515, -25.461311491570793 ] ] ] } },
{ "type": "Feature", "properties": { "box_id": 1, "provider": "protomaps" }, "geometry": { "type": "Polygon", "coordinates": [ [ [ -49.263906249597234, -25.461786780561759 ], [ -49.263907670482247, -25.461787347169075 ], [ -49.264844662534379, -25.462174791541738 ], [ -49.265788959575566, -25.460222168477017 ], [ -49.264836294078762, -25.459838379388692 ], [ -49.263906249597234, -25.461786780561759 ] ] ] } },
{ "type": "Feature", "properties": { "box_id": 1, "provider": "protomaps" }, "geometry": { "type": "Polygon", "coordinates": [ [ [ -49.264844662534379, -25.462174791541738 ], [ -49.265629649274153, -25.46249937541976 ], [ -49.266148619265415, -25.46269261098238 ], [ -49.26714071359163, -25.460779151156871 ], [ -49.26579058206616, -25.460222822310307 ], [ -49.265788959575566, -25.460222168477017 ], [ -49.264844662534379, -25.462174791541738 ] ] ] } },
{ "type": "Feature", "properties": { "box_id": 1, "provider": "protomaps" }, "geometry": { "type": "Polygon", "coordinates": [ [ [ -49.266514778406673, -25.458721266155024 ], [ -49.266161023356005, -25.459452792501057 ], [ -49.265788959575566, -25.460222168477017 ], [ -49.26579058206616, -25.460222822310307 ], [ -49.26714071359163, -25.460779151156871 ], [ -49.267931335425466, -25.459254219437231 ], [ -49.267930984454345, -25.459254076265491 ], [ -49.266514778406673, -25.458721266155024 ] ] ] } },
{ "type": "Feature", "properties": { "box_id": 1, "provider": "protomaps" }, "geometry": { "type": "Polygon", "coordinates": [ [ [ -49.266161023356005, -25.459452792501057 ], [ -49.266514778406673, -25.458721266155024 ], [ -49.265554547072099, -25.458338611459297 ], [ -49.265552571474814, -25.458337757546055 ], [ -49.264836294078762, -25.459838379388692 ], [ -49.265788959575566, -25.460222168477017 ], [ -49.266161023356005, -25.459452792501057 ] ] ] } },
{ "type": "Feature", "properties": { "box_id": 1, "provider": "protomaps" }, "geometry": { "type": "Polygon", "coordinates": [ [ [ -49.267931335425466, -25.459254219437231 ], [ -49.268252849684991, -25.458634078930551 ], [ -49.267475767446427, -25.458337125472283 ], [ -49.266824754158669, -25.458088344598689 ], [ -49.266514778406673, -25.458721266155024 ], [ -49.267930984454345, -25.459254076265491 ], [ -49.267931335425466, -25.459254219437231 ] ] ] } },
{ "type": "Feature", "properties": { "box_id": 1, "provider": "protomaps" }, "geometry": { "type": "Polygon", "coordinates": [ [ [ -49.262052522523732, -25.461052897281171 ], [ -49.262614840927398, -25.461272839732317 ], [ -49.262615140109958, -25.461272226668967 ], [ -49.263564348208966, -25.459326732329316 ], [ -49.263564667836619, -25.459326079782631 ], [ -49.262948997345006, -25.459078040324609 ], [ -49.262816807259291, -25.459025586425241 ], [ -49.262351989657141, -25.460004854960385 ], [ -49.262069293487365, -25.459885641539501 ], [ -49.262052522523732, -25.461052897281171 ] ] ] } },
{ "type": "Feature", "properties": { "box_id": 1, "provider": "protomaps" }, "geometry": { "type": "Polygon", "coordinates": [ [ [ -49.262069293487365, -25.459885641539501 ], [ -49.262351989657141, -25.460004854960385 ], [ -49.262816807259291, -25.459025586425241 ], [ -49.262085817190162, -25.45873552403609 ], [ -49.262069293487365, -25.459885641539501 ] ] ] } },
{ "type": "Feature", "properties": { "box_id": 1, "provider": "protomaps" }, "geometry": { "type": "Polygon", "coordinates": [ [ [ -49.262817127201075, -25.459024912217046 ], [ -49.262948997345006, -25.459078040324609 ], [ -49.263564667836619, -25.459326079782631 ], [ -49.264311486532144, -25.457801422419944 ], [ -49.263553360581767, -25.457473790270083 ], [ -49.262817127201075, -25.459024912217046 ] ] ] } },
{ "type": "Feature", "properties": { "box_id": 1, "provider": "protomaps" }, "geometry": { "type": "Polygon", "coordinates": [ [ [ -49.262948997345006, -25.459078040324609 ], [ -49.262817127201075, -25.459024912217046 ], [ -49.262816807259291, -25.459025586425241 ], [ -49.262948997345006, -25.459078040324609 ] ] ] } },
{ "type": "Feature", "properties": { "box_id": 1, "provider": "protomaps" }, "geometry": { "type": "Polygon", "coordinates": [ [ [ -49.263564667836619, -25.459326079782631 ], [ -49.264836294078762, -25.459838379388692 ], [ -49.265552571474814, -25.458337757546055 ], [ -49.264311486532144, -25.457801422419944 ], [ -49.263564667836619, -25.459326079782631 ] ] ] } },
{ "type": "Feature", "properties": { "box_id": 1, "provider": "protomaps" }, "geometry": { "type": "Polygon", "coordinates": [ [ [ -49.266835393420806, -25.455650100945235 ], [ -49.266641815870926, -25.456055676337236 ], [ -49.267458915587035, -25.456793462310142 ], [ -49.267775416665998, -25.456110495841482 ], [ -49.267992353118174, -25.455663757202029 ], [ -49.266835393420806, -25.455650100945235 ] ] ] } },
{ "type": "Feature", "properties": { "box_id": 1, "provider": "protomaps" }, "geometry": { "type": "Polygon", "coordinates": [ [ [ -49.266641815870926, -25.456055676337236 ], [ -49.266835393420806, -25.455650100945235 ], [ -49.266184128545561, -25.455642409681964 ], [ -49.266641815870926, -25.456055676337236 ] ] ] } },
{ "type": "Feature", "properties": { "box_id": 1, "provider": "protomaps" }, "geometry": { "type": "Polygon", "coordinates": [ [ [ -49.266641815870926, -25.456055676337236 ], [ -49.266097083234719, -25.457196961593905 ], [ -49.265552571474814, -25.458337757546055 ], [ -49.265554547072099, -25.458338611459297 ], [ -49.266514778406673, -25.458721266155024 ], [ -49.266824754158669, -25.458088344598689 ], [ -49.267458915587035, -25.456793462310142 ], [ -49.266641815870926, -25.456055676337236 ] ] ] } },
{ "type": "Feature", "properties": { "box_id": 1, "provider": "protomaps" }, "geometry": { "type": "Polygon", "coordinates": [ [ [ -49.266097083234719, -25.457196961593905 ], [ -49.266641815870926, -25.456055676337236 ], [ -49.266184128545561, -25.455642409681964 ], [ -49.265373681471715, -25.455632834484227 ], [ -49.26485163403796, -25.456698664006133 ], [ -49.266097083234719, -25.457196961593905 ] ] ] } },
{ "type": "Feature", "properties": { "box_id": 1, "provider": "protomaps" }, "geometry": { "type": "Polygon", "coordinates": [ [ [ -49.265552571474814, -25.458337757546055 ], [ -49.266097083234719, -25.457196961593905 ], [ -49.26485163403796, -25.456698664006133 ], [ -49.264311486532144, -25.457801422419944 ], [ -49.265552571474814, -25.458337757546055 ] ] ] } },
{ "type": "Feature", "properties": { "box_id": 1, "provider": "protomaps" }, "geometry": { "type": "Polygon", "coordinates": [ [ [ -49.262085817190162, -25.45873552403609 ], [ -49.262816807259291, -25.459025586425241 ], [ -49.262817127201075, -25.459024912217046 ], [ -49.263553360581767, -25.457473790270083 ], [ -49.26354825513063, -25.457471583938013 ], [ -49.262545786436711, -25.457077857858597 ], [ -49.262545249628282, -25.457078953810608 ], [ -49.262112062621043, -25.456908589349737 ], [ -49.262085817190162, -25.45873552403609 ] ] ] } },
{ "type": "Feature", "properties": { "box_id": 1, "provider": "protomaps" }, "geometry": { "type": "Polygon", "coordinates": [ [ [ -49.262545786436711, -25.457077857858597 ], [ -49.26354825513063, -25.457471583938013 ], [ -49.263553360581767, -25.457473790270083 ], [ -49.264069110874821, -25.456387161728355 ], [ -49.263076792485315, -25.455992150310102 ], [ -49.262545786436711, -25.457077857858597 ] ] ] } },
{ "type": "Feature", "properties": { "box_id": 1, "provider": "protomaps" }, "geometry": { "type": "Polygon", "coordinates": [ [ [ -49.263553360581767, -25.457473790270083 ], [ -49.264311486532144, -25.457801422419944 ], [ -49.26485163403796, -25.456698664006133 ], [ -49.264846444193417, -25.456696587626421 ], [ -49.264069110874821, -25.456387161728355 ], [ -49.263553360581767, -25.457473790270083 ] ] ] } },
{ "type": "Feature", "properties": { "box_id": 1, "provider": "protomaps" }, "geometry": { "type": "Polygon", "coordinates": [ [ [ -49.264846444193417, -25.456696587626421 ], [ -49.26485163403796, -25.456698664006133 ], [ -49.265373681471715, -25.455632834484227 ], [ -49.264432414383812, -25.455621708069156 ], [ -49.264069110874821, -25.456387161728355 ], [ -49.264846444193417, -25.456696587626421 ] ] ] } },
{ "type": "Feature", "properties": { "box_id": 1, "provider": "protomaps" }, "geometry": { "type": "Polygon", "coordinates": [ [ [ -49.264069110874821, -25.456387161728355 ], [ -49.264432414383812, -25.455621708069156 ], [ -49.263264722776185, -25.455607896773913 ], [ -49.263076792485315, -25.455992150310102 ], [ -49.264069110874821, -25.456387161728355 ] ] ] } },
{ "type": "Feature", "properties": { "box_id": 1, "provider": "protomaps" }, "geometry": { "type": "Polygon", "coordinates": [ [ [ -49.262112062621043, -25.456908589349737 ], [ -49.262545249628282, -25.457078953810608 ], [ -49.262545786436711, -25.457077857858597 ], [ -49.263076792485315, -25.455992150310102 ], [ -49.263264722776185, -25.455607896773913 ], [ -49.262232768178862, -25.455595683224811 ], [ -49.262207917782206, -25.455648516399275 ], [ -49.262127713766162, -25.455819034222444 ], [ -49.262112062621043, -25.456908589349737 ] ] ] } },
{ "type": "Feature", "properties": { "box_id": 1, "provider": "protomaps" }, "geometry": { "type": "Polygon", "coordinates": [ [ [ -49.262207917782206, -25.455648516399275 ], [ -49.262232768178862, -25.455595683224811 ], [ -49.2621309393435, -25.455594477651097 ], [ -49.262130604221987, -25.455617808092139 ], [ -49.262207917782206, -25.455648516399275 ] ] ] } },
{ "type": "Feature", "properties": { "box_id": 1, "provider": "protomaps" }, "geometry": { "type": "Polygon", "coordinates": [ [ [ -49.262127713766162, -25.455819034222444 ], [ -49.262207917782206, -25.455648516399275 ], [ -49.262130604221987, -25.455617808092139 ], [ -49.262127713766162, -25.455819034222444 ] ] ] } },
{ "type": "Feature", "properties": { "box_id": 1, "provider": "osmnx" }, "geometry": { "type": "Polygon", "coordinates": [ [ [ -49.262003197319942, -25.464485500633025 ], [ -49.262223599940206, -25.464575199728564 ], [ -49.262672199738489, -25.463648700329799 ], [ -49.262019012625089, -25.463384961967986 ], [ -49.262003197319942, -25.464485500633025 ] ] ] } },
{ "type": "Feature", "properties": { "box_id": 1, "provider": "osmnx" }, "geometry": { "type": "Polygon", "coordinates": [ [ [ -49.262223599940206, -25.464575199728564 ], [ -49.262003197319942, -25.464485500633025 ], [ -49.262001252431006, -25.464620835040158 ], [ -49.271944270272101, -25.464738257996434 ], [ -49.272073216153764, -25.455711853148696 ], [ -49.272030780485878, -25.455711353597184 ], [ -49.27156207374486, -25.455705835178261 ], [ -49.271284399757015, -25.455768599981962 ], [ -49.271147699618645, -25.455798399928195 ], [ -49.271051100120978, -25.45581959992651 ], [ -49.271032200293021, -25.455908200352656 ], [ -49.270865099634968, -25.456692100122545 ], [ -49.270846200502525, -25.456780699609524 ], [ -49.270894900411555, -25.456859400059983 ], [ -49.271088700487127, -25.457172099979882 ], [ -49.271137399706333, -25.457250800350611 ], [ -49.271186099993834, -25.457329499816744 ], [ -49.271720400396795, -25.458191900243722 ], [ -49.271769100409088, -25.458270600437238 ], [ -49.271677499802593, -25.458305799644762 ], [ -49.271137499733882, -25.458513200379645 ], [ -49.271027799581049, -25.458555199759452 ], [ -49.271963000091255, -25.459399599997912 ], [ -49.271791800457613, -25.459401400329934 ], [ -49.271695699576753, -25.459314700252829 ], [ -49.271536299512775, -25.459643000439314 ], [ -49.271255400108821, -25.460223300228211 ], [ -49.270729200053268, -25.461310500428471 ], [ -49.270367000465484, -25.462058800254159 ], [ -49.270736099738137, -25.462208600413437 ], [ -49.27172710010381, -25.462610999787064 ], [ -49.271521599564608, -25.46303140033427 ], [ -49.271432500226517, -25.46321780026388 ], [ -49.270972899717236, -25.464180399832035 ], [ -49.270423000302827, -25.463685899658696 ], [ -49.269437300014566, -25.464142899960148 ], [ -49.269354300237623, -25.464069000010127 ], [ -49.269287600046113, -25.464010999909505 ], [ -49.269227299511826, -25.463963200059794 ], [ -49.269071900035932, -25.464033199570622 ], [ -49.268463000480494, -25.464320299917073 ], [ -49.267775699592526, -25.464627499968444 ], [ -49.267593499904713, -25.464231499574861 ], [ -49.26746130023443, -25.464279000116605 ], [ -49.267319899599485, -25.464330599804345 ], [ -49.267054700456995, -25.464429399679528 ], [ -49.266928999995081, -25.464207099947874 ], [ -49.266900699823779, -25.46416869957406 ], [ -49.266871300163309, -25.464147899649273 ], [ -49.26683869976732, -25.464133800344094 ], [ -49.266539399965758, -25.464043499849719 ], [ -49.2670192997725, -25.463058399547734 ], [ -49.266649000348849, -25.462900300071798 ], [ -49.266152799784869, -25.462685199714567 ], [ -49.265664800168175, -25.463630399971443 ], [ -49.265140800304508, -25.464645300395539 ], [ -49.263895499956455, -25.464142600074695 ], [ -49.262949199978742, -25.463760500030126 ], [ -49.262672199738489, -25.463648700329799 ], [ -49.262223599940206, -25.464575199728564 ] ] ] } },
{ "type": "Feature", "properties": { "box_id": 1, "provider": "osmnx" }, "geometry": { "type": "Polygon", "coordinates": [ [ [ -49.262949199978742, -25.463760500030126 ], [ -49.263895499956455, -25.464142600074695 ], [ -49.264390099527041, -25.463118900239188 ], [ -49.263437999702177, -25.462737099698344 ], [ -49.262949199978742, -25.463760500030126 ] ] ] } },
{ "type": "Feature", "properties": { "box_id": 1, "provider": "osmnx" }, "geometry": { "type": "Polygon", "coordinates": [ [ [ -49.262672199738489, -25.463648700329799 ], [ -49.262949199978742, -25.463760500030126 ], [ -49.263437999702177, -25.462737099698344 ], [ -49.262141700023236, -25.462216899810436 ], [ -49.262036404401627, -25.462174646912594 ], [ -49.262019012625089, -25.463384961967986 ], [ -49.262672199738489, -25.463648700329799 ] ] ] } },
{ "type": "Feature", "properties": { "box_id": 1, "provider": "osmnx" }, "geometry": { "type": "Polygon", "coordinates": [ [ [ -49.265140800304508, -25.464645300395539 ], [ -49.265664800168175, -25.463630399971443 ], [ -49.264390099527041, -25.463118900239188 ], [ -49.263895499956455, -25.464142600074695 ], [ -49.265140800304508, -25.464645300395539 ] ] ] } },
{ "type": "Feature", "properties": { "box_id": 1, "provider": "osmnx" }, "geometry": { "type": "Polygon", "coordinates": [ [ [ -49.265664800168175, -25.463630399971443 ], [ -49.266152799784869, -25.462685199714567 ], [ -49.265630599893043, -25.462474900277698 ], [ -49.265269900053731, -25.462329599613422 ], [ -49.264852700407779, -25.462161500006442 ], [ -49.264390099527041, -25.463118900239188 ], [ -49.265664800168175, -25.463630399971443 ] ] ] } },
{ "type": "Feature", "properties": { "box_id": 1, "provider": "osmnx" }, "geometry": { "type": "Polygon", "coordinates": [ [ [ -49.266152799784869, -25.462685199714567 ], [ -49.266672499628058, -25.461678700390788 ], [ -49.265341899978289, -25.46114910014127 ], [ -49.264852700407779, -25.462161500006442 ], [ -49.265269900053731, -25.462329599613422 ], [ -49.265630599893043, -25.462474900277698 ], [ -49.266152799784869, -25.462685199714567 ] ] ] } },
{ "type": "Feature", "properties": { "box_id": 1, "provider": "osmnx" }, "geometry": { "type": "Polygon", "coordinates": [ [ [ -49.266672499628058, -25.461678700390788 ], [ -49.266152799784869, -25.462685199714567 ], [ -49.266649000348849, -25.462900300071798 ], [ -49.2670192997725, -25.463058399547734 ], [ -49.267280900189405, -25.462521499640868 ], [ -49.26735379953567, -25.462371900336212 ], [ -49.267526000414648, -25.462018399843362 ], [ -49.266672499628058, -25.461678700390788 ] ] ] } },
{ "type": "Feature", "properties": { "box_id": 1, "provider": "osmnx" }, "geometry": { "type": "Polygon", "coordinates": [ [ [ -49.266672499628058, -25.461678700390788 ], [ -49.267150599914984, -25.460752799865848 ], [ -49.26579850010561, -25.460203999703111 ], [ -49.265341899978289, -25.46114910014127 ], [ -49.266672499628058, -25.461678700390788 ] ] ] } },
{ "type": "Feature", "properties": { "box_id": 1, "provider": "osmnx" }, "geometry": { "type": "Polygon", "coordinates": [ [ [ -49.267150599914984, -25.460752799865848 ], [ -49.266672499628058, -25.461678700390788 ], [ -49.267526000414648, -25.462018399843362 ], [ -49.267978700278142, -25.461089200238188 ], [ -49.267150599914984, -25.460752799865848 ] ] ] } },
{ "type": "Feature", "properties": { "box_id": 1, "provider": "osmnx" }, "geometry": { "type": "Polygon", "coordinates": [ [ [ -49.267150599914984, -25.460752799865848 ], [ -49.267531300114229, -25.460015399695177 ], [ -49.266160900088529, -25.45945389967174 ], [ -49.26579850010561, -25.460203999703111 ], [ -49.267150599914984, -25.460752799865848 ] ] ] } },
{ "type": "Feature", "properties": { "box_id": 1, "provider": "osmnx" }, "geometry": { "type": "Polygon", "coordinates": [ [ [ -49.267531300114229, -25.460015399695177 ], [ -49.267150599914984, -25.460752799865848 ], [ -49.267978700278142, -25.461089200238188 ], [ -49.268707800476633, -25.459592699979066 ], [ -49.267915099974495, -25.459272099911537 ], [ -49.267531300114229, -25.460015399695177 ] ] ] } },
{ "type": "Feature", "properties": { "box_id": 1, "provider": "osmnx" }, "geometry": { "type": "Polygon", "coordinates": [ [ [ -49.267531300114229, -25.460015399695177 ], [ -49.267915099974495, -25.459272099911537 ], [ -49.266521100338856, -25.458708400217965 ], [ -49.266160900088529, -25.45945389967174 ], [ -49.267531300114229, -25.460015399695177 ] ] ] } },
{ "type": "Feature", "properties": { "box_id": 1, "provider": "osmnx" }, "geometry": { "type": "Polygon", "coordinates": [ [ [ -49.267915099974495, -25.459272099911537 ], [ -49.268246800102794, -25.458629600124993 ], [ -49.267888800155845, -25.458488099959851 ], [ -49.267508999753773, -25.458337899624794 ], [ -49.266829900204094, -25.458069399809492 ], [ -49.266521100338856, -25.458708400217965 ], [ -49.267915099974495, -25.459272099911537 ] ] ] } },
{ "type": "Feature", "properties": { "box_id": 1, "provider": "osmnx" }, "geometry": { "type": "Polygon", "coordinates": [ [ [ -49.268246800102794, -25.458629600124993 ], [ -49.267915099974495, -25.459272099911537 ], [ -49.268707800476633, -25.459592699979066 ], [ -49.269273999541355, -25.458430500103105 ], [ -49.268640100116386, -25.457867900112969 ], [ -49.268246800102794, -25.458629600124993 ] ] ] } },
{ "type": "Feature", "properties": { "box_id": 1, "provider": "osmnx" }, "geometry": { "type": "Polygon", "coordinates": [ [ [ -49.268246800102794, -25.458629600124993 ], [ -49.268640100116386, -25.457867900112969 ], [ -49.268022200478747, -25.457301700072222 ], [ -49.267508999753773, -25.458337899624794 ], [ -49.267888800155845, -25.458488099959851 ], [ -49.268246800102794, -25.458629600124993 ] ] ] } },
{ "type": "Feature", "properties": { "box_id": 1, "provider": "osmnx" }, "geometry": { "type": "Polygon", "coordinates": [ [ [ -49.262069854015586, -25.459846627631503 ], [ -49.262362599948659, -25.459963200389709 ], [ -49.263102299647677, -25.46025759969972 ], [ -49.264379399528487, -25.460766099852098 ], [ -49.264834699546562, -25.459812900048647 ], [ -49.263571800307098, -25.459300000414252 ], [ -49.262824399714376, -25.458996499933374 ], [ -49.262086372208167, -25.458696891281708 ], [ -49.262069854015586, -25.459846627631503 ] ] ] } },
{ "type": "Feature", "properties": { "box_id": 1, "provider": "osmnx" }, "geometry": { "type": "Polygon", "coordinates": [ [ [ -49.264379399528487, -25.460766099852098 ], [ -49.263102299647677, -25.46025759969972 ], [ -49.262362599948659, -25.459963200389709 ], [ -49.262069854015586, -25.459846627631503 ], [ -49.26205279996244, -25.461033588192922 ], [ -49.262512199786542, -25.461218700395577 ], [ -49.262611500280727, -25.461258600211558 ], [ -49.262725899883392, -25.461304700303081 ], [ -49.263785199717326, -25.46173149985448 ], [ -49.263896799878893, -25.461776700172116 ], [ -49.264379399528487, -25.460766099852098 ] ] ] } },
{ "type": "Feature", "properties": { "box_id": 1, "provider": "osmnx" }, "geometry": { "type": "Polygon", "coordinates": [ [ [ -49.270423000302827, -25.463685899658696 ], [ -49.270972899717236, -25.464180399832035 ], [ -49.271432500226517, -25.46321780026388 ], [ -49.270423000302827, -25.463685899658696 ] ] ] } },
{ "type": "Feature", "properties": { "box_id": 1, "provider": "osmnx" }, "geometry": { "type": "Polygon", "coordinates": [ [ [ -49.271521599564608, -25.46303140033427 ], [ -49.27172710010381, -25.462610999787064 ], [ -49.270736099738137, -25.462208600413437 ], [ -49.270367000465484, -25.462058800254159 ], [ -49.270316500244519, -25.462109499883688 ], [ -49.270285100319406, -25.462148800270047 ], [ -49.270250199725496, -25.462209599994793 ], [ -49.270193600141695, -25.462330200349246 ], [ -49.270145899552631, -25.462451999753352 ], [ -49.26996029982088, -25.462987399839516 ], [ -49.270281100278723, -25.463115100256807 ], [ -49.27033469989675, -25.463138999644084 ], [ -49.270380200093101, -25.463162799943035 ], [ -49.270433099968926, -25.463196899815006 ], [ -49.270604200044026, -25.463321499958948 ], [ -49.27123000002149, -25.463038400045239 ], [ -49.271288099512354, -25.463022100224986 ], [ -49.271352599863924, -25.463019399599045 ], [ -49.271521599564608, -25.46303140033427 ] ] ] } },
{ "type": "Feature", "properties": { "box_id": 1, "provider": "osmnx" }, "geometry": { "type": "Polygon", "coordinates": [ [ [ -49.271432500226517, -25.46321780026388 ], [ -49.271521599564608, -25.46303140033427 ], [ -49.271352599863924, -25.463019399599045 ], [ -49.271288099512354, -25.463022100224986 ], [ -49.27123000002149, -25.463038400045239 ], [ -49.270604200044026, -25.463321499958948 ], [ -49.270210000250238, -25.463527300123697 ], [ -49.270099500464347, -25.46358209976967 ], [ -49.269761500007071, -25.463740500124015 ], [ -49.269625800008093, -25.463799200254631 ], [ -49.269375599585182, -25.463897700124047 ], [ -49.269227299511826, -25.463963200059794 ], [ -49.269287600046113, -25.464010999909505 ], [ -49.269354300237623, -25.464069000010127 ], [ -49.269437300014566, -25.464142899960148 ], [ -49.270423000302827, -25.463685899658696 ], [ -49.271432500226517, -25.46321780026388 ] ] ] } },
{ "type": "Feature", "properties": { "box_id": 1, "provider": "osmnx" }, "geometry": { "type": "Polygon", "coordinates": [ [ [ -49.271027799581049, -25.458555199759452 ], [ -49.271137499733882, -25.458513200379645 ], [ -49.271677499802593, -25.458305799644762 ], [ -49.271769100409088, -25.458270600437238 ], [ -49.271720400396795, -25.458191900243722 ], [ -49.271186099993834, -25.457329499816744 ], [ -49.271137399706333, -25.457250800350611 ], [ -49.271088700487127, -25.457172099979882 ], [ -49.270894900411555, -25.456859400059983 ], [ -49.270846200502525, -25.456780699609524 ], [ -49.270746799515543, -25.456783700381003 ], [ -49.26958629973786, -25.456818600208827 ], [ -49.269530600021831, -25.456823400020426 ], [ -49.269498300107927, -25.456828100128991 ], [ -49.269463400064552, -25.456833200206585 ], [ -49.269376300048989, -25.45685440000846 ], [ -49.269334399507166, -25.456945199894989 ], [ -49.269308400414054, -25.457002499584956 ], [ -49.269404600313287, -25.457089399987183 ], [ -49.269498600493257, -25.457174299990708 ], [ -49.269760099565708, -25.457410399719006 ], [ -49.270158399777046, -25.457770100222017 ], [ -49.270511800127366, -25.458089200235325 ], [ -49.27081900001842, -25.45836659958076 ], [ -49.271027799581049, -25.458555199759452 ] ] ] } },
{ "type": "Feature", "properties": { "box_id": 1, "provider": "osmnx" }, "geometry": { "type": "Polygon", "coordinates": [ [ [ -49.271791800457613, -25.459401400329934 ], [ -49.271963000091255, -25.459399599997912 ], [ -49.271027799581049, -25.458555199759452 ], [ -49.27081900001842, -25.45836659958076 ], [ -49.270511800127366, -25.458089200235325 ], [ -49.270158399777046, -25.457770100222017 ], [ -49.269760099565708, -25.457410399719006 ], [ -49.269498600493257, -25.457174299990708 ], [ -49.269404600313287, -25.457089399987183 ], [ -49.269308400414054, -25.457002499584956 ], [ -49.269272700047587, -25.457052000313872 ], [ -49.269239600007211, -25.457099000266414 ], [ -49.269323600217106, -25.457174799682591 ], [ -49.269713999601336, -25.457526999848831 ], [ -49.270575500045318, -25.45830410032212 ], [ -49.270729799599067, -25.458443400035875 ], [ -49.271695699576753, -25.459314700252829 ], [ -49.271791800457613, -25.459401400329934 ] ] ] } },
{ "type": "Feature", "properties": { "box_id": 1, "provider": "osmnx" }, "geometry": { "type": "Polygon", "coordinates": [ [ [ -49.271255400108821, -25.460223300228211 ], [ -49.271536299512775, -25.459643000439314 ], [ -49.271695699576753, -25.459314700252829 ], [ -49.270729799599067, -25.458443400035875 ], [ -49.270575500045318, -25.45830410032212 ], [ -49.270137999830645, -25.459213600139005 ], [ -49.271255400108821, -25.460223300228211 ] ] ] } },
{ "type": "Feature", "properties": { "box_id": 1, "provider": "osmnx" }, "geometry": { "type": "Polygon", "coordinates": [ [ [ -49.270729200053268, -25.461310500428471 ], [ -49.271255400108821, -25.460223300228211 ], [ -49.270137999830645, -25.459213600139005 ], [ -49.26975290045592, -25.460015400012406 ], [ -49.269383599647966, -25.460784300285233 ], [ -49.270729200053268, -25.461310500428471 ] ] ] } },
{ "type": "Feature", "properties": { "box_id": 1, "provider": "osmnx" }, "geometry": { "type": "Polygon", "coordinates": [ [ [ -49.270367000465484, -25.462058800254159 ], [ -49.270729200053268, -25.461310500428471 ], [ -49.269383599647966, -25.460784300285233 ], [ -49.269031799798945, -25.461516599883915 ], [ -49.270367000465484, -25.462058800254159 ] ] ] } },
{ "type": "Feature", "properties": { "box_id": 1, "provider": "osmnx" }, "geometry": { "type": "Polygon", "coordinates": [ [ [ -49.26996029982088, -25.462987399839516 ], [ -49.270145899552631, -25.462451999753352 ], [ -49.270193600141695, -25.462330200349246 ], [ -49.270250199725496, -25.462209599994793 ], [ -49.270285100319406, -25.462148800270047 ], [ -49.270316500244519, -25.462109499883688 ], [ -49.270367000465484, -25.462058800254159 ], [ -49.269031799798945, -25.461516599883915 ], [ -49.268587800211115, -25.462441100043165 ], [ -49.269010199549058, -25.462609200037136 ], [ -49.269081299745771, -25.462637499748435 ], [ -49.26996029982088, -25.462987399839516 ] ] ] } },
{ "type": "Feature", "properties": { "box_id": 1, "provider": "osmnx" }, "geometry": { "type": "Polygon", "coordinates": [ [ [ -49.26996029982088, -25.462987399839516 ], [ -49.269916699718692, -25.463094400171929 ], [ -49.269884399899993, -25.463154799813012 ], [ -49.269828700247729, -25.46323279974246 ], [ -49.269672700376717, -25.463419299886201 ], [ -49.269605700163126, -25.463510800427851 ], [ -49.269549600098557, -25.463597299805492 ], [ -49.269375599585182, -25.463897700124047 ], [ -49.269625800008093, -25.463799200254631 ], [ -49.269761500007071, -25.463740500124015 ], [ -49.270099500464347, -25.46358209976967 ], [ -49.270210000250238, -25.463527300123697 ], [ -49.270604200044026, -25.463321499958948 ], [ -49.270433099968926, -25.463196899815006 ], [ -49.270380200093101, -25.463162799943035 ], [ -49.27033469989675, -25.463138999644084 ], [ -49.270281100278723, -25.463115100256807 ], [ -49.26996029982088, -25.462987399839516 ] ] ] } },
{ "type": "Feature", "properties": { "box_id": 1, "provider": "osmnx" }, "geometry": { "type": "Polygon", "coordinates": [ [ [ -49.269375599585182, -25.463897700124047 ], [ -49.269549600098557, -25.463597299805492 ], [ -49.269605700163126, -25.463510800427851 ], [ -49.269672700376717, -25.463419299886201 ], [ -49.269828700247729, -25.46323279974246 ], [ -49.269884399899993, -25.463154799813012 ], [ -49.269916699718692, -25.463094400171929 ], [ -49.26996029982088, -25.462987399839516 ], [ -49.269081299745771, -25.462637499748435 ], [ -49.26895829979555, -25.463012699732907 ], [ -49.26908399983062, -25.463075399735224 ], [ -49.269139000421518, -25.463110899786365 ], [ -49.269175200151878, -25.463148600269303 ], [ -49.269193700393416, -25.463183600294766 ], [ -49.269205500209722, -25.463236999622989 ], [ -49.269193100193199, -25.463292599826534 ], [ -49.269164300273786, -25.463360100394834 ], [ -49.26911939999804, -25.463425099915131 ], [ -49.269074300438291, -25.463468999744556 ], [ -49.268995199826463, -25.463535300299014 ], [ -49.268963400196519, -25.46356369986357 ], [ -49.268912799920322, -25.463620400427871 ], [ -49.268767600305772, -25.46380819964758 ], [ -49.269227299511826, -25.463963200059794 ], [ -49.269375599585182, -25.463897700124047 ] ] ] } },
{ "type": "Feature", "properties": { "box_id": 1, "provider": "osmnx" }, "geometry": { "type": "Polygon", "coordinates": [ [ [ -49.269273999541355, -25.458430500103105 ], [ -49.270137999830645, -25.459213600139005 ], [ -49.270575500045318, -25.45830410032212 ], [ -49.269713999601336, -25.457526999848831 ], [ -49.269273999541355, -25.458430500103105 ] ] ] } },
{ "type": "Feature", "properties": { "box_id": 1, "provider": "osmnx" }, "geometry": { "type": "Polygon", "coordinates": [ [ [ -49.270137999830645, -25.459213600139005 ], [ -49.269273999541355, -25.458430500103105 ], [ -49.268707800476633, -25.459592699979066 ], [ -49.26975290045592, -25.460015400012406 ], [ -49.270137999830645, -25.459213600139005 ] ] ] } },
{ "type": "Feature", "properties": { "box_id": 1, "provider": "osmnx" }, "geometry": { "type": "Polygon", "coordinates": [ [ [ -49.269713999601336, -25.457526999848831 ], [ -49.269323600217106, -25.457174799682591 ], [ -49.269239600007211, -25.457099000266414 ], [ -49.269176500085926, -25.457179400032501 ], [ -49.268640100116386, -25.457867900112969 ], [ -49.269273999541355, -25.458430500103105 ], [ -49.269713999601336, -25.457526999848831 ] ] ] } },
{ "type": "Feature", "properties": { "box_id": 1, "provider": "osmnx" }, "geometry": { "type": "Polygon", "coordinates": [ [ [ -49.270846200502525, -25.456780699609524 ], [ -49.270865099634968, -25.456692100122545 ], [ -49.271032200293021, -25.455908200352656 ], [ -49.271051100120978, -25.45581959992651 ], [ -49.270954500155575, -25.455840900064214 ], [ -49.269856900487483, -25.456082299581759 ], [ -49.269719600145926, -25.456111399553311 ], [ -49.269376300048989, -25.45685440000846 ], [ -49.269463400064552, -25.456833200206585 ], [ -49.269498300107927, -25.456828100128991 ], [ -49.269530600021831, -25.456823400020426 ], [ -49.26958629973786, -25.456818600208827 ], [ -49.270746799515543, -25.456783700381003 ], [ -49.270846200502525, -25.456780699609524 ] ] ] } },
{ "type": "Feature", "properties": { "box_id": 1, "provider": "osmnx" }, "geometry": { "type": "Polygon", "coordinates": [ [ [ -49.267593499904713, -25.464231499574861 ], [ -49.267775699592526, -25.464627499968444 ], [ -49.268463000480494, -25.464320299917073 ], [ -49.269071900035932, -25.464033199570622 ], [ -49.268758399568689, -25.464086500084566 ], [ -49.268715399995202, -25.464095799820303 ], [ -49.268519800137689, -25.464139100187374 ], [ -49.268478200129856, -25.46414489999508 ], [ -49.268439899967838, -25.464143600360334 ], [ -49.268238000456464, -25.464116099580583 ], [ -49.268138700491875, -25.464108499860743 ], [ -49.268044600041385, -25.464105800397348 ], [ -49.267988499733264, -25.464109099731171 ], [ -49.267922700015887, -25.464119300148354 ], [ -49.267856000360887, -25.464138800392796 ], [ -49.267723000046161, -25.464184099753574 ], [ -49.267593499904713, -25.464231499574861 ] ] ] } },
{ "type": "Feature", "properties": { "box_id": 1, "provider": "osmnx" }, "geometry": { "type": "Polygon", "coordinates": [ [ [ -49.267054700456995, -25.464429399679528 ], [ -49.267319899599485, -25.464330599804345 ], [ -49.26746130023443, -25.464279000116605 ], [ -49.267593499904713, -25.464231499574861 ], [ -49.267723000046161, -25.464184099753574 ], [ -49.26775779967506, -25.464054800292313 ], [ -49.267781700135309, -25.463994499745972 ], [ -49.26781140024908, -25.463944200153747 ], [ -49.267875600430614, -25.463855699926459 ], [ -49.267905100020961, -25.463810300097915 ], [ -49.268055599835769, -25.46354900043637 ], [ -49.2670192997725, -25.463058399547734 ], [ -49.266539399965758, -25.464043499849719 ], [ -49.26683869976732, -25.464133800344094 ], [ -49.266871300163309, -25.464147899649273 ], [ -49.266900699823779, -25.46416869957406 ], [ -49.266928999995081, -25.464207099947874 ], [ -49.267054700456995, -25.464429399679528 ] ] ] } },
{ "type": "Feature", "properties": { "box_id": 1, "provider": "osmnx" }, "geometry": { "type": "Polygon", "coordinates": [ [ [ -49.267723000046161, -25.464184099753574 ], [ -49.267856000360887, -25.464138800392796 ], [ -49.267922700015887, -25.464119300148354 ], [ -49.267988499733264, -25.464109099731171 ], [ -49.268044600041385, -25.464105800397348 ], [ -49.268138700491875, -25.464108499860743 ], [ -49.268238000456464, -25.464116099580583 ], [ -49.268439899967838, -25.464143600360334 ], [ -49.268478200129856, -25.46414489999508 ], [ -49.268519800137689, -25.464139100187374 ], [ -49.268715399995202, -25.464095799820303 ], [ -49.268758399568689, -25.464086500084566 ], [ -49.269071900035932, -25.464033199570622 ], [ -49.269227299511826, -25.463963200059794 ], [ -49.268767600305772, -25.46380819964758 ], [ -49.268351300159757, -25.463663999956776 ], [ -49.268208100377414, -25.463610399681333 ], [ -49.268055599835769, -25.46354900043637 ], [ -49.267905100020961, -25.463810300097915 ], [ -49.267875600430614, -25.463855699926459 ], [ -49.26781140024908, -25.463944200153747 ], [ -49.267781700135309, -25.463994499745972 ], [ -49.26775779967506, -25.464054800292313 ], [ -49.267723000046161, -25.464184099753574 ] ] ] } },
{ "type": "Feature", "properties": { "box_id": 1, "provider": "osmnx" }, "geometry": { "type": "Polygon", "coordinates": [ [ [ -49.268767600305772, -25.46380819964758 ], [ -49.268912799920322, -25.463620400427871 ], [ -49.268963400196519, -25.46356369986357 ], [ -49.268995199826463, -25.463535300299014 ], [ -49.269074300438291, -25.463468999744556 ], [ -49.26911939999804, -25.463425099915131 ], [ -49.269164300273786, -25.463360100394834 ], [ -49.269193100193199, -25.463292599826534 ], [ -49.269205500209722, -25.463236999622989 ], [ -49.269193700393416, -25.463183600294766 ], [ -49.269175200151878, -25.463148600269303 ], [ -49.269139000421518, -25.463110899786365 ], [ -49.26908399983062, -25.463075399735224 ], [ -49.26895829979555, -25.463012699732907 ], [ -49.269081299745771, -25.462637499748435 ], [ -49.269010199549058, -25.462609200037136 ], [ -49.268587800211115, -25.462441100043165 ], [ -49.268386799509713, -25.462859599737882 ], [ -49.268283600232806, -25.463074400012292 ], [ -49.268260700087986, -25.463122099577955 ], [ -49.268055599835769, -25.46354900043637 ], [ -49.268208100377414, -25.463610399681333 ], [ -49.268351300159757, -25.463663999956776 ], [ -49.268767600305772, -25.46380819964758 ] ] ] } },
{ "type": "Feature", "properties": { "box_id": 1, "provider": "osmnx" }, "geometry": { "type": "Polygon", "coordinates": [ [ [ -49.267978700278142, -25.461089200238188 ], [ -49.268625500147458, -25.461351699920691 ], [ -49.269031799798945, -25.461516599883915 ], [ -49.269383599647966, -25.460784300285233 ], [ -49.26975290045592, -25.460015400012406 ], [ -49.268707800476633, -25.459592699979066 ], [ -49.267978700278142, -25.461089200238188 ] ] ] } },
{ "type": "Feature", "properties": { "box_id": 1, "provider": "osmnx" }, "geometry": { "type": "Polygon", "coordinates": [ [ [ -49.268625500147458, -25.461351699920691 ], [ -49.267978700278142, -25.461089200238188 ], [ -49.267526000414648, -25.462018399843362 ], [ -49.268057999722309, -25.462230200343818 ], [ -49.268587800211115, -25.462441100043165 ], [ -49.269031799798945, -25.461516599883915 ], [ -49.268625500147458, -25.461351699920691 ] ] ] } },
{ "type": "Feature", "properties": { "box_id": 1, "provider": "osmnx" }, "geometry": { "type": "Polygon", "coordinates": [ [ [ -49.262036404401627, -25.462174646912594 ], [ -49.262141700023236, -25.462216899810436 ], [ -49.263437999702177, -25.462737099698344 ], [ -49.263896799878893, -25.461776700172116 ], [ -49.263785199717326, -25.46173149985448 ], [ -49.262725899883392, -25.461304700303081 ], [ -49.262611500280727, -25.461258600211558 ], [ -49.262512199786542, -25.461218700395577 ], [ -49.26205279996244, -25.461033588192922 ], [ -49.262036404401627, -25.462174646912594 ] ] ] } },
{ "type": "Feature", "properties": { "box_id": 1, "provider": "osmnx" }, "geometry": { "type": "Polygon", "coordinates": [ [ [ -49.263437999702177, -25.462737099698344 ], [ -49.264390099527041, -25.463118900239188 ], [ -49.264852700407779, -25.462161500006442 ], [ -49.263896799878893, -25.461776700172116 ], [ -49.263437999702177, -25.462737099698344 ] ] ] } },
{ "type": "Feature", "properties": { "box_id": 1, "provider": "osmnx" }, "geometry": { "type": "Polygon", "coordinates": [ [ [ -49.263896799878893, -25.461776700172116 ], [ -49.264852700407779, -25.462161500006442 ], [ -49.265341899978289, -25.46114910014127 ], [ -49.26579850010561, -25.460203999703111 ], [ -49.264834699546562, -25.459812900048647 ], [ -49.264379399528487, -25.460766099852098 ], [ -49.263896799878893, -25.461776700172116 ] ] ] } },
{ "type": "Feature", "properties": { "box_id": 1, "provider": "osmnx" }, "geometry": { "type": "Polygon", "coordinates": [ [ [ -49.2670192997725, -25.463058399547734 ], [ -49.268055599835769, -25.46354900043637 ], [ -49.268260700087986, -25.463122099577955 ], [ -49.268283600232806, -25.463074400012292 ], [ -49.268386799509713, -25.462859599737882 ], [ -49.268587800211115, -25.462441100043165 ], [ -49.268057999722309, -25.462230200343818 ], [ -49.267526000414648, -25.462018399843362 ], [ -49.26735379953567, -25.462371900336212 ], [ -49.267280900189405, -25.462521499640868 ], [ -49.2670192997725, -25.463058399547734 ] ] ] } },
{ "type": "Feature", "properties": { "box_id": 1, "provider": "osmnx" }, "geometry": { "type": "Polygon", "coordinates": [ [ [ -49.268640100116386, -25.457867900112969 ], [ -49.269176500085926, -25.457179400032501 ], [ -49.269239600007211, -25.457099000266414 ], [ -49.269163199898912, -25.457030100185587 ], [ -49.268915599909299, -25.456806699550651 ], [ -49.268167700452587, -25.456132099950086 ], [ -49.267952999647022, -25.455938300306229 ], [ -49.267887899935239, -25.455879499772809 ], [ -49.267842900015701, -25.455972599965623 ], [ -49.267777200483351, -25.456108699573505 ], [ -49.267448699528259, -25.456788500053278 ], [ -49.268022200478747, -25.457301700072222 ], [ -49.268640100116386, -25.457867900112969 ] ] ] } },
{ "type": "Feature", "properties": { "box_id": 1, "provider": "osmnx" }, "geometry": { "type": "Polygon", "coordinates": [ [ [ -49.268022200478747, -25.457301700072222 ], [ -49.267448699528259, -25.456788500053278 ], [ -49.267064400048213, -25.457583900445844 ], [ -49.266829900204094, -25.458069399809492 ], [ -49.267508999753773, -25.458337899624794 ], [ -49.268022200478747, -25.457301700072222 ] ] ] } },
{ "type": "Feature", "properties": { "box_id": 1, "provider": "osmnx" }, "geometry": { "type": "Polygon", "coordinates": [ [ [ -49.2679416996559, -25.455768099994195 ], [ -49.268015600273912, -25.45583519989199 ], [ -49.268268300263287, -25.45606329973582 ], [ -49.269281003907253, -25.455678957148425 ], [ -49.267992248813563, -25.455663755971276 ], [ -49.267975900347658, -25.455697499903238 ], [ -49.2679416996559, -25.455768099994195 ] ] ] } },
{ "type": "Feature", "properties": { "box_id": 1, "provider": "osmnx" }, "geometry": { "type": "Polygon", "coordinates": [ [ [ -49.268268300263287, -25.45606329973582 ], [ -49.268015600273912, -25.45583519989199 ], [ -49.2679416996559, -25.455768099994195 ], [ -49.267887899935239, -25.455879499772809 ], [ -49.267952999647022, -25.455938300306229 ], [ -49.268167700452587, -25.456132099950086 ], [ -49.268268300263287, -25.45606329973582 ] ] ] } },
{ "type": "Feature", "properties": { "box_id": 1, "provider": "osmnx" }, "geometry": { "type": "Polygon", "coordinates": [ [ [ -49.268268300263287, -25.45606329973582 ], [ -49.269244400435319, -25.456944800442947 ], [ -49.269308400414054, -25.457002499584956 ], [ -49.269334399507166, -25.456945199894989 ], [ -49.269376300048989, -25.45685440000846 ], [ -49.269719600145926, -25.456111399553311 ], [ -49.269915959053684, -25.455686442436598 ], [ -49.269281003907253, -25.455678957148425 ], [ -49.268268300263287, -25.45606329973582 ] ] ] } },
{ "type": "Feature", "properties": { "box_id": 1, "provider": "osmnx" }, "geometry": { "type": "Polygon", "coordinates": [ [ [ -49.269308400414054, -25.457002499584956 ], [ -49.269244400435319, -25.456944800442947 ], [ -49.268268300263287, -25.45606329973582 ], [ -49.268167700452587, -25.456132099950086 ], [ -49.268915599909299, -25.456806699550651 ], [ -49.269163199898912, -25.457030100185587 ], [ -49.269239600007211, -25.457099000266414 ], [ -49.269272700047587, -25.457052000313872 ], [ -49.269308400414054, -25.457002499584956 ] ] ] } },
{ "type": "Feature", "properties": { "box_id": 1, "provider": "osmnx" }, "geometry": { "type": "Polygon", "coordinates": [ [ [ -49.264846300458309, -25.456700300007508 ], [ -49.266085600487926, -25.457194000211683 ], [ -49.266330300053177, -25.456681499961299 ], [ -49.265135699659083, -25.456109900350796 ], [ -49.264846300458309, -25.456700300007508 ] ] ] } },
{ "type": "Feature", "properties": { "box_id": 1, "provider": "osmnx" }, "geometry": { "type": "Polygon", "coordinates": [ [ [ -49.266085600487926, -25.457194000211683 ], [ -49.264846300458309, -25.456700300007508 ], [ -49.264301900093884, -25.457810800089625 ], [ -49.265549800056874, -25.458315700317183 ], [ -49.265866499858518, -25.457652599733002 ], [ -49.266085600487926, -25.457194000211683 ] ] ] } },
{ "type": "Feature", "properties": { "box_id": 1, "provider": "osmnx" }, "geometry": { "type": "Polygon", "coordinates": [ [ [ -49.266085600487926, -25.457194000211683 ], [ -49.267064400048213, -25.457583900445844 ], [ -49.267448699528259, -25.456788500053278 ], [ -49.266633099662222, -25.45605070014096 ], [ -49.266330300053177, -25.456681499961299 ], [ -49.266085600487926, -25.457194000211683 ] ] ] } },
{ "type": "Feature", "properties": { "box_id": 1, "provider": "osmnx" }, "geometry": { "type": "Polygon", "coordinates": [ [ [ -49.267064400048213, -25.457583900445844 ], [ -49.266085600487926, -25.457194000211683 ], [ -49.265866499858518, -25.457652599733002 ], [ -49.265549800056874, -25.458315700317183 ], [ -49.266521100338856, -25.458708400217965 ], [ -49.266829900204094, -25.458069399809492 ], [ -49.267064400048213, -25.457583900445844 ] ] ] } },
{ "type": "Feature", "properties": { "box_id": 1, "provider": "osmnx" }, "geometry": { "type": "Polygon", "coordinates": [ [ [ -49.265135699659083, -25.456109900350796 ], [ -49.266330300053177, -25.456681499961299 ], [ -49.266633099662222, -25.45605070014096 ], [ -49.266181745208932, -25.45564238153009 ], [ -49.265369556400167, -25.455632785736249 ], [ -49.265135699659083, -25.456109900350796 ] ] ] } },
{ "type": "Feature", "properties": { "box_id": 1, "provider": "osmnx" }, "geometry": { "type": "Polygon", "coordinates": [ [ [ -49.267448699528259, -25.456788500053278 ], [ -49.267777200483351, -25.456108699573505 ], [ -49.267842900015701, -25.455972599965623 ], [ -49.267887899935239, -25.455879499772809 ], [ -49.267834199877839, -25.455831199590051 ], [ -49.267644077284579, -25.45565964726266 ], [ -49.266823453932275, -25.455649959969083 ], [ -49.266633099662222, -25.45605070014096 ], [ -49.267448699528259, -25.456788500053278 ] ] ] } },
{ "type": "Feature", "properties": { "box_id": 1, "provider": "osmnx" }, "geometry": { "type": "Polygon", "coordinates": [ [ [ -49.266181745208932, -25.45564238153009 ], [ -49.266633099662222, -25.45605070014096 ], [ -49.266823453932275, -25.455649959969083 ], [ -49.266181745208932, -25.45564238153009 ] ] ] } },
{ "type": "Feature", "properties": { "box_id": 1, "provider": "osmnx" }, "geometry": { "type": "Polygon", "coordinates": [ [ [ -49.265135699659083, -25.456109900350796 ], [ -49.265369556400167, -25.455632785736249 ], [ -49.264587925103328, -25.45562354672753 ], [ -49.265135699659083, -25.456109900350796 ] ] ] } },
{ "type": "Feature", "properties": { "box_id": 1, "provider": "osmnx" }, "geometry": { "type": "Polygon", "coordinates": [ [ [ -49.265135699659083, -25.456109900350796 ], [ -49.264587925103328, -25.45562354672753 ], [ -49.264436643638554, -25.45562175807531 ], [ -49.264069299753402, -25.456390700191882 ], [ -49.264846300458309, -25.456700300007508 ], [ -49.265135699659083, -25.456109900350796 ] ] ] } },
{ "type": "Feature", "properties": { "box_id": 1, "provider": "osmnx" }, "geometry": { "type": "Polygon", "coordinates": [ [ [ -49.267887899935239, -25.455879499772809 ], [ -49.2679416996559, -25.455768099994195 ], [ -49.267893300198715, -25.455724700440488 ], [ -49.267823606932218, -25.455661765962372 ], [ -49.267644077284579, -25.45565964726266 ], [ -49.267834199877839, -25.455831199590051 ], [ -49.267887899935239, -25.455879499772809 ] ] ] } },
{ "type": "Feature", "properties": { "box_id": 1, "provider": "osmnx" }, "geometry": { "type": "Polygon", "coordinates": [ [ [ -49.269915959053684, -25.455686442436598 ], [ -49.269719600145926, -25.456111399553311 ], [ -49.269856900487483, -25.456082299581759 ], [ -49.270954500155575, -25.455840900064214 ], [ -49.271051100120978, -25.45581959992651 ], [ -49.271081700187359, -25.455733700336637 ], [ -49.27109357880321, -25.455700317757312 ], [ -49.269915959053684, -25.455686442436598 ] ] ] } },
{ "type": "Feature", "properties": { "box_id": 1, "provider": "osmnx" }, "geometry": { "type": "Polygon", "coordinates": [ [ [ -49.265549800056874, -25.458315700317183 ], [ -49.264834699546562, -25.459812900048647 ], [ -49.26579850010561, -25.460203999703111 ], [ -49.266160900088529, -25.45945389967174 ], [ -49.266521100338856, -25.458708400217965 ], [ -49.265549800056874, -25.458315700317183 ] ] ] } },
{ "type": "Feature", "properties": { "box_id": 1, "provider": "osmnx" }, "geometry": { "type": "Polygon", "coordinates": [ [ [ -49.264834699546562, -25.459812900048647 ], [ -49.265549800056874, -25.458315700317183 ], [ -49.264301900093884, -25.457810800089625 ], [ -49.263571800307098, -25.459300000414252 ], [ -49.264834699546562, -25.459812900048647 ] ] ] } },
{ "type": "Feature", "properties": { "box_id": 1, "provider": "osmnx" }, "geometry": { "type": "Polygon", "coordinates": [ [ [ -49.262824399714376, -25.458996499933374 ], [ -49.263571800307098, -25.459300000414252 ], [ -49.264301900093884, -25.457810800089625 ], [ -49.263538399935229, -25.457501900397986 ], [ -49.262824399714376, -25.458996499933374 ] ] ] } },
{ "type": "Feature", "properties": { "box_id": 1, "provider": "osmnx" }, "geometry": { "type": "Polygon", "coordinates": [ [ [ -49.262111830598066, -25.456924741162549 ], [ -49.262569099746848, -25.457109400140855 ], [ -49.263538399935229, -25.457501900397986 ], [ -49.264069299753402, -25.456390700191882 ], [ -49.263095699763987, -25.456002899672956 ], [ -49.262205600415513, -25.45564820007106 ], [ -49.262127790030611, -25.455813724914464 ], [ -49.262111830598066, -25.456924741162549 ] ] ] } },
{ "type": "Feature", "properties": { "box_id": 1, "provider": "osmnx" }, "geometry": { "type": "Polygon", "coordinates": [ [ [ -49.263538399935229, -25.457501900397986 ], [ -49.262569099746848, -25.457109400140855 ], [ -49.262111830598066, -25.456924741162549 ], [ -49.262086372208167, -25.458696891281708 ], [ -49.262824399714376, -25.458996499933374 ], [ -49.263538399935229, -25.457501900397986 ] ] ] } },
{ "type": "Feature", "properties": { "box_id": 1, "provider": "osmnx" }, "geometry": { "type": "Polygon", "coordinates": [ [ [ -49.263538399935229, -25.457501900397986 ], [ -49.264301900093884, -25.457810800089625 ], [ -49.264846300458309, -25.456700300007508 ], [ -49.264069299753402, -25.456390700191882 ], [ -49.263538399935229, -25.457501900397986 ] ] ] } },
{ "type": "Feature", "properties": { "box_id": 1, "provider": "osmnx" }, "geometry": { "type": "Polygon", "coordinates": [ [ [ -49.262230305894249, -25.455595654074116 ], [ -49.262205600415513, -25.45564820007106 ], [ -49.263095699763987, -25.456002899672956 ], [ -49.264069299753402, -25.456390700191882 ], [ -49.264436643638554, -25.45562175807531 ], [ -49.262230305894249, -25.455595654074116 ] ] ] } },
{ "type": "Feature", "properties": { "box_id": 1, "provider": "osmnx" }, "geometry": { "type": "Polygon", "coordinates": [ [ [ -49.262205600415513, -25.45564820007106 ], [ -49.262230305894249, -25.455595654074116 ], [ -49.2621309393435, -25.455594477651097 ], [ -49.262130596766774, -25.455618327108027 ], [ -49.262205600415513, -25.45564820007106 ] ] ] } },
{ "type": "Feature", "properties": { "box_id": 1, "provider": "osmnx" }, "geometry": { "type": "Polygon", "coordinates": [ [ [ -49.262127790030611, -25.455813724914464 ], [ -49.262205600415513, -25.45564820007106 ], [ -49.262130596766774, -25.455618327108027 ], [ -49.262127790030611, -25.455813724914464 ] ] ] } },
{ "type": "Feature", "properties": { "box_id": 1, "provider": "osmnx" }, "geometry": { "type": "Polygon", "coordinates": [ [ [ -49.271051100120978, -25.45581959992651 ], [ -49.271147699618645, -25.455798399928195 ], [ -49.271284399757015, -25.455768599981962 ], [ -49.27123180012174, -25.455756000437489 ], [ -49.271186400004751, -25.455729199880416 ], [ -49.271161822254939, -25.455701121547083 ], [ -49.27109357880321, -25.455700317757312 ], [ -49.271081700187359, -25.455733700336637 ], [ -49.271051100120978, -25.45581959992651 ] ] ] } },
{ "type": "Feature", "properties": { "box_id": 1, "provider": "osmnx" }, "geometry": { "type": "Polygon", "coordinates": [ [ [ -49.271284399757015, -25.455768599981962 ], [ -49.27156207374486, -25.455705835178261 ], [ -49.271161822254939, -25.455701121547083 ], [ -49.271186400004751, -25.455729199880416 ], [ -49.27123180012174, -25.455756000437489 ], [ -49.271284399757015, -25.455768599981962 ] ] ] } },
{ "type": "Feature", "properties": { "box_id": 1, "provider": "osmnx" }, "geometry": { "type": "Polygon", "coordinates": [ [ [ -49.2679416996559, -25.455768099994195 ], [ -49.267975900347658, -25.455697499903238 ], [ -49.267992248813563, -25.455663755971276 ], [ -49.267823606932218, -25.455661765962372 ], [ -49.267893300198715, -25.455724700440488 ], [ -49.2679416996559, -25.455768099994195 ] ] ] } }
]
}
