{
"type": "FeatureCollection",
"name": "curitiba_1km_osmnx_sidewalk_sidewalks",
"crs": { "type": "name", "properties": { "name": "urn:ogc:def:crs:OGC:1.3:CRS84" } },
"features": [
{ "type": "Feature", "properties": { "box_id": 1, "provider": "osmnx" }, "geometry": { "type": "LineString", "coordinates": [ [ -49.317143571446394, -25.413132333245219 ], [ -49.317009736532754, -25.413177746840692 ], [ -49.317001685032999, -25.413184877124873 ], [ -49.316996577650457, -25.413194749556979 ], [ -49.316995445888146, -25.413204667517007 ], [ -49.316999283652393, -25.413214642387072 ], [ -49.317005159357741, -25.413221029351178 ], [ -49.317012054033896, -25.413225622362063 ], [ -49.317022949397128, -25.413228455565154 ], [ -49.317031907078736, -25.413227655334026 ], [ -49.317065850249001, -25.413217210300978 ], [ -49.317199672658333, -25.413172699323326 ], [ -49.317389504472523, -25.413103550777169 ], [ -49.317398549849671, -25.413096431849482 ], [ -49.317403607078234, -25.413090170072032 ], [ -49.317405745239483, -25.413079360818493 ], [ -49.317404864099167, -25.413071225430329 ], [ -49.317400019871002, -25.413062141857633 ], [ -49.31739116243827, -25.413055720770704 ], [ -49.317379285705314, -25.413051973548193 ], [ -49.317368340229301, -25.413052751042446 ], [ -49.317143571446394, -25.413132333245219 ] ] } },
{ "type": "Feature", "properties": { "box_id": 1, "provider": "osmnx" }, "geometry": { "type": "LineString", "coordinates": [ [ -49.316820155089168, -25.413228841531026 ], [ -49.3167294966157, -25.413243150975088 ], [ -49.316623979682383, -25.413253678925386 ], [ -49.316517606726471, -25.413254266074162 ], [ -49.316394400067601, -25.413250146247169 ], [ -49.316383429497726, -25.413252729001112 ], [ -49.316374384052565, -25.413259847862513 ], [ -49.31636928915389, -25.413268817602798 ], [ -49.316368144802283, -25.413279638222395 ], [ -49.316371982515868, -25.413289613106251 ], [ -49.316376864284294, -25.413295988707638 ], [ -49.31638375893889, -25.413300581746967 ], [ -49.316394654291187, -25.413303414996236 ], [ -49.316424433854486, -25.413306464578497 ], [ -49.316503908713372, -25.413310083432634 ], [ -49.316614269876887, -25.413308639167635 ], [ -49.316730707289231, -25.413299139116948 ], [ -49.31684330693551, -25.413279664099601 ], [ -49.316861259907796, -25.413275355657053 ], [ -49.316870292793979, -25.413269139431677 ], [ -49.316878394440408, -25.413258398485866 ], [ -49.316879563813089, -25.413245772525148 ] ] } },
{ "type": "Feature", "properties": { "box_id": 1, "provider": "osmnx" }, "geometry": { "type": "LineString", "coordinates": [ [ -49.312985504094137, -25.413554122370368 ], [ -49.311030468693495, -25.413961404219013 ] ] } },
{ "type": "Feature", "properties": { "box_id": 1, "provider": "osmnx" }, "geometry": { "type": "LineString", "coordinates": [ [ -49.311030468693495, -25.413961404219013 ], [ -49.310745342928797, -25.414020420908553 ], [ -49.310738335249468, -25.414023951593819 ], [ -49.310730270763052, -25.414031984176191 ], [ -49.310726194490812, -25.414039159792704 ], [ -49.310726056115051, -25.414049089101482 ], [ -49.310729843057089, -25.414062674766981 ], [ -49.310737681114013, -25.414070890144622 ], [ -49.310748551217571, -25.414075529138035 ], [ -49.310759484218934, -25.41407565480846 ], [ -49.311019686923778, -25.414021768518666 ] ] } },
{ "type": "Feature", "properties": { "box_id": 1, "provider": "osmnx" }, "geometry": { "type": "LineString", "coordinates": [ [ -49.311019686923778, -25.414021768518666 ], [ -49.313018631100455, -25.413602351556641 ], [ -49.31302761394565, -25.413599746241363 ], [ -49.313033640195478, -25.413595301367494 ], [ -49.313040723161897, -25.413586354574445 ], [ -49.313041867813638, -25.413575533996518 ], [ -49.313040018184395, -25.413565581857409 ], [ -49.313033186462626, -25.413556475339153 ], [ -49.313023322774775, -25.413550945255853 ], [ -49.313014402744685, -25.413549037243268 ], [ -49.312985504094137, -25.413554122370368 ] ] } },
{ "type": "Feature", "properties": { "box_id": 1, "provider": "osmnx" }, "geometry": { "type": "LineString", "coordinates": [ [ -49.308285962977948, -25.414594303776148 ], [ -49.310417516509411, -25.414147559593413 ] ] } },
{ "type": "Feature", "properties": { "box_id": 1, "provider": "osmnx" }, "geometry": { "type": "LineString", "coordinates": [ [ -49.310417516509411, -25.414147559593413 ], [ -49.310668749141151, -25.414095376428108 ], [ -49.310678763714478, -25.414090074693021 ], [ -49.310684815229884, -25.414083824592634 ], [ -49.310688929245906, -25.41407394098427 ], [ -49.310688086295684, -25.41406309758629 ], [ -49.310684249038658, -25.414053122577617 ], [ -49.310676410986616, -25.414044907197333 ], [ -49.310666534797697, -25.414040279624015 ], [ -49.310654620471325, -25.414039239857196 ], [ -49.310405375771225, -25.414091445858279 ] ] } },
{ "type": "Feature", "properties": { "box_id": 1, "provider": "osmnx" }, "geometry": { "type": "LineString", "coordinates": [ [ -49.310405375771225, -25.414091445858279 ], [ -49.308236947684911, -25.414544987880202 ], [ -49.3080634778579, -25.414580908756822 ], [ -49.307770473842204, -25.414634411996417 ], [ -49.307759477797198, -25.414638799415993 ], [ -49.307750419167647, -25.414646820376856 ], [ -49.307746304894678, -25.414656703888905 ], [ -49.307746153668887, -25.414667535844497 ], [ -49.307749990695584, -25.414677510917745 ], [ -49.307756834665092, -25.414685715000328 ], [ -49.307767704694527, -25.414690354210926 ], [ -49.307781619472628, -25.414690514440725 ], [ -49.307988895147886, -25.414654080330354 ], [ -49.30817030379734, -25.41461915375028 ], [ -49.308285962977948, -25.414594303776148 ] ] } },
{ "type": "Feature", "properties": { "box_id": 1, "provider": "osmnx" }, "geometry": { "type": "LineString", "coordinates": [ [ -49.312124067171041, -25.416736564977867 ], [ -49.312129112253857, -25.4167312060714 ], [ -49.312192810988542, -25.416654296118899 ], [ -49.312236744159449, -25.416569033839675 ], [ -49.312285268884011, -25.416439586625891 ] ] } },
{ "type": "Feature", "properties": { "box_id": 1, "provider": "osmnx" }, "geometry": { "type": "LineString", "coordinates": [ [ -49.312285268884011, -25.416439586625891 ], [ -49.312296615934265, -25.416338602311416 ], [ -49.312287631913307, -25.416269885628893 ], [ -49.312283794463369, -25.416259910654542 ], [ -49.312275956164086, -25.416251695349143 ], [ -49.31226508580496, -25.416247056457095 ], [ -49.312254165168767, -25.416246028223789 ], [ -49.312245182110139, -25.416248633480013 ], [ -49.312238161767574, -25.416253066896314 ], [ -49.311911401342172, -25.416517447933359 ] ] } },
{ "type": "Feature", "properties": { "box_id": 1, "provider": "osmnx" }, "geometry": { "type": "LineString", "coordinates": [ [ -49.311911401342172, -25.416517447933359 ], [ -49.311638940537279, -25.416737311610781 ], [ -49.311599510753389, -25.416784707455751 ], [ -49.311595447003107, -25.416790980427223 ], [ -49.311574889322628, -25.41683949590772 ], [ -49.311572763134201, -25.416849402376652 ], [ -49.311583130522976, -25.416890147900428 ], [ -49.311600732093403, -25.41691111474541 ], [ -49.311606632817373, -25.416915696588013 ], [ -49.311614533982372, -25.416919398605835 ], [ -49.311658116141949, -25.416930733051508 ], [ -49.311671024697887, -25.416931784171091 ], [ -49.311750677657621, -25.41692276840568 ], [ -49.311874516278728, -25.416881759077356 ], [ -49.312024687356669, -25.416805842565108 ], [ -49.312124067171041, -25.416736564977867 ] ] } },
{ "type": "Feature", "properties": { "box_id": 1, "provider": "osmnx" }, "geometry": { "type": "LineString", "coordinates": [ [ -49.311502092715742, -25.415000540233294 ], [ -49.311604265010629, -25.415016159084285 ], [ -49.31175239642176, -25.4150151524804 ], [ -49.311895784538329, -25.414997840673305 ], [ -49.312067215999548, -25.414965503073059 ], [ -49.312213082058079, -25.414913009847726 ], [ -49.312363149885606, -25.414844314155161 ], [ -49.312484318588837, -25.414780703311642 ], [ -49.312577732934578, -25.414711356821879 ], [ -49.312633227621951, -25.414652408594133 ], [ -49.312655797422615, -25.414602110404484 ], [ -49.312657645793593, -25.414540740578108 ], [ -49.31262411537822, -25.414450074630913 ], [ -49.312577211770353, -25.414391756266525 ], [ -49.312512065924935, -25.414358507086089 ], [ -49.3125011705879, -25.414355673549039 ], [ -49.312422752046842, -25.414347550588406 ], [ -49.312260530687617, -25.414361035419439 ], [ -49.312081324805341, -25.414380644658124 ], [ -49.311917946052262, -25.414405852335292 ], [ -49.311743495908239, -25.414440863542602 ], [ -49.311612853283961, -25.414470960988751 ], [ -49.311524986586122, -25.41449884136788 ], [ -49.311426828627155, -25.414551882101986 ], [ -49.31135039836154, -25.414615103335571 ], [ -49.311337213397081, -25.414633910822499 ] ] } },
{ "type": "Feature", "properties": { "box_id": 1, "provider": "osmnx" }, "geometry": { "type": "LineString", "coordinates": [ [ -49.311337213397081, -25.414633910822499 ], [ -49.311308704719181, -25.414682334925406 ], [ -49.311293959916334, -25.414741750894215 ], [ -49.311303723438087, -25.414825824336098 ], [ -49.311305610663425, -25.414833068495309 ], [ -49.311347343003149, -25.414905772769238 ], [ -49.311416087198694, -25.414966148083796 ], [ -49.311424969575732, -25.414970764191072 ], [ -49.311502092715742, -25.415000540233294 ] ] } },
{ "type": "Feature", "properties": { "box_id": 1, "provider": "osmnx" }, "geometry": { "type": "LineString", "coordinates": [ [ -49.314532128509875, -25.41334977697807 ], [ -49.314527284493074, -25.413340693321395 ], [ -49.314518439754821, -25.413333369401919 ], [ -49.314507557003409, -25.413329633349338 ], [ -49.314496611497013, -25.413330410627367 ], [ -49.313314210719916, -25.413577757119182 ], [ -49.313304208854667, -25.413582156376648 ] ] } },
{ "type": "Feature", "properties": { "box_id": 1, "provider": "osmnx" }, "geometry": { "type": "LineString", "coordinates": [ [ -49.313304208854667, -25.413582156376648 ], [ -49.313297176148048, -25.413587492520662 ], [ -49.31329206845264, -25.413597364807195 ], [ -49.313291930289743, -25.413607294129722 ], [ -49.313293805060816, -25.413615440935324 ], [ -49.313629952258687, -25.414318976235467 ], [ -49.313634821357191, -25.414326254587628 ], [ -49.313641703398019, -25.414331750418487 ], [ -49.313652586206857, -25.414335486537968 ], [ -49.313662525335218, -25.414335600588583 ], [ -49.314702803739422, -25.414086621829117 ], [ -49.314710805229986, -25.414083102346886 ], [ -49.314719850830997, -25.414075983596785 ], [ -49.314724983535449, -25.414064305923738 ], [ -49.314724140222602, -25.414053462530454 ], [ -49.314532128509875, -25.41334977697807 ] ] } },
{ "type": "Feature", "properties": { "box_id": 1, "provider": "osmnx" }, "geometry": { "type": "LineString", "coordinates": [ [ -49.316879563813089, -25.413245772525148 ], [ -49.316875726058058, -25.41323579765243 ], [ -49.316864918432472, -25.413226645766809 ], [ -49.316854035607356, -25.413222909884805 ], [ -49.316840095865182, -25.413224555857109 ], [ -49.316820155089168, -25.413228841531026 ] ] } },
{ "type": "Feature", "properties": { "box_id": 1, "provider": "osmnx" }, "geometry": { "type": "LineString", "coordinates": [ [ -49.314793505350806, -25.415284788215537 ], [ -49.314854586329758, -25.415252987483953 ], [ -49.314919818647446, -25.415208594985423 ], [ -49.314960077423272, -25.415172944205032 ], [ -49.314979476402108, -25.415136151421837 ], [ -49.314985198913178, -25.415082048426772 ], [ -49.314980214179457, -25.415011572077418 ], [ -49.314966284182759, -25.414940993159625 ], [ -49.314747770678615, -25.414141306102945 ], [ -49.314744889341206, -25.414134050579726 ], [ -49.31473901371929, -25.414127663529793 ], [ -49.314726180716583, -25.414121196695604 ], [ -49.314711259492256, -25.414121928394934 ], [ -49.313689940490136, -25.414365707897389 ], [ -49.313681938954183, -25.414369227321426 ], [ -49.313675912686257, -25.414373672220684 ], [ -49.31367084265743, -25.414380836521968 ], [ -49.313668754367804, -25.414388035038083 ], [ -49.313668641346659, -25.414396159029952 ], [ -49.313670528710183, -25.414403403166059 ], [ -49.313736268879154, -25.414536870561072 ], [ -49.313776002241674, -25.41461045407361 ], [ -49.313810010738983, -25.414666818502141 ], [ -49.314175510357508, -25.415190127505557 ], [ -49.314239148498132, -25.415260373892231 ], [ -49.314298181163643, -25.41530438593648 ], [ -49.314306069764143, -25.415308990475076 ], [ -49.31436542886285, -25.415329533179364 ], [ -49.314439822333249, -25.415341220204276 ], [ -49.314520292318903, -25.415344851595904 ], [ -49.314612890194233, -25.415334177075099 ], [ -49.314707601406681, -25.415314498630512 ], [ -49.314753547697926, -25.415298774957623 ], [ -49.314793505350806, -25.415284788215537 ] ] } }
]
}
