{
"type": "FeatureCollection",
"name": "curitiba_1km_protomaps_roads",
"crs": { "type": "name", "properties": { "name": "urn:ogc:def:crs:OGC:1.3:CRS84" } },
"features": [
{ "type": "Feature", "properties": { "name": null, "pmap:kind_detail": "service", "pmap:min_zoom": 14.0, "pmap:kind": "minor_road", "pmap:level": 0.0, "oneway": null, "highway": "service", "pmap:link": null, "layer": null, "service": null, "ref": null, "shield_text_length": null, "network": null, "building": null, "height": null, "box_id": 1, "provider": "protomaps" }, "geometry": { "type": "LineString", "coordinates": [ [ -49.268816113471985, -25.464131544806332 ], [ -49.268467426300049, -25.464325262053364 ], [ -49.267764687538147, -25.464620680855084 ], [ -49.267630570261304, -25.464687315178821 ] ] } },
{ "type": "Feature", "properties": { "name": null, "pmap:kind_detail": "residential", "pmap:min_zoom": 13.0, "pmap:kind": "minor_road", "pmap:level": 0.0, "oneway": null, "highway": "residential", "pmap:link": null, "layer": null, "service": null, "ref": null, "shield_text_length": null, "network": null, "building": null, "height": null, "box_id": 1, "provider": "protomaps" }, "geometry": { "type": "MultiLineString", "coordinates": [ [ [ -49.268789291381836, -25.463821597211084 ], [ -49.268859028816223, -25.463671466344636 ], [ -49.268864393234253, -25.463623037032878 ], [ -49.268848299980164, -25.463598822377001 ], [ -49.26868736743927, -25.463497120822311 ] ], [ [ -49.267453551292419, -25.464271989810431 ], [ -49.267389178276062, -25.464112173081631 ], [ -49.267330169677734, -25.464044372045169 ], [ -49.267276525497437, -25.464020157389292 ], [ -49.26720142364502, -25.464015314458116 ], [ -49.267083406448364, -25.463962042215183 ] ] ] } },
{ "type": "Feature", "properties": { "name": "Rua Pernambuco", "pmap:kind_detail": "residential", "pmap:min_zoom": 13.0, "pmap:kind": "minor_road", "pmap:level": 0.0, "oneway": null, "highway": "residential", "pmap:link": null, "layer": null, "service": null, "ref": null, "shield_text_length": null, "network": null, "building": null, "height": null, "box_id": 1, "provider": "protomaps" }, "geometry": { "type": "MultiLineString", "coordinates": [ [ [ -49.269239902496338, -25.464213874636322 ], [ -49.269801249414741, -25.464712950007947 ] ], [ [ -49.269352555274963, -25.46406858670105 ], [ -49.270085175389084, -25.46471630305707 ] ] ] } },
{ "type": "Feature", "properties": { "name": null, "pmap:kind_detail": "crossing", "pmap:min_zoom": 15.0, "pmap:kind": "path", "pmap:level": 0.0, "oneway": null, "highway": "crossing", "pmap:link": null, "layer": null, "service": null, "ref": null, "shield_text_length": null, "network": null, "building": null, "height": null, "box_id": 1, "provider": "protomaps" }, "geometry": { "type": "MultiLineString", "coordinates": [ [ [ -49.269105792045593, -25.464073429632226 ], [ -49.269095063209534, -25.464025000320465 ] ], [ [ -49.269239902496338, -25.464213874636322 ], [ -49.26917552947998, -25.464194502911617 ] ] ] } },
{ "type": "Feature", "properties": { "name": "Rua Rio Grande do Norte", "pmap:kind_detail": "residential", "pmap:min_zoom": 13.0, "pmap:kind": "minor_road", "pmap:level": 0.0, "oneway": null, "highway": "residential", "pmap:link": null, "layer": null, "service": null, "ref": null, "shield_text_length": null, "network": null, "building": null, "height": null, "box_id": 1, "provider": "protomaps" }, "geometry": { "type": "LineString", "coordinates": [ [ -49.271959130758432, -25.463697991575465 ], [ -49.27142858505249, -25.463221073745292 ] ] } },
{ "type": "Feature", "properties": { "name": "Rua Paraíba", "pmap:kind_detail": "residential", "pmap:min_zoom": 13.0, "pmap:kind": "minor_road", "pmap:level": 0.0, "oneway": null, "highway": "residential", "pmap:link": null, "layer": null, "service": null, "ref": null, "shield_text_length": null, "network": null, "building": null, "height": null, "box_id": 1, "provider": "protomaps" }, "geometry": { "type": "LineString", "coordinates": [ [ -49.271585507597258, -25.464734021364141 ], [ -49.270420074462891, -25.463685995138164 ] ] } },
{ "type": "Feature", "properties": { "name": "Rua Assis Figueiredo", "pmap:kind_detail": "residential", "pmap:min_zoom": 13.0, "pmap:kind": "minor_road", "pmap:level": 0.0, "oneway": "no", "highway": "residential", "pmap:link": null, "layer": null, "service": null, "ref": null, "shield_text_length": null, "network": null, "building": null, "height": null, "box_id": 1, "provider": "protomaps" }, "geometry": { "type": "LineString", "coordinates": [ [ -49.270703115412928, -25.464723600674915 ], [ -49.271627068519592, -25.462804581664177 ] ] } },
{ "type": "Feature", "properties": { "name": "Rua Felício da Costa Vieira", "pmap:kind_detail": "residential", "pmap:min_zoom": 13.0, "pmap:kind": "minor_road", "pmap:level": 0.0, "oneway": null, "highway": "residential", "pmap:link": null, "layer": null, "service": null, "ref": null, "shield_text_length": null, "network": null, "building": null, "height": null, "box_id": 1, "provider": "protomaps" }, "geometry": { "type": "LineString", "coordinates": [ [ -49.268456697463989, -25.464654581373313 ], [ -49.268504074929275, -25.46469763091013 ] ] } },
{ "type": "Feature", "properties": { "name": "Rua Nunes Machado", "pmap:kind_detail": "residential", "pmap:min_zoom": 13.0, "pmap:kind": "minor_road", "pmap:level": 0.0, "oneway": "no", "highway": "residential", "pmap:link": null, "layer": null, "service": null, "ref": null, "shield_text_length": null, "network": null, "building": null, "height": null, "box_id": 1, "provider": "protomaps" }, "geometry": { "type": "MultiLineString", "coordinates": [ [ [ -49.263038635253906, -25.463603665308177 ], [ -49.262958168983459, -25.46376832496815 ] ], [ [ -49.262679219245911, -25.463656937551111 ], [ -49.262208125581509, -25.464623278334596 ] ] ] } },
{ "type": "Feature", "properties": { "name": "Rua João Antônio Xavier", "pmap:kind_detail": "residential", "pmap:min_zoom": 13.0, "pmap:kind": "minor_road", "pmap:level": 0.0, "oneway": "no", "highway": "residential", "pmap:link": null, "layer": null, "service": null, "ref": null, "shield_text_length": null, "network": null, "building": null, "height": null, "box_id": 1, "provider": "protomaps" }, "geometry": { "type": "LineString", "coordinates": [ [ -49.271959662437439, -25.459399388560335 ], [ -49.272020868055691, -25.45937628829968 ] ] } },
{ "type": "Feature", "properties": { "name": "Rua Francisco Negrão", "pmap:kind_detail": "residential", "pmap:min_zoom": 13.0, "pmap:kind": "minor_road", "pmap:level": 0.0, "oneway": "no", "highway": "residential", "pmap:link": null, "layer": null, "service": null, "ref": null, "shield_text_length": null, "network": null, "building": null, "height": null, "box_id": 1, "provider": "protomaps" }, "geometry": { "type": "LineString", "coordinates": [ [ -49.271026253700256, -25.458556579588183 ], [ -49.272038009371599, -25.458176370512781 ] ] } },
{ "type": "Feature", "properties": { "name": "Rua Nestor Victor", "pmap:kind_detail": "residential", "pmap:min_zoom": 13.0, "pmap:kind": "minor_road", "pmap:level": 0.0, "oneway": "no", "highway": "residential", "pmap:link": null, "layer": null, "service": null, "ref": null, "shield_text_length": null, "network": null, "building": null, "height": null, "box_id": 1, "provider": "protomaps" }, "geometry": { "type": "LineString", "coordinates": [ [ -49.27194356918335, -25.456749868400752 ], [ -49.270843863487244, -25.456783774508825 ] ] } },
{ "type": "Feature", "properties": { "name": null, "pmap:kind_detail": "service", "pmap:min_zoom": 15.0, "pmap:kind": "minor_road", "pmap:level": 0.0, "oneway": "yes", "highway": "service", "pmap:link": null, "layer": null, "service": "driveway", "ref": null, "shield_text_length": null, "network": null, "building": null, "height": null, "box_id": 1, "provider": "protomaps" }, "geometry": { "type": "MultiLineString", "coordinates": [ [ [ -49.269497394561768, -25.457176116616552 ], [ -49.26967978477478, -25.457229397643527 ], [ -49.269835352897644, -25.457350490886654 ], [ -49.269883632659912, -25.457369865805553 ], [ -49.26992654800415, -25.457360178346104 ] ], [ [ -49.270012378692627, -25.457442521751428 ], [ -49.270012378692627, -25.45751033396758 ], [ -49.270044565200806, -25.457553927535105 ], [ -49.270119667053223, -25.457607208562077 ], [ -49.270146489143372, -25.457641114670153 ], [ -49.270157217979431, -25.45777189537273 ] ] ] } },
{ "type": "Feature", "properties": { "name": null, "pmap:kind_detail": "crossing", "pmap:min_zoom": 15.0, "pmap:kind": "path", "pmap:level": 0.0, "oneway": null, "highway": "crossing", "pmap:link": null, "layer": null, "service": null, "ref": null, "shield_text_length": null, "network": null, "building": null, "height": null, "box_id": 1, "provider": "protomaps" }, "geometry": { "type": "MultiLineString", "coordinates": [ [ [ -49.270913600921631, -25.456691743644051 ], [ -49.270811676979065, -25.456696587373777 ] ], [ [ -49.270752668380737, -25.456740180941299 ], [ -49.270736575126648, -25.456832211806077 ] ], [ [ -49.269878268241882, -25.456032996401447 ], [ -49.269829988479614, -25.456134714725675 ] ], [ [ -49.269518852233887, -25.456774087049375 ], [ -49.269475936889648, -25.456875805373603 ] ], [ [ -49.272045493125916, -25.457195491535451 ], [ -49.272051812040367, -25.4572101630257 ] ], [ [ -49.271262288093567, -25.457297209859679 ], [ -49.271208643913269, -25.457205178994901 ] ], [ [ -49.271240830421448, -25.457331115967754 ], [ -49.271128177642822, -25.457331115967754 ] ], [ [ -49.271144270896912, -25.457171272886828 ], [ -49.271031618118286, -25.457176116616552 ] ], [ [ -49.270951151847839, -25.4568564304547 ], [ -49.270838499069214, -25.456861274184426 ] ], [ [ -49.270983338356018, -25.456822524346627 ], [ -49.27092432975769, -25.456725649752126 ] ], [ [ -49.270977973937988, -25.455921590617773 ], [ -49.271085262298584, -25.455897371969147 ] ], [ [ -49.27094042301178, -25.455892528239424 ], [ -49.270961880683899, -25.455790809915197 ] ], [ [ -49.271981120109558, -25.455718153969322 ], [ -49.272009251366143, -25.455711098207377 ] ], [ [ -49.271868467330933, -25.456793461968275 ], [ -49.271825551986694, -25.4567014311035 ] ], [ [ -49.272040128707886, -25.456841899265527 ], [ -49.27192747592926, -25.45682736807635 ] ], [ [ -49.271863102912903, -25.458333768020832 ], [ -49.271771907806396, -25.458367674128908 ] ], [ [ -49.271884560585022, -25.45827564326413 ], [ -49.271836280822754, -25.458198143588533 ] ], [ [ -49.271653890609741, -25.458265955804681 ], [ -49.271702170372009, -25.458348299210005 ] ], [ [ -49.27167534828186, -25.458212674777705 ], [ -49.271766543388367, -25.458173924939906 ] ], [ [ -49.27117645740509, -25.458546892128734 ], [ -49.271095991134644, -25.458479079912582 ] ], [ [ -49.262748956680298, -25.461259380774742 ], [ -49.2626953125, -25.461361099098969 ] ], [ [ -49.263805747032166, -25.461690472720271 ], [ -49.263757467269897, -25.461787347314768 ] ], [ [ -49.26270604133606, -25.461181881099144 ], [ -49.262604117393494, -25.461133443801891 ] ], [ [ -49.263001084327698, -25.460358447045888 ], [ -49.263103008270264, -25.46040688434314 ] ], [ [ -49.262507557868958, -25.461346567909793 ], [ -49.262604117393494, -25.461390161477318 ] ], [ [ -49.262486100196838, -25.461269068234191 ], [ -49.262539744377136, -25.461157662450518 ] ] ] } },
{ "type": "Feature", "properties": { "name": null, "pmap:kind_detail": "sidewalk", "pmap:min_zoom": 15.0, "pmap:kind": "path", "pmap:level": 0.0, "oneway": null, "highway": "sidewalk", "pmap:link": null, "layer": null, "service": null, "ref": null, "shield_text_length": null, "network": null, "building": null, "height": null, "box_id": 1, "provider": "protomaps" }, "geometry": { "type": "MultiLineString", "coordinates": [ [ [ -49.271255671192129, -25.455702201668927 ], [ -49.271273016929626, -25.455708466509872 ], [ -49.271298724136592, -25.455702709938901 ] ], [ [ -49.269988065028627, -25.455687236695908 ], [ -49.269846081733704, -25.455994246563648 ], [ -49.269851446151733, -25.456028152671724 ], [ -49.269878268241882, -25.456032996401447 ], [ -49.271010160446167, -25.455776278726024 ], [ -49.271037692393747, -25.455699628277497 ] ], [ [ -49.272045493125916, -25.457195491535451 ], [ -49.272052072548668, -25.457191927054229 ] ], [ [ -49.272053187117351, -25.457113905577557 ], [ -49.271906018257141, -25.456798305698001 ], [ -49.271830916404724, -25.456788618238551 ], [ -49.270983338356018, -25.456822524346627 ], [ -49.270951151847839, -25.4568370555358 ], [ -49.270951151847839, -25.456861274184426 ], [ -49.271171092987061, -25.457205178994901 ], [ -49.272045493125916, -25.457195491535451 ] ], [ [ -49.270956516265869, -25.455892528239424 ], [ -49.269770979881287, -25.456154089644574 ], [ -49.269502758979797, -25.456740180941299 ], [ -49.269513487815857, -25.456769243319652 ], [ -49.269534945487976, -25.456778930779102 ], [ -49.270795583724976, -25.456730493481849 ], [ -49.270977973937988, -25.455921590617773 ], [ -49.270956516265869, -25.455892528239424 ] ], [ [ -49.272045493125916, -25.45671111856295 ], [ -49.272059358401023, -25.456681906477339 ] ], [ [ -49.272059743916195, -25.456654919837924 ], [ -49.271981711074702, -25.455710773075069 ] ], [ [ -49.271815783465883, -25.45570881418416 ], [ -49.271090626716614, -25.455868309590798 ], [ -49.270913600921631, -25.4567014311035 ], [ -49.27092432975769, -25.456730493481849 ], [ -49.271793365478516, -25.4567014311035 ], [ -49.272045493125916, -25.45671111856295 ] ], [ [ -49.272057395568226, -25.456819307712678 ], [ -49.272045493125916, -25.45682736807635 ], [ -49.272045493125916, -25.456851586724976 ], [ -49.272056579414773, -25.456876439676755 ] ], [ [ -49.272050759234773, -25.457283860994004 ], [ -49.271262288093567, -25.457297209859679 ], [ -49.271246194839478, -25.457306897319128 ], [ -49.271246194839478, -25.457335959697478 ], [ -49.271788001060486, -25.458202987318256 ], [ -49.271814823150635, -25.458207831047982 ], [ -49.272038756973529, -25.458124037257679 ] ], [ [ -49.272037380895682, -25.458220364768312 ], [ -49.271863102912903, -25.45828533072358 ], [ -49.271852374076843, -25.458319236831656 ], [ -49.272031829941888, -25.458608939847913 ] ], [ [ -49.27167534828186, -25.458212674777705 ], [ -49.270817041397095, -25.456832211806077 ], [ -49.269588589668274, -25.456866117914153 ], [ -49.269475936889648, -25.456875805373603 ], [ -49.26943302154541, -25.456900024022225 ], [ -49.269395470619202, -25.456967836238377 ], [ -49.269400835037231, -25.457001742346453 ], [ -49.271047711372375, -25.458488767372032 ], [ -49.271095991134644, -25.458479079912582 ], [ -49.271664619445801, -25.458261112074958 ], [ -49.27168607711792, -25.458241737156058 ], [ -49.27167534828186, -25.458212674777705 ] ], [ [ -49.272029221806854, -25.458791513206354 ], [ -49.271745085716248, -25.458338611750555 ], [ -49.271723628044128, -25.458338611750555 ], [ -49.271160364151001, -25.458561423317907 ], [ -49.271165728569031, -25.458590485696259 ], [ -49.271986484527588, -25.459331576344187 ], [ -49.272021557050259, -25.459328057647891 ] ], [ [ -49.264245629310608, -25.460828288829216 ], [ -49.264234900474548, -25.460808913910316 ], [ -49.263151288032532, -25.460372978235064 ], [ -49.263119101524353, -25.460382665694514 ], [ -49.263103008270264, -25.46040688434314 ], [ -49.26270604133606, -25.461181881099144 ], [ -49.26270067691803, -25.461230318396392 ], [ -49.262727499008179, -25.461254537045019 ], [ -49.263805747032166, -25.461690472720271 ], [ -49.263837933540344, -25.461690472720271 ], [ -49.263864755630493, -25.461671097801368 ], [ -49.264090061187744, -25.461201256018043 ], [ -49.264250993728638, -25.460862194937292 ], [ -49.264245629310608, -25.460828288829216 ] ], [ [ -49.262351989746094, -25.461085006504643 ], [ -49.262555837631226, -25.461162506180241 ], [ -49.262598752975464, -25.461147974991068 ], [ -49.263011813163757, -25.460329384667538 ], [ -49.262990355491638, -25.460285791100013 ], [ -49.26243782043457, -25.460077510721838 ], [ -49.262400269508362, -25.460082354451565 ], [ -49.262384176254272, -25.460096885640738 ], [ -49.262351989746094, -25.460164697856889 ] ], [ [ -49.262351989746094, -25.461656566612195 ], [ -49.262518286705017, -25.461322349261167 ], [ -49.262502193450928, -25.461273911963918 ], [ -49.262351989746094, -25.461215787207216 ] ], [ [ -49.262351989746094, -25.46225234536837 ], [ -49.263339042663574, -25.462649531205823 ], [ -49.263381958007812, -25.462649531205823 ], [ -49.263403415679932, -25.462635000016647 ], [ -49.263784289360046, -25.461850315801193 ], [ -49.263784289360046, -25.461821253422844 ], [ -49.263757467269897, -25.461787347314768 ], [ -49.262679219245911, -25.461351411639519 ], [ -49.262647032737732, -25.461351411639519 ], [ -49.262614846229553, -25.461370786558419 ], [ -49.262351989746094, -25.461908440557895 ] ] ] } },
{ "type": "Feature", "properties": { "name": null, "pmap:kind_detail": "service", "pmap:min_zoom": 14.0, "pmap:kind": "minor_road", "pmap:level": 0.0, "oneway": null, "highway": "service", "pmap:link": null, "layer": null, "service": null, "ref": null, "shield_text_length": null, "network": null, "building": null, "height": null, "box_id": 1, "provider": "protomaps" }, "geometry": { "type": "MultiLineString", "coordinates": [ [ [ -49.271830916404724, -25.456745024671026 ], [ -49.271766543388367, -25.456134714725675 ], [ -49.271804094314575, -25.456100808617599 ], [ -49.271884560585022, -25.456100808617599 ], [ -49.271911382675171, -25.456110496077049 ], [ -49.27192747592926, -25.456129870995948 ], [ -49.271954298019409, -25.456609400238726 ], [ -49.27194356918335, -25.456749868400752 ] ], [ [ -49.271541237831116, -25.459646418776313 ], [ -49.271825551986694, -25.459903136451736 ] ], [ [ -49.267485443884055, -25.455657691511462 ], [ -49.267389178276062, -25.455868309590798 ], [ -49.267383813858032, -25.455907059428597 ], [ -49.267410635948181, -25.455945809266396 ], [ -49.267609119415283, -25.456052371320347 ], [ -49.267775416374207, -25.456110496077049 ] ] ] } },
{ "type": "Feature", "properties": { "name": null, "pmap:kind_detail": "service", "pmap:min_zoom": 15.0, "pmap:kind": "minor_road", "pmap:level": 0.0, "oneway": null, "highway": "service", "pmap:link": null, "layer": null, "service": "parking_aisle", "ref": null, "shield_text_length": null, "network": null, "building": null, "height": null, "box_id": 1, "provider": "protomaps" }, "geometry": { "type": "MultiLineString", "coordinates": [ [ [ -49.269910454750061, -25.457234241373254 ], [ -49.270361065864563, -25.457001742346453 ] ], [ [ -49.269974827766418, -25.457306897319128 ], [ -49.270028471946716, -25.457340803427204 ] ], [ [ -49.271771907806396, -25.456168620833747 ], [ -49.271578788757324, -25.456173464563474 ] ] ] } },
{ "type": "Feature", "properties": { "name": "Rua Brigadeiro Franco", "pmap:kind_detail": "secondary", "pmap:min_zoom": 10.0, "pmap:kind": "medium_road", "pmap:level": 0.0, "oneway": "yes", "highway": "secondary", "pmap:link": null, "layer": null, "service": null, "ref": null, "shield_text_length": null, "network": null, "building": null, "height": null, "box_id": 1, "provider": "protomaps" }, "geometry": { "type": "LineString", "coordinates": [ [ -49.268660545349121, -25.457878457426681 ], [ -49.269304275512695, -25.457001742346453 ], [ -49.269912139236254, -25.455686340339085 ] ] } },
{ "type": "Feature", "properties": { "name": "Rua Lamenha Lins", "pmap:kind_detail": "secondary", "pmap:min_zoom": 10.0, "pmap:kind": "medium_road", "pmap:level": 0.0, "oneway": "yes", "highway": "secondary", "pmap:link": null, "layer": null, "service": null, "ref": null, "shield_text_length": null, "network": null, "building": null, "height": null, "box_id": 1, "provider": "protomaps" }, "geometry": { "type": "LineString", "coordinates": [ [ -49.267992392587729, -25.455663676393748 ], [ -49.267775416374207, -25.456110496077049 ], [ -49.267458915710449, -25.456793461968275 ] ] } },
{ "type": "Feature", "properties": { "name": "Rua Nestor Victor", "pmap:kind_detail": "residential", "pmap:min_zoom": 13.0, "pmap:kind": "minor_road", "pmap:level": 0.0, "oneway": "yes", "highway": "residential", "pmap:link": null, "layer": null, "service": null, "ref": null, "shield_text_length": null, "network": null, "building": null, "height": null, "box_id": 1, "provider": "protomaps" }, "geometry": { "type": "MultiLineString", "coordinates": [ [ [ -49.269374012947083, -25.4568564304547 ], [ -49.269583225250244, -25.456817680616901 ], [ -49.270843863487244, -25.456783774508825 ] ], [ [ -49.27205821356339, -25.456762046825947 ], [ -49.27194356918335, -25.456749868400752 ] ] ] } },
{ "type": "Feature", "properties": { "name": null, "pmap:kind_detail": "service", "pmap:min_zoom": 15.0, "pmap:kind": "minor_road", "pmap:level": 0.0, "oneway": null, "highway": "service", "pmap:link": null, "layer": null, "service": "driveway", "ref": null, "shield_text_length": null, "network": null, "building": null, "height": null, "box_id": 1, "provider": "protomaps" }, "geometry": { "type": "LineString", "coordinates": [ [ -49.270564913749695, -25.457863926237504 ], [ -49.270511269569397, -25.458091581534582 ] ] } },
{ "type": "Feature", "properties": { "name": "Rua Silveira Neto", "pmap:kind_detail": "secondary", "pmap:min_zoom": 10.0, "pmap:kind": "medium_road", "pmap:level": 0.0, "oneway": "yes", "highway": "secondary", "pmap:link": null, "layer": null, "service": null, "ref": null, "shield_text_length": null, "network": null, "building": null, "height": null, "box_id": 1, "provider": "protomaps" }, "geometry": { "type": "LineString", "coordinates": [ [ -49.271571972026628, -25.455705935820426 ], [ -49.271283745765686, -25.455771434996297 ] ] } },
{ "type": "Feature", "properties": { "name": "Rua Silveira Neto", "pmap:kind_detail": "residential", "pmap:min_zoom": 13.0, "pmap:kind": "minor_road", "pmap:level": 0.0, "oneway": "yes", "highway": "residential", "pmap:link": null, "layer": null, "service": null, "ref": null, "shield_text_length": null, "network": null, "building": null, "height": null, "box_id": 1, "provider": "protomaps" }, "geometry": { "type": "LineString", "coordinates": [ [ -49.271283745765686, -25.455771434996297 ], [ -49.271047711372375, -25.455819872293546 ] ] } },
{ "type": "Feature", "properties": { "name": null, "pmap:kind_detail": "footway", "pmap:min_zoom": 14.0, "pmap:kind": "path", "pmap:level": 0.0, "oneway": null, "highway": "footway", "pmap:link": null, "layer": null, "service": null, "ref": null, "shield_text_length": null, "network": null, "building": null, "height": null, "box_id": 1, "provider": "protomaps" }, "geometry": { "type": "LineString", "coordinates": [ [ -49.268751740455627, -25.456807993157451 ], [ -49.268912672996521, -25.456807993157451 ] ] } },
{ "type": "Feature", "properties": { "name": null, "pmap:kind_detail": "residential", "pmap:min_zoom": 13.0, "pmap:kind": "minor_road", "pmap:level": 0.0, "oneway": null, "highway": "residential", "pmap:link": null, "layer": null, "service": null, "ref": null, "shield_text_length": null, "network": null, "building": null, "height": null, "box_id": 1, "provider": "protomaps" }, "geometry": { "type": "MultiLineString", "coordinates": [ [ [ -49.271911382675171, -25.462228126719747 ], [ -49.271321296691895, -25.461985940233497 ] ], [ [ -49.270951151847839, -25.460828288829216 ], [ -49.270339608192444, -25.460474696559288 ] ] ] } },
{ "type": "Feature", "properties": { "name": null, "pmap:kind_detail": "primary_link", "pmap:min_zoom": 8.0, "pmap:kind": "major_road", "pmap:level": 0.0, "oneway": "yes", "highway": "primary_link", "pmap:link": 1.0, "layer": null, "service": null, "ref": null, "shield_text_length": null, "network": null, "building": null, "height": null, "box_id": 1, "provider": "protomaps" }, "geometry": { "type": "LineString", "coordinates": [ [ -49.270725846290588, -25.458445173804506 ], [ -49.270817041397095, -25.458367674128908 ] ] } },
{ "type": "Feature", "properties": { "name": null, "pmap:kind_detail": "secondary_link", "pmap:min_zoom": 10.0, "pmap:kind": "medium_road", "pmap:level": 0.0, "oneway": "yes", "highway": "secondary_link", "pmap:link": 1.0, "layer": null, "service": null, "ref": null, "shield_text_length": null, "network": null, "building": null, "height": null, "box_id": 1, "provider": "protomaps" }, "geometry": { "type": "LineString", "coordinates": [ [ -49.271283745765686, -25.455771434996297 ], [ -49.27118718624115, -25.455737528888221 ], [ -49.271156873823557, -25.455701035297228 ] ] } },
{ "type": "Feature", "properties": { "name": "Rua Lamenha Lins", "pmap:kind_detail": "residential", "pmap:min_zoom": 13.0, "pmap:kind": "minor_road", "pmap:level": 0.0, "oneway": "no", "highway": "residential", "pmap:link": null, "layer": null, "service": null, "ref": null, "shield_text_length": null, "network": null, "building": null, "height": null, "box_id": 1, "provider": "protomaps" }, "geometry": { "type": "LineString", "coordinates": [ [ -49.264540672302246, -25.462804581664177 ], [ -49.263654688108794, -25.464640361643823 ] ] } },
{ "type": "Feature", "properties": { "name": "Rua Antônio Parolin Junior", "pmap:kind_detail": "residential", "pmap:min_zoom": 13.0, "pmap:kind": "minor_road", "pmap:level": 0.0, "oneway": "no", "highway": "residential", "pmap:link": null, "layer": null, "service": null, "ref": null, "shield_text_length": null, "network": null, "building": null, "height": null, "box_id": 1, "provider": "protomaps" }, "geometry": { "type": "LineString", "coordinates": [ [ -49.26515389304636, -25.464658066638286 ], [ -49.262351989746094, -25.463526178409364 ] ] } },
{ "type": "Feature", "properties": { "name": "Rua Nunes Machado", "pmap:kind_detail": "residential", "pmap:min_zoom": 13.0, "pmap:kind": "minor_road", "pmap:level": 0.0, "oneway": "no", "highway": "residential", "pmap:link": null, "layer": null, "service": null, "ref": null, "shield_text_length": null, "network": null, "building": null, "height": null, "box_id": 1, "provider": "protomaps" }, "geometry": { "type": "MultiLineString", "coordinates": [ [ [ -49.263419508934021, -25.462804581664177 ], [ -49.262958168983459, -25.46376832496815 ] ], [ [ -49.262679219245911, -25.463656937551111 ], [ -49.262351989746094, -25.464330104984541 ] ] ] } },
{ "type": "Feature", "properties": { "name": "Rua Antônio Parolin Junior", "pmap:kind_detail": "residential", "pmap:min_zoom": 13.0, "pmap:kind": "minor_road", "pmap:level": 0.0, "oneway": "no", "highway": "residential", "pmap:link": null, "layer": null, "service": null, "ref": null, "shield_text_length": null, "network": null, "building": null, "height": null, "box_id": 1, "provider": "protomaps" }, "geometry": { "type": "LineString", "coordinates": [ [ -49.263038635253906, -25.463802225486383 ], [ -49.262018835951402, -25.463396991854854 ] ] } },
{ "type": "Feature", "properties": { "name": "Rua Antônio Parolin Junior", "pmap:kind_detail": "residential", "pmap:min_zoom": 13.0, "pmap:kind": "minor_road", "pmap:level": 0.0, "oneway": "no", "highway": "residential", "pmap:link": null, "layer": null, "service": null, "ref": null, "shield_text_length": null, "network": null, "building": null, "height": null, "box_id": 1, "provider": "protomaps" }, "geometry": { "type": "LineString", "coordinates": [ [ -49.262089133262634, -25.463424527961827 ], [ -49.262018840673505, -25.463396663190903 ] ] } },
{ "type": "Feature", "properties": { "name": "Rua Eugênio Parolin", "pmap:kind_detail": "residential", "pmap:min_zoom": 13.0, "pmap:kind": "minor_road", "pmap:level": 0.0, "oneway": "no", "highway": "residential", "pmap:link": null, "layer": null, "service": null, "ref": null, "shield_text_length": null, "network": null, "building": null, "height": null, "box_id": 1, "provider": "protomaps" }, "geometry": { "type": "LineString", "coordinates": [ [ -49.262351989746094, -25.462315313854798 ], [ -49.264379739761353, -25.463133904178324 ], [ -49.265157580375671, -25.463424527961827 ] ] } },
{ "type": "Feature", "properties": { "name": "Rua Brigadeiro Franco", "pmap:kind_detail": "secondary", "pmap:min_zoom": 10.0, "pmap:kind": "medium_road", "pmap:level": 0.0, "oneway": "yes", "highway": "secondary", "pmap:link": null, "layer": null, "service": null, "ref": null, "shield_text_length": null, "network": null, "building": null, "height": null, "box_id": 1, "provider": "protomaps" }, "geometry": { "type": "MultiLineString", "coordinates": [ [ [ -49.265141487121582, -25.464644895510965 ], [ -49.26513643044489, -25.464657860412139 ] ], [ [ -49.265133804734241, -25.464657829403574 ], [ -49.265141487121582, -25.464644895510965 ] ] ] } },
{ "type": "Feature", "properties": { "name": "Rua Rio Vila Guaíra", "pmap:kind_detail": "residential", "pmap:min_zoom": 13.0, "pmap:kind": "minor_road", "pmap:level": 0.0, "oneway": "no", "highway": "residential", "pmap:link": null, "layer": null, "service": null, "ref": null, "shield_text_length": null, "network": null, "building": null, "height": null, "box_id": 1, "provider": "protomaps" }, "geometry": { "type": "MultiLineString", "coordinates": [ [ [ -49.26943838596344, -25.46414607359986 ], [ -49.271969504629247, -25.4629718050812 ] ], [ [ -49.268375841453086, -25.464696116525452 ], [ -49.268456697463989, -25.464654581373313 ], [ -49.268622994422913, -25.464538351025098 ], [ -49.268826842308044, -25.464417277745703 ], [ -49.269239902496338, -25.464213874636322 ] ] ] } },
{ "type": "Feature", "properties": { "name": "Rua Edgard Meira de Vasconcelos", "pmap:kind_detail": "service", "pmap:min_zoom": 15.0, "pmap:kind": "minor_road", "pmap:level": 0.0, "oneway": null, "highway": "service", "pmap:link": null, "layer": null, "service": "alley", "ref": null, "shield_text_length": null, "network": null, "building": null, "height": null, "box_id": 1, "provider": "protomaps" }, "geometry": { "type": "LineString", "coordinates": [ [ -49.26618754863739, -25.463845811866964 ], [ -49.265994429588318, -25.464049214976345 ], [ -49.265647570912719, -25.464663896771096 ] ] } },
{ "type": "Feature", "properties": { "name": "Viela Favela Parolin", "pmap:kind_detail": "residential", "pmap:min_zoom": 13.0, "pmap:kind": "minor_road", "pmap:level": 0.0, "oneway": null, "highway": "residential", "pmap:link": null, "layer": null, "service": null, "ref": null, "shield_text_length": null, "network": null, "building": null, "height": null, "box_id": 1, "provider": "protomaps" }, "geometry": { "type": "MultiLineString", "coordinates": [ [ [ -49.268392324447632, -25.462862696838286 ], [ -49.268671274185181, -25.462978927186505 ], [ -49.26868736743927, -25.463003141842382 ], [ -49.2686927318573, -25.463037042360611 ], [ -49.268783926963806, -25.463133900984129 ] ], [ [ -49.267984628677368, -25.462925654943572 ], [ -49.268274307250977, -25.463061257016491 ], [ -49.268295764923096, -25.463085471672372 ], [ -49.268301129341125, -25.463187173227062 ], [ -49.268349409103394, -25.463230759607644 ], [ -49.268521070480347, -25.46333730409351 ] ] ] } },
{ "type": "Feature", "properties": { "name": "Rua Brigadeiro Franco", "pmap:kind_detail": "secondary", "pmap:min_zoom": 10.0, "pmap:kind": "medium_road", "pmap:level": 0.0, "oneway": "no", "highway": "secondary", "pmap:link": null, "layer": null, "service": null, "ref": null, "shield_text_length": null, "network": null, "building": null, "height": null, "box_id": 1, "provider": "protomaps" }, "geometry": { "type": "LineString", "coordinates": [ [ -49.265141487121582, -25.464644895510965 ], [ -49.266090989112854, -25.462804581664177 ] ] } },
{ "type": "Feature", "properties": { "name": "Viela da Favela", "pmap:kind_detail": "service", "pmap:min_zoom": 15.0, "pmap:kind": "minor_road", "pmap:level": 0.0, "oneway": null, "highway": "service", "pmap:link": null, "layer": null, "service": "alley", "ref": null, "shield_text_length": null, "network": null, "building": null, "height": null, "box_id": 1, "provider": "protomaps" }, "geometry": { "type": "LineString", "coordinates": [ [ -49.267319440841675, -25.464320419122188 ], [ -49.267412895909381, -25.464684744534143 ] ] } },
{ "type": "Feature", "properties": { "name": null, "pmap:kind_detail": "service", "pmap:min_zoom": 15.0, "pmap:kind": "minor_road", "pmap:level": 0.0, "oneway": null, "highway": "service", "pmap:link": null, "layer": null, "service": "alley", "ref": null, "shield_text_length": null, "network": null, "building": null, "height": null, "box_id": 1, "provider": "protomaps" }, "geometry": { "type": "LineString", "coordinates": [ [ -49.267609119415283, -25.464213874636322 ], [ -49.267764687538147, -25.464620680855084 ] ] } },
{ "type": "Feature", "properties": { "name": null, "pmap:kind_detail": "crossing", "pmap:min_zoom": 15.0, "pmap:kind": "path", "pmap:level": 1.0, "oneway": null, "highway": "crossing", "pmap:link": null, "layer": 1.0, "service": null, "ref": null, "shield_text_length": null, "network": null, "building": null, "height": null, "box_id": 1, "provider": "protomaps" }, "geometry": { "type": "LineString", "coordinates": [ [ -49.26917552947998, -25.464194502911617 ], [ -49.269105792045593, -25.464073429632226 ] ] } },
{ "type": "Feature", "properties": { "name": "Rua Carlos Affonso Meissner Osório", "pmap:kind_detail": "service", "pmap:min_zoom": 15.0, "pmap:kind": "minor_road", "pmap:level": 0.0, "oneway": "no", "highway": "service", "pmap:link": null, "layer": null, "service": "alley", "ref": null, "shield_text_length": null, "network": null, "building": null, "height": null, "box_id": 1, "provider": "protomaps" }, "geometry": { "type": "LineString", "coordinates": [ [ -49.266808613743031, -25.464677608209985 ], [ -49.266831278800964, -25.46462552378626 ], [ -49.267061948776245, -25.464436649470407 ], [ -49.267319440841675, -25.464320419122188 ], [ -49.267920255661011, -25.464117016012807 ], [ -49.268150925636292, -25.464117016012807 ], [ -49.268590807914734, -25.464150916531036 ], [ -49.268816113471985, -25.464131544806332 ], [ -49.269384741783142, -25.463918455834602 ], [ -49.271203279495239, -25.463051571154139 ], [ -49.271519780158997, -25.463032199429438 ] ] } },
{ "type": "Feature", "properties": { "name": "Rua Chanceler Lauro Muller", "pmap:kind_detail": "residential", "pmap:min_zoom": 13.0, "pmap:kind": "minor_road", "pmap:level": 1.0, "oneway": null, "highway": "residential", "pmap:link": null, "layer": 1.0, "service": null, "ref": null, "shield_text_length": null, "network": null, "building": null, "height": null, "box_id": 1, "provider": "protomaps" }, "geometry": { "type": "LineString", "coordinates": [ [ -49.269288182258606, -25.46401047152694 ], [ -49.269352555274963, -25.46406858670105 ] ] } },
{ "type": "Feature", "properties": { "name": "Rua Chanceler Lauro Muller", "pmap:kind_detail": "residential", "pmap:min_zoom": 13.0, "pmap:kind": "minor_road", "pmap:level": 0.0, "oneway": null, "highway": "residential", "pmap:link": null, "layer": null, "service": null, "ref": null, "shield_text_length": null, "network": null, "building": null, "height": null, "box_id": 1, "provider": "protomaps" }, "geometry": { "type": "LineString", "coordinates": [ [ -49.269245266914368, -25.463976571008708 ], [ -49.269288182258606, -25.46401047152694 ] ] } },
{ "type": "Feature", "properties": { "name": "Rua Padre Isaias de Andrade", "pmap:kind_detail": "residential", "pmap:min_zoom": 13.0, "pmap:kind": "minor_road", "pmap:level": 0.0, "oneway": "no", "highway": "residential", "pmap:link": null, "layer": null, "service": null, "ref": null, "shield_text_length": null, "network": null, "building": null, "height": null, "box_id": 1, "provider": "protomaps" }, "geometry": { "type": "LineString", "coordinates": [ [ -49.266245113679375, -25.46467095350571 ], [ -49.266536235809326, -25.464020157389292 ], [ -49.267153143882751, -25.462804581664177 ] ] } },
{ "type": "Feature", "properties": { "name": "Rua Eugênio Parolin", "pmap:kind_detail": "residential", "pmap:min_zoom": 13.0, "pmap:kind": "minor_road", "pmap:level": 0.0, "oneway": "no", "highway": "residential", "pmap:link": null, "layer": null, "service": null, "ref": null, "shield_text_length": null, "network": null, "building": null, "height": null, "box_id": 1, "provider": "protomaps" }, "geometry": { "type": "LineString", "coordinates": [ [ -49.263580441474915, -25.462804581664177 ], [ -49.264379739761353, -25.463133900984129 ], [ -49.265672564506531, -25.463618194101702 ], [ -49.26618754863739, -25.463845811866964 ], [ -49.266536235809326, -25.464020157389292 ], [ -49.266772270202637, -25.464121858943983 ], [ -49.266922473907471, -25.464223560498674 ], [ -49.267061948776245, -25.464436649470407 ] ] } },
{ "type": "Feature", "properties": { "name": "Rua Montese", "pmap:kind_detail": "residential", "pmap:min_zoom": 13.0, "pmap:kind": "minor_road", "pmap:level": 0.0, "oneway": "no", "highway": "residential", "pmap:link": null, "layer": null, "service": null, "ref": null, "shield_text_length": null, "network": null, "building": null, "height": null, "box_id": 1, "provider": "protomaps" }, "geometry": { "type": "LineString", "coordinates": [ [ -49.267705678939819, -25.464184817049265 ], [ -49.268065094947815, -25.46355523599642 ], [ -49.268424510955811, -25.462804581664177 ] ] } },
{ "type": "Feature", "properties": { "name": "Rua Chanceler Lauro Müller", "pmap:kind_detail": "residential", "pmap:min_zoom": 13.0, "pmap:kind": "minor_road", "pmap:level": 0.0, "oneway": "no", "highway": "residential", "pmap:link": null, "layer": null, "service": null, "ref": null, "shield_text_length": null, "network": null, "building": null, "height": null, "box_id": 1, "provider": "protomaps" }, "geometry": { "type": "LineString", "coordinates": [ [ -49.266396760940552, -25.462804581664177 ], [ -49.266600608825684, -25.462901440287691 ], [ -49.267024397850037, -25.463061257016491 ], [ -49.268065094947815, -25.46355523599642 ], [ -49.268789291381836, -25.463821597211084 ], [ -49.269245266914368, -25.463976571008708 ] ] } },
{ "type": "Feature", "properties": { "name": "Viela Favela Parolin", "pmap:kind_detail": "residential", "pmap:min_zoom": 13.0, "pmap:kind": "minor_road", "pmap:level": 0.0, "oneway": null, "highway": "residential", "pmap:link": null, "layer": null, "service": null, "ref": null, "shield_text_length": null, "network": null, "building": null, "height": null, "box_id": 1, "provider": "protomaps" }, "geometry": { "type": "MultiLineString", "coordinates": [ [ [ -49.268392324447632, -25.462862655313725 ], [ -49.268671274185181, -25.462978904827125 ], [ -49.26868736743927, -25.463003123475751 ], [ -49.2686927318573, -25.463037029583823 ], [ -49.268783926963806, -25.463133904178324 ] ], [ [ -49.267984628677368, -25.46292562380015 ], [ -49.268274307250977, -25.463061248232449 ], [ -49.268295764923096, -25.463085466881076 ], [ -49.268301129341125, -25.4631871852053 ], [ -49.268349409103394, -25.463230778772825 ], [ -49.268521070480347, -25.463337340826776 ] ] ] } },
{ "type": "Feature", "properties": { "name": "Viela da Favela", "pmap:kind_detail": "living_street", "pmap:min_zoom": 15.0, "pmap:kind": "other", "pmap:level": 0.0, "oneway": null, "highway": "living_street", "pmap:link": null, "layer": null, "service": null, "ref": null, "shield_text_length": null, "network": null, "building": null, "height": null, "box_id": 1, "provider": "protomaps" }, "geometry": { "type": "MultiLineString", "coordinates": [ [ [ -49.270371794700623, -25.46317748736471 ], [ -49.270548820495605, -25.462920812012396 ] ], [ [ -49.267571568489075, -25.462804581664177 ], [ -49.267641305923462, -25.46283363925123 ] ] ] } },
{ "type": "Feature", "properties": { "name": "Viela da Favela", "pmap:kind_detail": "living_street", "pmap:min_zoom": 15.0, "pmap:kind": "other", "pmap:level": 0.0, "oneway": null, "highway": "living_street", "pmap:link": null, "layer": null, "service": null, "ref": null, "shield_text_length": null, "network": null, "building": null, "height": null, "box_id": 1, "provider": "protomaps" }, "geometry": { "type": "MultiLineString", "coordinates": [ [ [ -49.267222881317139, -25.462673749854449 ], [ -49.267641305923462, -25.462833592935375 ] ], [ [ -49.270371794700623, -25.46317749774585 ], [ -49.270548820495605, -25.462920780070423 ] ] ] } },
{ "type": "Feature", "properties": { "name": "Rua Ermindo L Matkoski", "pmap:kind_detail": "service", "pmap:min_zoom": 15.0, "pmap:kind": "minor_road", "pmap:level": 0.0, "oneway": null, "highway": "service", "pmap:link": null, "layer": null, "service": "alley", "ref": null, "shield_text_length": null, "network": null, "building": null, "height": null, "box_id": 1, "provider": "protomaps" }, "geometry": { "type": "LineString", "coordinates": [ [ -49.266654253005981, -25.462804581664177 ], [ -49.266600608825684, -25.462901440287691 ] ] } },
{ "type": "Feature", "properties": { "name": "Rua Gastão Poplade", "pmap:kind_detail": "service", "pmap:min_zoom": 15.0, "pmap:kind": "minor_road", "pmap:level": 0.0, "oneway": null, "highway": "service", "pmap:link": null, "layer": null, "service": "alley", "ref": null, "shield_text_length": null, "network": null, "building": null, "height": null, "box_id": 1, "provider": "protomaps" }, "geometry": { "type": "LineString", "coordinates": [ [ -49.270039200782776, -25.462804581664177 ], [ -49.269953370094299, -25.46301767063591 ], [ -49.269384741783142, -25.463918455834602 ] ] } },
{ "type": "Feature", "properties": { "name": "Rua Rio Grande do Norte", "pmap:kind_detail": "residential", "pmap:min_zoom": 13.0, "pmap:kind": "minor_road", "pmap:level": 0.0, "oneway": null, "highway": "residential", "pmap:link": null, "layer": null, "service": null, "ref": null, "shield_text_length": null, "network": null, "building": null, "height": null, "box_id": 1, "provider": "protomaps" }, "geometry": { "type": "LineString", "coordinates": [ [ -49.271659255027771, -25.463424527961827 ], [ -49.27142858505249, -25.463221091313375 ] ] } },
{ "type": "Feature", "properties": { "name": "Rua Carlos Affonso Meissner Osório", "pmap:kind_detail": "service", "pmap:min_zoom": 15.0, "pmap:kind": "minor_road", "pmap:level": 0.0, "oneway": "no", "highway": "service", "pmap:link": null, "layer": null, "service": "alley", "ref": null, "shield_text_length": null, "network": null, "building": null, "height": null, "box_id": 1, "provider": "protomaps" }, "geometry": { "type": "LineString", "coordinates": [ [ -49.270420074462891, -25.463424527961827 ], [ -49.271203279495239, -25.463051560773 ], [ -49.271519780158997, -25.4630321858541 ] ] } },
{ "type": "Feature", "properties": { "name": "Rua Rio Vila Guaíra", "pmap:kind_detail": "residential", "pmap:min_zoom": 13.0, "pmap:kind": "minor_road", "pmap:level": 0.0, "oneway": "no", "highway": "residential", "pmap:link": null, "layer": null, "service": null, "ref": null, "shield_text_length": null, "network": null, "building": null, "height": null, "box_id": 1, "provider": "protomaps" }, "geometry": { "type": "LineString", "coordinates": [ [ -49.270983338356018, -25.463424527961827 ], [ -49.271969515339798, -25.462971055326445 ] ] } },
{ "type": "Feature", "properties": { "name": "Rua Professor Rubens Elke Braga", "pmap:kind_detail": "residential", "pmap:min_zoom": 13.0, "pmap:kind": "minor_road", "pmap:level": 0.0, "oneway": "no", "highway": "residential", "pmap:link": null, "layer": null, "service": null, "ref": null, "shield_text_length": null, "network": null, "building": null, "height": null, "box_id": 1, "provider": "protomaps" }, "geometry": { "type": "LineString", "coordinates": [ [ -49.270618557929993, -25.463327618231158 ], [ -49.270371794700623, -25.46317748736471 ], [ -49.269406199455261, -25.462804581664177 ] ] } },
{ "type": "Feature", "properties": { "name": "Rua Augusto de Mari", "pmap:kind_detail": "residential", "pmap:min_zoom": 13.0, "pmap:kind": "minor_road", "pmap:level": 0.0, "oneway": null, "highway": "residential", "pmap:link": null, "layer": null, "service": null, "ref": null, "shield_text_length": null, "network": null, "building": null, "height": null, "box_id": 1, "provider": "protomaps" }, "geometry": { "type": "LineString", "coordinates": [ [ -49.271979219706402, -25.462291735129511 ], [ -49.271911382675171, -25.462228126719747 ] ] } },
{ "type": "Feature", "properties": { "name": "Rua Gastão Poplade", "pmap:kind_detail": "service", "pmap:min_zoom": 15.0, "pmap:kind": "minor_road", "pmap:level": 0.0, "oneway": null, "highway": "service", "pmap:link": null, "layer": null, "service": "alley", "ref": null, "shield_text_length": null, "network": null, "building": null, "height": null, "box_id": 1, "provider": "protomaps" }, "geometry": { "type": "LineString", "coordinates": [ [ -49.270344972610474, -25.462077971098271 ], [ -49.269953370094299, -25.463017654664924 ], [ -49.26969587802887, -25.463424527961827 ] ] } },
{ "type": "Feature", "properties": { "name": "Rua Ermindo L Matkoski", "pmap:kind_detail": "service", "pmap:min_zoom": 15.0, "pmap:kind": "minor_road", "pmap:level": 0.0, "oneway": null, "highway": "service", "pmap:link": null, "layer": null, "service": "alley", "ref": null, "shield_text_length": null, "network": null, "building": null, "height": null, "box_id": 1, "provider": "protomaps" }, "geometry": { "type": "LineString", "coordinates": [ [ -49.266842007637024, -25.462455782016821 ], [ -49.266600608825684, -25.462901405151523 ] ] } },
{ "type": "Feature", "properties": { "name": "Rua Miguel Matkoski", "pmap:kind_detail": "service", "pmap:min_zoom": 15.0, "pmap:kind": "minor_road", "pmap:level": 0.0, "oneway": null, "highway": "service", "pmap:link": null, "layer": null, "service": "alley", "ref": null, "shield_text_length": null, "network": null, "building": null, "height": null, "box_id": 1, "provider": "protomaps" }, "geometry": { "type": "LineString", "coordinates": [ [ -49.265629649162292, -25.462499375584347 ], [ -49.265479445457458, -25.4627803119084 ] ] } },
{ "type": "Feature", "properties": { "name": "Acesso Léo Vaz", "pmap:kind_detail": "service", "pmap:min_zoom": 15.0, "pmap:kind": "minor_road", "pmap:level": 0.0, "oneway": null, "highway": "service", "pmap:link": null, "layer": null, "service": "alley", "ref": null, "shield_text_length": null, "network": null, "building": null, "height": null, "box_id": 1, "provider": "protomaps" }, "geometry": { "type": "LineString", "coordinates": [ [ -49.267297983169556, -25.462528437962696 ], [ -49.267759323120117, -25.462697968503072 ] ] } },
{ "type": "Feature", "properties": { "name": "Rua Pedro de Matos", "pmap:kind_detail": "service", "pmap:min_zoom": 15.0, "pmap:kind": "minor_road", "pmap:level": 0.0, "oneway": null, "highway": "service", "pmap:link": null, "layer": null, "service": "alley", "ref": null, "shield_text_length": null, "network": null, "building": null, "height": null, "box_id": 1, "provider": "protomaps" }, "geometry": { "type": "LineString", "coordinates": [ [ -49.265264868736267, -25.462349219962871 ], [ -49.265120029449463, -25.462635000016647 ] ] } },
{ "type": "Feature", "properties": { "name": "Travessa Sebastião Prosdócimo", "pmap:kind_detail": "service", "pmap:min_zoom": 15.0, "pmap:kind": "minor_road", "pmap:level": 0.0, "oneway": null, "highway": "service", "pmap:link": null, "layer": null, "service": "alley", "ref": null, "shield_text_length": null, "network": null, "building": null, "height": null, "box_id": 1, "provider": "protomaps" }, "geometry": { "type": "LineString", "coordinates": [ [ -49.267378449440002, -25.462383126070947 ], [ -49.266970753669739, -25.462218439260297 ] ] } },
{ "type": "Feature", "properties": { "name": "Rua Chanceler Lauro Müller", "pmap:kind_detail": "residential", "pmap:min_zoom": 13.0, "pmap:kind": "minor_road", "pmap:level": 0.0, "oneway": "no", "highway": "residential", "pmap:link": null, "layer": null, "service": null, "ref": null, "shield_text_length": null, "network": null, "building": null, "height": null, "box_id": 1, "provider": "protomaps" }, "geometry": { "type": "LineString", "coordinates": [ [ -49.262351989746094, -25.461167349909967 ], [ -49.263907670974731, -25.461787347314768 ], [ -49.265629649162292, -25.462499375584347 ], [ -49.266149997711182, -25.462693124773349 ], [ -49.266600608825684, -25.462901405151523 ], [ -49.267024397850037, -25.463061248232449 ], [ -49.267791509628296, -25.463424527961827 ] ] } },
{ "type": "Feature", "properties": { "name": "Acesso João S da Silva", "pmap:kind_detail": "service", "pmap:min_zoom": 15.0, "pmap:kind": "minor_road", "pmap:level": 0.0, "oneway": null, "highway": "service", "pmap:link": null, "layer": null, "service": "alley", "ref": null, "shield_text_length": null, "network": null, "building": null, "height": null, "box_id": 1, "provider": "protomaps" }, "geometry": { "type": "LineString", "coordinates": [ [ -49.26817774772644, -25.461898753098446 ], [ -49.268022179603577, -25.462257189098096 ] ] } },
{ "type": "Feature", "properties": { "name": "Rua Professor Rubens Elke Braga", "pmap:kind_detail": "residential", "pmap:min_zoom": 13.0, "pmap:kind": "minor_road", "pmap:level": 0.0, "oneway": "no", "highway": "residential", "pmap:link": null, "layer": null, "service": null, "ref": null, "shield_text_length": null, "network": null, "building": null, "height": null, "box_id": 1, "provider": "protomaps" }, "geometry": { "type": "MultiLineString", "coordinates": [ [ [ -49.262351989746094, -25.460004854775963 ], [ -49.263097643852234, -25.460285791100013 ], [ -49.264374375343323, -25.460808913910316 ] ], [ [ -49.270618557929993, -25.463327653367326 ], [ -49.270371794700623, -25.46317749774585 ], [ -49.268574714660645, -25.462480000665447 ], [ -49.267539381980896, -25.462053752449645 ], [ -49.265323877334595, -25.461186724828867 ], [ -49.264621138572693, -25.460900944775091 ] ] ] } },
{ "type": "Feature", "properties": { "name": "Acesso Waldemiro Túlio", "pmap:kind_detail": "service", "pmap:min_zoom": 15.0, "pmap:kind": "minor_road", "pmap:level": 0.0, "oneway": null, "highway": "service", "pmap:link": null, "layer": null, "service": "alley", "ref": null, "shield_text_length": null, "network": null, "building": null, "height": null, "box_id": 1, "provider": "protomaps" }, "geometry": { "type": "LineString", "coordinates": [ [ -49.268601536750793, -25.461390161477318 ], [ -49.268403053283691, -25.461821253422844 ] ] } },
{ "type": "Feature", "properties": { "name": "Rua Lamenha Lins", "pmap:kind_detail": "residential", "pmap:min_zoom": 13.0, "pmap:kind": "minor_road", "pmap:level": 0.0, "oneway": "no", "highway": "residential", "pmap:link": null, "layer": null, "service": null, "ref": null, "shield_text_length": null, "network": null, "building": null, "height": null, "box_id": 1, "provider": "protomaps" }, "geometry": { "type": "LineString", "coordinates": [ [ -49.266514778137207, -25.458721266398832 ], [ -49.264240264892578, -25.463424527961827 ] ] } },
{ "type": "Feature", "properties": { "name": "Rua Montese", "pmap:kind_detail": "residential", "pmap:min_zoom": 13.0, "pmap:kind": "minor_road", "pmap:level": 0.0, "oneway": "no", "highway": "residential", "pmap:link": null, "layer": null, "service": null, "ref": null, "shield_text_length": null, "network": null, "building": null, "height": null, "box_id": 1, "provider": "protomaps" }, "geometry": { "type": "LineString", "coordinates": [ [ -49.268129467964172, -25.463424527961827 ], [ -49.268295764923096, -25.463085466881076 ], [ -49.269009232521057, -25.461554848287967 ], [ -49.269379377365112, -25.460799226450867 ], [ -49.269717335700989, -25.46002907342459 ], [ -49.270141124725342, -25.459215326830787 ], [ -49.270575642585754, -25.458304705642483 ] ] } },
{ "type": "Feature", "properties": { "name": "Rua Brigadeiro Franco", "pmap:kind_detail": "secondary", "pmap:min_zoom": 10.0, "pmap:kind": "medium_road", "pmap:level": 0.0, "oneway": "no", "highway": "secondary", "pmap:link": null, "layer": null, "service": null, "ref": null, "shield_text_length": null, "network": null, "building": null, "height": null, "box_id": 1, "provider": "protomaps" }, "geometry": { "type": "LineString", "coordinates": [ [ -49.265769124031067, -25.463424527961827 ], [ -49.268252849578857, -25.458634079263781 ], [ -49.268660545349121, -25.457878457426681 ] ] } },
{ "type": "Feature", "properties": { "name": "Rua Padre Isaias de Andrade", "pmap:kind_detail": "residential", "pmap:min_zoom": 13.0, "pmap:kind": "minor_road", "pmap:level": 0.0, "oneway": "no", "highway": "residential", "pmap:link": null, "layer": null, "service": null, "ref": null, "shield_text_length": null, "network": null, "building": null, "height": null, "box_id": 1, "provider": "protomaps" }, "geometry": { "type": "LineString", "coordinates": [ [ -49.266842007637024, -25.463424527961827 ], [ -49.267539381980896, -25.462053752449645 ], [ -49.267963171005249, -25.461128600072168 ], [ -49.269266724586487, -25.458430642615333 ], [ -49.26969587802887, -25.457515177697303 ] ] } },
{ "type": "Feature", "properties": { "name": "Rua João Parolin", "pmap:kind_detail": "tertiary", "pmap:min_zoom": 10.0, "pmap:kind": "medium_road", "pmap:level": 0.0, "oneway": "no", "highway": "tertiary", "pmap:link": null, "layer": null, "service": null, "ref": null, "shield_text_length": null, "network": null, "building": null, "height": null, "box_id": 1, "provider": "protomaps" }, "geometry": { "type": "LineString", "coordinates": [ [ -49.262351989746094, -25.458837515912233 ], [ -49.265790581703186, -25.460222822613588 ], [ -49.267142415046692, -25.460779851531967 ] ] } },
{ "type": "Feature", "properties": { "name": "Rua Gino Parolin", "pmap:kind_detail": "residential", "pmap:min_zoom": 13.0, "pmap:kind": "minor_road", "pmap:level": 0.0, "oneway": "no", "highway": "residential", "pmap:link": null, "layer": null, "service": null, "ref": null, "shield_text_length": null, "network": null, "building": null, "height": null, "box_id": 1, "provider": "protomaps" }, "geometry": { "type": "LineString", "coordinates": [ [ -49.266160726547241, -25.459452669587311 ], [ -49.267534017562866, -25.46001938596514 ] ] } },
{ "type": "Feature", "properties": { "name": "Rua Acácio Correia", "pmap:kind_detail": "residential", "pmap:min_zoom": 13.0, "pmap:kind": "minor_road", "pmap:level": 0.0, "oneway": "no", "highway": "residential", "pmap:link": null, "layer": null, "service": null, "ref": null, "shield_text_length": null, "network": null, "building": null, "height": null, "box_id": 1, "provider": "protomaps" }, "geometry": { "type": "LineString", "coordinates": [ [ -49.262351989746094, -25.457001742346453 ], [ -49.263548254966736, -25.457471584129777 ], [ -49.265554547309875, -25.458338611750555 ], [ -49.266514778137207, -25.458721266398832 ], [ -49.26793098449707, -25.459254076668586 ], [ -49.268714189529419, -25.459573762830438 ], [ -49.269717335700989, -25.46002907342459 ], [ -49.27018404006958, -25.460222822613588 ] ] } },
{ "type": "Feature", "properties": { "name": "Travessa Livorno", "pmap:kind_detail": "residential", "pmap:min_zoom": 13.0, "pmap:kind": "minor_road", "pmap:level": 0.0, "oneway": null, "highway": "residential", "pmap:link": null, "layer": null, "service": null, "ref": null, "shield_text_length": null, "network": null, "building": null, "height": null, "box_id": 1, "provider": "protomaps" }, "geometry": { "type": "LineString", "coordinates": [ [ -49.268252849578857, -25.458634079263781 ], [ -49.266820549964905, -25.458086737804855 ] ] } },
{ "type": "Feature", "properties": { "name": "Rua Piauí", "pmap:kind_detail": "residential", "pmap:min_zoom": 13.0, "pmap:kind": "minor_road", "pmap:level": 0.0, "oneway": "yes", "highway": "residential", "pmap:link": null, "layer": null, "service": null, "ref": null, "shield_text_length": null, "network": null, "building": null, "height": null, "box_id": 1, "provider": "protomaps" }, "geometry": { "type": "LineString", "coordinates": [ [ -49.268660545349121, -25.457878457426681 ], [ -49.269266724586487, -25.458430642615333 ] ] } },
{ "type": "Feature", "properties": { "name": "Rua Leonor Caron Alves", "pmap:kind_detail": "residential", "pmap:min_zoom": 13.0, "pmap:kind": "minor_road", "pmap:level": 0.0, "oneway": "no", "highway": "residential", "pmap:link": null, "layer": null, "service": null, "ref": null, "shield_text_length": null, "network": null, "building": null, "height": null, "box_id": 1, "provider": "protomaps" }, "geometry": { "type": "LineString", "coordinates": [ [ -49.267475008964539, -25.458338611750555 ], [ -49.267759323120117, -25.45778158283218 ], [ -49.268027544021606, -25.457311741048851 ] ] } },
{ "type": "Feature", "properties": { "name": "Rua Doutor Ernesto Schwartz", "pmap:kind_detail": "residential", "pmap:min_zoom": 13.0, "pmap:kind": "minor_road", "pmap:level": 0.0, "oneway": null, "highway": "residential", "pmap:link": null, "layer": null, "service": null, "ref": null, "shield_text_length": null, "network": null, "building": null, "height": null, "box_id": 1, "provider": "protomaps" }, "geometry": { "type": "LineString", "coordinates": [ [ -49.265876412391663, -25.457665333318779 ], [ -49.266412854194641, -25.457873613696954 ] ] } },
{ "type": "Feature", "properties": { "name": "Rua Assis Figueiredo", "pmap:kind_detail": "residential", "pmap:min_zoom": 13.0, "pmap:kind": "minor_road", "pmap:level": 0.0, "oneway": "no", "highway": "residential", "pmap:link": null, "layer": null, "service": null, "ref": null, "shield_text_length": null, "network": null, "building": null, "height": null, "box_id": 1, "provider": "protomaps" }, "geometry": { "type": "LineString", "coordinates": [ [ -49.271982286536343, -25.462077052440321 ], [ -49.271332025527954, -25.463424527961827 ] ] } },
{ "type": "Feature", "properties": { "name": "Rua João Parolin", "pmap:kind_detail": "residential", "pmap:min_zoom": 13.0, "pmap:kind": "minor_road", "pmap:level": 0.0, "oneway": "no", "highway": "residential", "pmap:link": null, "layer": null, "service": null, "ref": null, "shield_text_length": null, "network": null, "building": null, "height": null, "box_id": 1, "provider": "protomaps" }, "geometry": { "type": "LineString", "coordinates": [ [ -49.267142415046692, -25.460779851531967 ], [ -49.268601536750793, -25.461390161477318 ], [ -49.271718263626099, -25.462620468827474 ] ] } },
{ "type": "Feature", "properties": { "name": "Rua Capitão Caetano Munhoz", "pmap:kind_detail": "residential", "pmap:min_zoom": 13.0, "pmap:kind": "minor_road", "pmap:level": 0.0, "oneway": null, "highway": "residential", "pmap:link": null, "layer": null, "service": null, "ref": null, "shield_text_length": null, "network": null, "building": null, "height": null, "box_id": 1, "provider": "protomaps" }, "geometry": { "type": "LineString", "coordinates": [ [ -49.270715117454529, -25.461327192990893 ], [ -49.270108938217163, -25.461075319045193 ], [ -49.269379377365112, -25.460799226450867 ] ] } },
{ "type": "Feature", "properties": { "name": "Rua Piauí", "pmap:kind_detail": "residential", "pmap:min_zoom": 13.0, "pmap:kind": "minor_road", "pmap:level": 0.0, "oneway": "no", "highway": "residential", "pmap:link": null, "layer": null, "service": null, "ref": null, "shield_text_length": null, "network": null, "building": null, "height": null, "box_id": 1, "provider": "protomaps" }, "geometry": { "type": "LineString", "coordinates": [ [ -49.269266724586487, -25.458430642615333 ], [ -49.271999132159387, -25.460897833596391 ] ] } },
{ "type": "Feature", "properties": { "name": "Rua Gastão Poplade", "pmap:kind_detail": "residential", "pmap:min_zoom": 13.0, "pmap:kind": "minor_road", "pmap:level": 0.0, "oneway": null, "highway": "residential", "pmap:link": null, "layer": null, "service": null, "ref": null, "shield_text_length": null, "network": null, "building": null, "height": null, "box_id": 1, "provider": "protomaps" }, "geometry": { "type": "LineString", "coordinates": [ [ -49.271707534790039, -25.459326732614461 ], [ -49.271251559257507, -25.460222822613588 ], [ -49.270344972610474, -25.462077971098271 ] ] } },
{ "type": "Feature", "properties": { "name": "Rua João Antônio Xavier", "pmap:kind_detail": "residential", "pmap:min_zoom": 13.0, "pmap:kind": "minor_road", "pmap:level": 0.0, "oneway": "yes", "highway": "residential", "pmap:link": null, "layer": null, "service": null, "ref": null, "shield_text_length": null, "network": null, "building": null, "height": null, "box_id": 1, "provider": "protomaps" }, "geometry": { "type": "LineString", "coordinates": [ [ -49.271959662437439, -25.459399388560335 ], [ -49.271788001060486, -25.459404232290062 ] ] } },
{ "type": "Feature", "properties": { "name": "Rua Jacinto Antunes da Silva", "pmap:kind_detail": "residential", "pmap:min_zoom": 13.0, "pmap:kind": "minor_road", "pmap:level": 0.0, "oneway": null, "highway": "residential", "pmap:link": null, "layer": null, "service": null, "ref": null, "shield_text_length": null, "network": null, "building": null, "height": null, "box_id": 1, "provider": "protomaps" }, "geometry": { "type": "LineString", "coordinates": [ [ -49.272054833513373, -25.456998655389611 ], [ -49.27194356918335, -25.456749868400752 ] ] } },
{ "type": "Feature", "properties": { "name": "Rua Miguel Romanel", "pmap:kind_detail": "residential", "pmap:min_zoom": 13.0, "pmap:kind": "minor_road", "pmap:level": 0.0, "oneway": null, "highway": "residential", "pmap:link": null, "layer": null, "service": null, "ref": null, "shield_text_length": null, "network": null, "building": null, "height": null, "box_id": 1, "provider": "protomaps" }, "geometry": { "type": "LineString", "coordinates": [ [ -49.27203061781799, -25.458693790335911 ], [ -49.270843863487244, -25.456783774508825 ] ] } },
{ "type": "Feature", "properties": { "name": "Rua 24 de Maio", "pmap:kind_detail": "residential", "pmap:min_zoom": 13.0, "pmap:kind": "minor_road", "pmap:level": 0.0, "oneway": "yes", "highway": "residential", "pmap:link": null, "layer": null, "service": null, "ref": null, "shield_text_length": null, "network": null, "building": null, "height": null, "box_id": 1, "provider": "protomaps" }, "geometry": { "type": "LineString", "coordinates": [ [ -49.263038635253906, -25.460402040613413 ], [ -49.262032225110119, -25.462465091099261 ] ] } },
{ "type": "Feature", "properties": { "name": "Rua Alferes Poli", "pmap:kind_detail": "tertiary", "pmap:min_zoom": 10.0, "pmap:kind": "medium_road", "pmap:level": 0.0, "oneway": "yes", "highway": "tertiary", "pmap:link": null, "layer": null, "service": null, "ref": null, "shield_text_length": null, "network": null, "building": null, "height": null, "box_id": 1, "provider": "protomaps" }, "geometry": { "type": "LineString", "coordinates": [ [ -49.262059074316703, -25.460596355622492 ], [ -49.263038635253906, -25.458546892128734 ] ] } },
{ "type": "Feature", "properties": { "name": "Rua 24 de Maio", "pmap:kind_detail": "residential", "pmap:min_zoom": 13.0, "pmap:kind": "minor_road", "pmap:level": 0.0, "oneway": "yes", "highway": "residential", "pmap:link": null, "layer": null, "service": null, "ref": null, "shield_text_length": null, "network": null, "building": null, "height": null, "box_id": 1, "provider": "protomaps" }, "geometry": { "type": "LineString", "coordinates": [ [ -49.263564348220825, -25.459326732614461 ], [ -49.262351989746094, -25.461811565963394 ] ] } },
{ "type": "Feature", "properties": { "name": "Rua Doutor Pâmphilo D'Assunção", "pmap:kind_detail": "residential", "pmap:min_zoom": 13.0, "pmap:kind": "minor_road", "pmap:level": 0.0, "oneway": "no", "highway": "residential", "pmap:link": null, "layer": null, "service": null, "ref": null, "shield_text_length": null, "network": null, "building": null, "height": null, "box_id": 1, "provider": "protomaps" }, "geometry": { "type": "LineString", "coordinates": [ [ -49.263038635253906, -25.456076589968973 ], [ -49.262545108795166, -25.457079242022051 ], [ -49.262095262074894, -25.458077646276539 ] ] } },
{ "type": "Feature", "properties": { "name": "Rua Acácio Correia", "pmap:kind_detail": "residential", "pmap:min_zoom": 13.0, "pmap:kind": "minor_road", "pmap:level": 0.0, "oneway": "no", "highway": "residential", "pmap:link": null, "layer": null, "service": null, "ref": null, "shield_text_length": null, "network": null, "building": null, "height": null, "box_id": 1, "provider": "protomaps" }, "geometry": { "type": "LineString", "coordinates": [ [ -49.262112058613262, -25.456908588001607 ], [ -49.263038635253906, -25.457272991211052 ] ] } },
{ "type": "Feature", "properties": { "name": "Rua João Viana Seiler", "pmap:kind_detail": "tertiary", "pmap:min_zoom": 10.0, "pmap:kind": "medium_road", "pmap:level": 0.0, "oneway": null, "highway": "tertiary", "pmap:link": null, "layer": null, "service": null, "ref": null, "shield_text_length": null, "network": null, "building": null, "height": null, "box_id": 1, "provider": "protomaps" }, "geometry": { "type": "LineString", "coordinates": [ [ -49.262351989746094, -25.455703622780145 ], [ -49.264846444129944, -25.456696587373777 ] ] } },
{ "type": "Feature", "properties": { "name": "Rua João Viana Seiler", "pmap:kind_detail": "tertiary", "pmap:min_zoom": 10.0, "pmap:kind": "medium_road", "pmap:level": 0.0, "oneway": null, "highway": "tertiary", "pmap:link": null, "layer": null, "service": null, "ref": null, "shield_text_length": null, "network": null, "building": null, "height": null, "box_id": 1, "provider": "protomaps" }, "geometry": { "type": "LineString", "coordinates": [ [ -49.262212514877319, -25.45565034175317 ], [ -49.263038635253906, -25.455979715374472 ] ] } },
{ "type": "Feature", "properties": { "name": "Rua Doutor Pâmphilo D'Assunção", "pmap:kind_detail": "residential", "pmap:min_zoom": 13.0, "pmap:kind": "minor_road", "pmap:level": 0.0, "oneway": "no", "highway": "residential", "pmap:link": null, "layer": null, "service": null, "ref": null, "shield_text_length": null, "network": null, "building": null, "height": null, "box_id": 1, "provider": "protomaps" }, "geometry": { "type": "LineString", "coordinates": [ [ -49.263264739445795, -25.45560786315794 ], [ -49.262545108795166, -25.457079242022051 ], [ -49.262351989746094, -25.45751033396758 ] ] } },
{ "type": "Feature", "properties": { "name": "Rua Padre Isaias de Andrade", "pmap:kind_detail": "crossing", "pmap:min_zoom": 15.0, "pmap:kind": "path", "pmap:level": 0.0, "oneway": "no", "highway": "crossing", "pmap:link": null, "layer": null, "service": null, "ref": null, "shield_text_length": null, "network": null, "building": null, "height": null, "box_id": 1, "provider": "protomaps" }, "geometry": { "type": "LineString", "coordinates": [ [ -49.26969587802887, -25.457515177697303 ], [ -49.269738793373108, -25.45739408445418 ] ] } },
{ "type": "Feature", "properties": { "name": "Rua João Thiele", "pmap:kind_detail": "residential", "pmap:min_zoom": 13.0, "pmap:kind": "minor_road", "pmap:level": 0.0, "oneway": null, "highway": "residential", "pmap:link": null, "layer": null, "service": null, "ref": null, "shield_text_length": null, "network": null, "building": null, "height": null, "box_id": 1, "provider": "protomaps" }, "geometry": { "type": "LineString", "coordinates": [ [ -49.271133542060852, -25.457253616292153 ], [ -49.272051376276728, -25.457240667133309 ] ] } },
{ "type": "Feature", "properties": { "name": null, "pmap:kind_detail": "service", "pmap:min_zoom": 15.0, "pmap:kind": "minor_road", "pmap:level": 0.0, "oneway": "yes", "highway": "service", "pmap:link": null, "layer": null, "service": "parking_aisle", "ref": null, "shield_text_length": null, "network": null, "building": null, "height": null, "box_id": 1, "provider": "protomaps" }, "geometry": { "type": "LineString", "coordinates": [ [ -49.26992654800415, -25.457360178346104 ], [ -49.269974827766418, -25.457306897319128 ], [ -49.269819259643555, -25.457117991859853 ], [ -49.270264506340027, -25.456909711481675 ], [ -49.270457625389099, -25.457093773211227 ], [ -49.270028471946716, -25.457340803427204 ], [ -49.270071387290955, -25.457398928183903 ], [ -49.270012378692627, -25.457442521751428 ] ] } },
{ "type": "Feature", "properties": { "name": "Rua Doutor Raul Carneiro Filho", "pmap:kind_detail": "residential", "pmap:min_zoom": 13.0, "pmap:kind": "minor_road", "pmap:level": 0.0, "oneway": null, "highway": "residential", "pmap:link": null, "layer": null, "service": null, "ref": null, "shield_text_length": null, "network": null, "building": null, "height": null, "box_id": 1, "provider": "protomaps" }, "geometry": { "type": "LineString", "coordinates": [ [ -49.270843863487244, -25.456783774508825 ], [ -49.271047711372375, -25.455819872293546 ] ] } },
{ "type": "Feature", "properties": { "name": "Rua Silveira Neto", "pmap:kind_detail": "residential", "pmap:min_zoom": 13.0, "pmap:kind": "minor_road", "pmap:level": 0.0, "oneway": "no", "highway": "residential", "pmap:link": null, "layer": null, "service": null, "ref": null, "shield_text_length": null, "network": null, "building": null, "height": null, "box_id": 1, "provider": "protomaps" }, "geometry": { "type": "LineString", "coordinates": [ [ -49.271047711372375, -25.455819872293546 ], [ -49.269717335700989, -25.456110496077049 ] ] } },
{ "type": "Feature", "properties": { "name": "Rua Jacinto Antunes da Silva", "pmap:kind_detail": "residential", "pmap:min_zoom": 13.0, "pmap:kind": "minor_road", "pmap:level": 0.0, "oneway": "yes", "highway": "residential", "pmap:link": null, "layer": null, "service": null, "ref": null, "shield_text_length": null, "network": null, "building": null, "height": null, "box_id": 1, "provider": "protomaps" }, "geometry": { "type": "LineString", "coordinates": [ [ -49.272028185116916, -25.455711321733482 ], [ -49.272066868327386, -25.456156200383525 ] ] } },
{ "type": "Feature", "properties": { "name": "Rua Doutor Raul Carneiro Filho", "pmap:kind_detail": "residential", "pmap:min_zoom": 13.0, "pmap:kind": "minor_road", "pmap:level": 0.0, "oneway": "yes", "highway": "residential", "pmap:link": null, "layer": null, "service": null, "ref": null, "shield_text_length": null, "network": null, "building": null, "height": null, "box_id": 1, "provider": "protomaps" }, "geometry": { "type": "LineString", "coordinates": [ [ -49.271047711372375, -25.455819872293546 ], [ -49.271090909459119, -25.455700256541995 ] ] } },
{ "type": "Feature", "properties": { "name": "Rua Lamenha Lins", "pmap:kind_detail": "residential", "pmap:min_zoom": 13.0, "pmap:kind": "minor_road", "pmap:level": 0.0, "oneway": "yes", "highway": "residential", "pmap:link": null, "layer": null, "service": null, "ref": null, "shield_text_length": null, "network": null, "building": null, "height": null, "box_id": 1, "provider": "protomaps" }, "geometry": { "type": "LineString", "coordinates": [ [ -49.267458915710449, -25.456793461968275 ], [ -49.266514778137207, -25.458721266398832 ] ] } },
{ "type": "Feature", "properties": { "name": "Rua Piauí", "pmap:kind_detail": "secondary", "pmap:min_zoom": 10.0, "pmap:kind": "medium_road", "pmap:level": 0.0, "oneway": "yes", "highway": "secondary", "pmap:link": null, "layer": null, "service": null, "ref": null, "shield_text_length": null, "network": null, "building": null, "height": null, "box_id": 1, "provider": "protomaps" }, "geometry": { "type": "LineString", "coordinates": [ [ -49.267458915710449, -25.456793461968275 ], [ -49.268660545349121, -25.457878457426681 ] ] } },
{ "type": "Feature", "properties": { "name": "Avenida Presidente Kennedy", "pmap:kind_detail": "primary", "pmap:min_zoom": 8.0, "pmap:kind": "major_road", "pmap:level": 0.0, "oneway": "yes", "highway": "primary", "pmap:link": null, "layer": null, "service": null, "ref": null, "shield_text_length": null, "network": null, "building": null, "height": null, "box_id": 1, "provider": "protomaps" }, "geometry": { "type": "MultiLineString", "coordinates": [ [ [ -49.267835831712027, -25.455661828083642 ], [ -49.26794707775116, -25.455761747536847 ], [ -49.268263578414917, -25.456066902509523 ], [ -49.272019788805892, -25.459451837401964 ] ], [ [ -49.272017573565996, -25.459606907512857 ], [ -49.268167018890381, -25.456134714725675 ], [ -49.267893433570862, -25.455877997050248 ], [ -49.26764030298397, -25.455659519730919 ] ] ] } },
{ "type": "Feature", "properties": { "name": "Rua João Viana Seiler", "pmap:kind_detail": "residential", "pmap:min_zoom": 13.0, "pmap:kind": "minor_road", "pmap:level": 0.0, "oneway": null, "highway": "residential", "pmap:link": null, "layer": null, "service": null, "ref": null, "shield_text_length": null, "network": null, "building": null, "height": null, "box_id": 1, "provider": "protomaps" }, "geometry": { "type": "LineString", "coordinates": [ [ -49.264846444129944, -25.456696587373777 ], [ -49.267061948776245, -25.457582989913455 ] ] } },
{ "type": "Feature", "properties": { "name": "Rua Ceará", "pmap:kind_detail": "footway", "pmap:min_zoom": 14.0, "pmap:kind": "path", "pmap:level": 0.0, "oneway": "no", "highway": "footway", "pmap:link": null, "layer": null, "service": null, "ref": null, "shield_text_length": null, "network": null, "building": null, "height": null, "box_id": 1, "provider": "protomaps" }, "geometry": { "type": "LineString", "coordinates": [ [ -49.267233610153198, -25.456817680616901 ], [ -49.267458915710449, -25.456793461968275 ] ] } },
{ "type": "Feature", "properties": { "name": "Rua João Zaniolo", "pmap:kind_detail": "residential", "pmap:min_zoom": 13.0, "pmap:kind": "minor_road", "pmap:level": 0.0, "oneway": "yes", "highway": "residential", "pmap:link": null, "layer": null, "service": null, "ref": null, "shield_text_length": null, "network": null, "building": null, "height": null, "box_id": 1, "provider": "protomaps" }, "geometry": { "type": "LineString", "coordinates": [ [ -49.268167018890381, -25.456134714725675 ], [ -49.268263578414917, -25.456066902509523 ], [ -49.269281490098578, -25.455678895087079 ] ] } },
{ "type": "Feature", "properties": { "name": "Rua Ceará", "pmap:kind_detail": "residential", "pmap:min_zoom": 13.0, "pmap:kind": "minor_road", "pmap:level": 0.0, "oneway": "no", "highway": "residential", "pmap:link": null, "layer": null, "service": null, "ref": null, "shield_text_length": null, "network": null, "building": null, "height": null, "box_id": 1, "provider": "protomaps" }, "geometry": { "type": "MultiLineString", "coordinates": [ [ [ -49.267458915710449, -25.456793461968275 ], [ -49.268751740455627, -25.456807993157451 ] ], [ [ -49.264626969515099, -25.455623945232027 ], [ -49.265136122703552, -25.456110496077049 ], [ -49.266343116760254, -25.456686899914324 ], [ -49.266632795333862, -25.456807993157451 ], [ -49.267233610153198, -25.456817680616901 ] ] ] } },
{ "type": "Feature", "properties": { "name": "Rua Piauí", "pmap:kind_detail": "residential", "pmap:min_zoom": 13.0, "pmap:kind": "minor_road", "pmap:level": 0.0, "oneway": null, "highway": "residential", "pmap:link": null, "layer": null, "service": null, "ref": null, "shield_text_length": null, "network": null, "building": null, "height": null, "box_id": 1, "provider": "protomaps" }, "geometry": { "type": "LineString", "coordinates": [ [ -49.2661840372919, -25.455642327500858 ], [ -49.267458915710449, -25.456793461968275 ] ] } },
{ "type": "Feature", "properties": { "name": "Rua Nunes Machado", "pmap:kind_detail": "residential", "pmap:min_zoom": 13.0, "pmap:kind": "minor_road", "pmap:level": 0.0, "oneway": "no", "highway": "residential", "pmap:link": null, "layer": null, "service": null, "ref": null, "shield_text_length": null, "network": null, "building": null, "height": null, "box_id": 1, "provider": "protomaps" }, "geometry": { "type": "LineString", "coordinates": [ [ -49.266835433272725, -25.455650017683784 ], [ -49.263124465942383, -25.463424527961827 ] ] } },
{ "type": "Feature", "properties": { "name": "Rua Alferes Poli", "pmap:kind_detail": "tertiary", "pmap:min_zoom": 10.0, "pmap:kind": "medium_road", "pmap:level": 0.0, "oneway": "yes", "highway": "tertiary", "pmap:link": null, "layer": null, "service": null, "ref": null, "shield_text_length": null, "network": null, "building": null, "height": null, "box_id": 1, "provider": "protomaps" }, "geometry": { "type": "LineString", "coordinates": [ [ -49.262351989746094, -25.460004854775963 ], [ -49.264432442297725, -25.455621648702834 ] ] } },
{ "type": "Feature", "properties": { "name": "Rua 24 de Maio", "pmap:kind_detail": "tertiary", "pmap:min_zoom": 10.0, "pmap:kind": "medium_road", "pmap:level": 0.0, "oneway": "yes", "highway": "tertiary", "pmap:link": null, "layer": null, "service": null, "ref": null, "shield_text_length": null, "network": null, "building": null, "height": null, "box_id": 1, "provider": "protomaps" }, "geometry": { "type": "LineString", "coordinates": [ [ -49.265373717467874, -25.45563276111135 ], [ -49.263564348220825, -25.459326732614461 ] ] } },
{ "type": "Feature", "properties": { "name": "Rua Francisco Parolin", "pmap:kind_detail": "residential", "pmap:min_zoom": 13.0, "pmap:kind": "minor_road", "pmap:level": 0.0, "oneway": "no", "highway": "residential", "pmap:link": null, "layer": null, "service": null, "ref": null, "shield_text_length": null, "network": null, "building": null, "height": null, "box_id": 1, "provider": "protomaps" }, "geometry": { "type": "LineString", "coordinates": [ [ -49.262003060240772, -25.464494999351775 ], [ -49.262325648597916, -25.464624666233146 ] ] } },
{ "type": "Feature", "properties": { "name": "Rua Eugênio Parolin", "pmap:kind_detail": "residential", "pmap:min_zoom": 13.0, "pmap:kind": "minor_road", "pmap:level": 0.0, "oneway": "no", "highway": "residential", "pmap:link": null, "layer": null, "service": null, "ref": null, "shield_text_length": null, "network": null, "building": null, "height": null, "box_id": 1, "provider": "protomaps" }, "geometry": { "type": "LineString", "coordinates": [ [ -49.26203620294212, -25.462188229444127 ], [ -49.263038635253906, -25.462586562719398 ] ] } },
{ "type": "Feature", "properties": { "name": "Rua Chanceler Lauro Müller", "pmap:kind_detail": "residential", "pmap:min_zoom": 13.0, "pmap:kind": "minor_road", "pmap:level": 0.0, "oneway": "no", "highway": "residential", "pmap:link": null, "layer": null, "service": null, "ref": null, "shield_text_length": null, "network": null, "building": null, "height": null, "box_id": 1, "provider": "protomaps" }, "geometry": { "type": "LineString", "coordinates": [ [ -49.262052514968659, -25.461052893746057 ], [ -49.263038635253906, -25.461438598774567 ] ] } },
{ "type": "Feature", "properties": { "name": "Rua Professor Rubens Elke Braga", "pmap:kind_detail": "residential", "pmap:min_zoom": 13.0, "pmap:kind": "minor_road", "pmap:level": 0.0, "oneway": "no", "highway": "residential", "pmap:link": null, "layer": null, "service": null, "ref": null, "shield_text_length": null, "network": null, "building": null, "height": null, "box_id": 1, "provider": "protomaps" }, "geometry": { "type": "LineString", "coordinates": [ [ -49.262069285607552, -25.459885638104417 ], [ -49.262351989746094, -25.460004854775963 ], [ -49.263038635253906, -25.46026157245139 ] ] } },
{ "type": "Feature", "properties": { "name": "Rua Desembargador Westphalen", "pmap:kind_detail": "tertiary", "pmap:min_zoom": 10.0, "pmap:kind": "medium_road", "pmap:level": 0.0, "oneway": "yes", "highway": "tertiary", "pmap:link": null, "layer": null, "service": null, "ref": null, "shield_text_length": null, "network": null, "building": null, "height": null, "box_id": 1, "provider": "protomaps" }, "geometry": { "type": "LineString", "coordinates": [ [ -49.262232770287795, -25.455595680043778 ], [ -49.26212771283614, -25.455819036191144 ] ] } },
{ "type": "Feature", "properties": { "name": "Rua João Parolin", "pmap:kind_detail": "tertiary", "pmap:min_zoom": 10.0, "pmap:kind": "medium_road", "pmap:level": 0.0, "oneway": "no", "highway": "tertiary", "pmap:link": null, "layer": null, "service": null, "ref": null, "shield_text_length": null, "network": null, "building": null, "height": null, "box_id": 1, "provider": "protomaps" }, "geometry": { "type": "LineString", "coordinates": [ [ -49.262085810000045, -25.458735521493185 ], [ -49.263038635253906, -25.459113608506559 ] ] } },
{ "type": "Feature", "properties": { "name": "Rua João Viana Seiler", "pmap:kind_detail": "tertiary", "pmap:min_zoom": 10.0, "pmap:kind": "medium_road", "pmap:level": 0.0, "oneway": "yes", "highway": "tertiary", "pmap:link": null, "layer": null, "service": null, "ref": null, "shield_text_length": null, "network": null, "building": null, "height": null, "box_id": 1, "provider": "protomaps" }, "geometry": { "type": "LineString", "coordinates": [ [ -49.262130603999985, -25.455617807881733 ], [ -49.262212514877319, -25.45565034175317 ] ] } },
{ "type": "Feature", "properties": { "name": null, "pmap:kind_detail": "crossing", "pmap:min_zoom": 15.0, "pmap:kind": "path", "pmap:level": 0.0, "oneway": null, "highway": "crossing", "pmap:link": null, "layer": null, "service": null, "ref": null, "shield_text_length": null, "network": null, "building": null, "height": null, "box_id": 1, "provider": "protomaps" }, "geometry": { "type": "MultiLineString", "coordinates": [ [ [ -49.262373447418213, -25.460116260559637 ], [ -49.262244701385498, -25.460072666992112 ] ], [ [ -49.26270604133606, -25.461181881099144 ], [ -49.262604117393494, -25.461133443801891 ] ], [ [ -49.262486100196838, -25.461269068234191 ], [ -49.262539744377136, -25.461157662450518 ] ], [ [ -49.262507557868958, -25.461346567909793 ], [ -49.262604117393494, -25.461390161477318 ] ], [ [ -49.262748956680298, -25.461259380774742 ], [ -49.2626953125, -25.461361099098969 ] ], [ [ -49.262228608131409, -25.462155470773872 ], [ -49.262121319770813, -25.46211672093607 ] ] ] } },
{ "type": "Feature", "properties": { "name": null, "pmap:kind_detail": "sidewalk", "pmap:min_zoom": 15.0, "pmap:kind": "path", "pmap:level": 0.0, "oneway": null, "highway": "sidewalk", "pmap:link": null, "layer": null, "service": null, "ref": null, "shield_text_length": null, "network": null, "building": null, "height": null, "box_id": 1, "provider": "protomaps" }, "geometry": { "type": "MultiLineString", "coordinates": [ [ [ -49.262250065803528, -25.460043604613762 ], [ -49.262228608131409, -25.460009698505687 ], [ -49.262068477378747, -25.45994189175336 ] ], [ [ -49.262061278009895, -25.460442976056679 ], [ -49.262250065803528, -25.460043604613762 ] ], [ [ -49.263038635253906, -25.460537665045717 ], [ -49.26270067691803, -25.461206099747766 ], [ -49.26270067691803, -25.461230318396392 ], [ -49.262727499008179, -25.461254537045019 ], [ -49.263038635253906, -25.461380474017869 ] ], [ [ -49.263011813163757, -25.460324540937815 ], [ -49.262990355491638, -25.460285791100013 ], [ -49.26244854927063, -25.460077510721838 ], [ -49.262400269508362, -25.460082354451565 ], [ -49.262373447418213, -25.460116260559637 ], [ -49.262056533434205, -25.460773203949682 ] ], [ [ -49.262053720927362, -25.460968957641612 ], [ -49.262539744377136, -25.461157662450518 ], [ -49.262577295303345, -25.461162506180241 ], [ -49.262604117393494, -25.461138287531618 ], [ -49.263011813163757, -25.460324540937815 ] ], [ [ -49.263038635253906, -25.461496723531269 ], [ -49.262679219245911, -25.461351411639519 ], [ -49.262625575065613, -25.461361099098969 ], [ -49.262223243713379, -25.462165158233322 ], [ -49.262228608131409, -25.462199064341398 ], [ -49.262244701385498, -25.462213595530571 ], [ -49.263038635253906, -25.462528437962696 ] ], [ [ -49.262518286705017, -25.461312661801717 ], [ -49.262512922286987, -25.461288443153094 ], [ -49.262486100196838, -25.461269068234191 ], [ -49.262051790574823, -25.461103312385251 ] ], [ [ -49.262037125871998, -25.462123992469042 ], [ -49.262067675590515, -25.462136095854969 ], [ -49.262115955352783, -25.46212640839552 ], [ -49.262518286705017, -25.461312661801717 ] ] ] } }
]
}
