{
"type": "FeatureCollection",
"name": "curitiba_1km_sidewalk_random_boxes",
"crs": { "type": "name", "properties": { "name": "urn:ogc:def:crs:OGC:1.3:CRS84" } },
"features": [
{ "type": "Feature", "properties": { "box_id": 1 }, "geometry": { "type": "Polygon", "coordinates": [ [ [ -49.241302197830606, -25.429638585993843 ], [ -49.241433222643558, -25.420612285611451 ], [ -49.25137251855579, -25.420730910913871 ], [ -49.251242233363271, -25.429757259308026 ], [ -49.241302197830606, -25.429638585993843 ] ] ] } }
]
}
