{
"type": "FeatureCollection",
"name": "curitiba_1km_protomaps_sidewalk_sidewalks",
"crs": { "type": "name", "properties": { "name": "urn:ogc:def:crs:OGC:1.3:CRS84" } },
"features": [
{ "type": "Feature", "properties": { "box_id": 1, "provider": "protomaps" }, "geometry": { "type": "LineString", "coordinates": [ [ -49.313318081251943, -25.420371442801738 ], [ -49.313310242630322, -25.420363227538751 ], [ -49.313300378393699, -25.420357697450008 ], [ -49.313288463413535, -25.420356657864779 ], [ -49.313277492138887, -25.420359240348148 ], [ -49.313266458042442, -25.420366336154881 ], [ -49.313259374664604, -25.420375282931538 ], [ -49.313257210839389, -25.420387897418671 ], [ -49.313260054518437, -25.42039786096273 ], [ -49.31326689917617, -25.420406064818057 ], [ -49.313284602037086, -25.420419810173904 ], [ -49.313299486346949, -25.420421786654693 ], [ -49.313310457626983, -25.420419204169974 ], [ -49.313321504289945, -25.420411205695235 ], [ -49.31332664999622, -25.420398625436388 ], [ -49.31332580680003, -25.420387782048152 ], [ -49.313318081251943, -25.420371442801738 ] ] } },
{ "type": "Feature", "properties": { "box_id": 1, "provider": "protomaps" }, "geometry": { "type": "LineString", "coordinates": [ [ -49.316384498625339, -25.413247324384287 ], [ -49.316373540592679, -25.413249004470334 ], [ -49.316362532410935, -25.413254295224174 ], [ -49.316355449700808, -25.413263242191285 ], [ -49.316353361591688, -25.413270440755728 ], [ -49.316354205049791, -25.413281284147917 ], [ -49.3163570864684, -25.413288539644256 ], [ -49.316364924878613, -25.413296754739406 ], [ -49.316372825975677, -25.413300456498394 ], [ -49.316422446042857, -25.413306441806633 ], [ -49.316480092581294, -25.413307102179754 ], [ -49.316494069944582, -25.413302748240721 ], [ -49.316501102502578, -25.413297411935424 ], [ -49.316505178415071, -25.41329023613924 ], [ -49.316507316660299, -25.413279426903323 ], [ -49.316504472841181, -25.413269463407818 ], [ -49.316498634769864, -25.413260368423305 ], [ -49.316487777027298, -25.413254827180172 ], [ -49.31647985085656, -25.413252930761729 ], [ -49.316384498625339, -25.413247324384287 ] ] } },
{ "type": "Feature", "properties": { "box_id": 1, "provider": "protomaps" }, "geometry": { "type": "LineString", "coordinates": [ [ -49.317105627623413, -25.413144538107979 ], [ -49.317096594758084, -25.413150754349015 ], [ -49.317089524638241, -25.413158798687206 ], [ -49.317087386447213, -25.413169607934517 ], [ -49.317088280098176, -25.413176840655925 ], [ -49.317091161559539, -25.413184096140089 ], [ -49.317099000015617, -25.413192311198372 ], [ -49.317109882846729, -25.413196047062478 ], [ -49.317120803273149, -25.413197074923282 ], [ -49.317198691284155, -25.413171785275132 ], [ -49.317286618556466, -25.413139388043778 ], [ -49.317295651411882, -25.413133171790506 ], [ -49.31730072117734, -25.413126007349366 ], [ -49.317302809227989, -25.413118808768324 ], [ -49.317301928094494, -25.413110673379926 ], [ -49.317298090307609, -25.413100698516519 ], [ -49.317290239312698, -25.413093386135987 ], [ -49.317279369014521, -25.413088747617756 ], [ -49.317267442160897, -25.413088611056629 ], [ -49.317105627623413, -25.413144538107979 ] ] } },
{ "type": "Feature", "properties": { "box_id": 1, "provider": "protomaps" }, "geometry": { "type": "LineString", "coordinates": [ [ -49.316851763277896, -25.413314970574834 ], [ -49.316819858012053, -25.413321827653046 ], [ -49.31681185662729, -25.41332534725619 ], [ -49.316805805452624, -25.413331597627664 ], [ -49.316801691953913, -25.413341481435044 ], [ -49.316801541546013, -25.413352313443237 ], [ -49.316806385738346, -25.413361397033629 ], [ -49.31681422418491, -25.413369612106514 ], [ -49.316822137835665, -25.413372411174898 ], [ -49.316831070460971, -25.41337341629135 ], [ -49.316927517000877, -25.413371812428267 ], [ -49.316936474693414, -25.413371012203545 ], [ -49.316946488957093, -25.413365710023623 ], [ -49.316988696739919, -25.413332789384203 ], [ -49.316994785503312, -25.413323831002391 ], [ -49.316996911173568, -25.413313924424649 ], [ -49.316995073751585, -25.413303069651189 ], [ -49.316988229202195, -25.41329486596959 ], [ -49.316979359243938, -25.413289347525712 ], [ -49.316967469970592, -25.413286502936941 ], [ -49.316959493657585, -25.41328821721363 ], [ -49.316851763277896, -25.413314970574834 ] ] } },
{ "type": "Feature", "properties": { "box_id": 1, "provider": "protomaps" }, "geometry": { "type": "LineString", "coordinates": [ [ -49.316365772569796, -25.412877860237472 ], [ -49.316357771203485, -25.412881379816923 ], [ -49.31634970715124, -25.412889412731882 ], [ -49.316346625147176, -25.412896599910635 ], [ -49.316345518410543, -25.412904712529073 ], [ -49.316381581687338, -25.413027907942645 ], [ -49.31639138281696, -25.413037951142453 ], [ -49.316402253072646, -25.413042589724451 ], [ -49.316437002090971, -25.41304569623076 ], [ -49.316447972640937, -25.41304311347173 ], [ -49.316455974015902, -25.413039593887856 ], [ -49.316462025192216, -25.413033343530731 ], [ -49.316465107193565, -25.413026156349513 ], [ -49.316466251532766, -25.41301533572825 ], [ -49.316419317927803, -25.41288750175168 ], [ -49.316410523246084, -25.412876567272647 ], [ -49.316396671297817, -25.412871894534145 ], [ -49.316385738373185, -25.41287176928849 ], [ -49.316365772569796, -25.412877860237472 ] ] } },
{ "type": "Feature", "properties": { "box_id": 1, "provider": "protomaps" }, "geometry": { "type": "LineString", "coordinates": [ [ -49.316676793334942, -25.413960281937566 ], [ -49.31667893158054, -25.413949472699919 ], [ -49.316681429715899, -25.413841164017288 ], [ -49.316678598407108, -25.413830297857245 ], [ -49.316670785012775, -25.413820277442106 ], [ -49.316657951928072, -25.413813810772805 ], [ -49.316623177610623, -25.413812509641986 ], [ -49.316611225618502, -25.413814178358408 ], [ -49.316599185875752, -25.413822165744214 ], [ -49.316594116038637, -25.413829330156897 ], [ -49.316592027931648, -25.413836528724435 ], [ -49.316590360661202, -25.413956583459914 ], [ -49.31659319196423, -25.413967449621225 ], [ -49.316597079858461, -25.41397381383166 ], [ -49.316605924774464, -25.41398113763416 ], [ -49.316613838458771, -25.413983936715319 ], [ -49.316621789750549, -25.413984027794513 ], [ -49.316648675502513, -25.413980724514825 ], [ -49.31666066511707, -25.413976347794588 ], [ -49.316669698067265, -25.413970131585305 ], [ -49.316676793334942, -25.413960281937566 ] ] } },
{ "type": "Feature", "properties": { "box_id": 1, "provider": "protomaps" }, "geometry": { "type": "LineString", "coordinates": [ [ -49.316614337542902, -25.412659518913465 ], [ -49.316646292779929, -25.412649051201559 ], [ -49.316654294123076, -25.412645531605094 ], [ -49.316663389643246, -25.412634802053212 ], [ -49.316666509225087, -25.412624906864156 ], [ -49.31666565320527, -25.412614966139017 ], [ -49.316661777881123, -25.412607699263937 ], [ -49.316634424998234, -25.412573079148654 ], [ -49.316625567643072, -25.412566658019038 ], [ -49.316614672349495, -25.412563824789743 ], [ -49.316603726916391, -25.412564602229065 ], [ -49.316503810433836, -25.412601375781946 ] ] } },
{ "type": "Feature", "properties": { "box_id": 1, "provider": "protomaps" }, "geometry": { "type": "LineString", "coordinates": [ [ -49.31606005589498, -25.413202980731764 ], [ -49.316048129037611, -25.413202844071133 ], [ -49.316038127291897, -25.413207243521597 ], [ -49.316030063196536, -25.413215276416487 ], [ -49.316025949640427, -25.413225160199268 ], [ -49.316026793069049, -25.413236003591891 ], [ -49.316031637197618, -25.413245087204771 ], [ -49.31603752539057, -25.413250571538018 ], [ -49.316047401744463, -25.413255198757902 ], [ -49.316255708096513, -25.413287378199318 ], [ -49.316291438546614, -25.413291398797519 ], [ -49.3163023965839, -25.413289718717859 ], [ -49.316310410516948, -25.413285296475944 ], [ -49.316316449175879, -25.413279948793161 ], [ -49.316321556616401, -25.4132700763878 ], [ -49.316321694529108, -25.413260147049311 ], [ -49.316317856820525, -25.413250172164357 ], [ -49.316310018416473, -25.413241957066969 ], [ -49.31630012951485, -25.413238232531405 ], [ -49.31606005589498, -25.413202980731764 ] ] } },
{ "type": "Feature", "properties": { "box_id": 1, "provider": "protomaps" }, "geometry": { "type": "LineString", "coordinates": [ [ -49.315991881814789, -25.413817013615159 ], [ -49.31599100076761, -25.413808878223861 ], [ -49.315985162712607, -25.41379978322022 ], [ -49.315979274497003, -25.413794298884024 ], [ -49.315968404193782, -25.413789660268566 ], [ -49.31591175135064, -25.413789011072719 ], [ -49.315900780723204, -25.413791593787426 ], [ -49.315891747750364, -25.413797809948246 ], [ -49.315886652791903, -25.413806779668189 ], [ -49.315884514479649, -25.413817588891028 ], [ -49.315901100592725, -25.41391167126033 ] ] } },
{ "type": "Feature", "properties": { "box_id": 1, "provider": "protomaps" }, "geometry": { "type": "LineString", "coordinates": [ [ -49.315901100592725, -25.41391167126033 ], [ -49.315916793143451, -25.413998520903405 ], [ -49.315934194453547, -25.414033929923626 ], [ -49.315942045419575, -25.414041242374669 ], [ -49.315949946549459, -25.414044944157858 ], [ -49.315961860948413, -25.414045983497541 ], [ -49.315972844138756, -25.414042498112586 ], [ -49.31598187712676, -25.414036281947688 ], [ -49.315986972089071, -25.414027312224849 ], [ -49.315988078864443, -25.414019199612046 ], [ -49.315990176330487, -25.413939776314535 ] ] } },
{ "type": "Feature", "properties": { "box_id": 1, "provider": "protomaps" }, "geometry": { "type": "LineString", "coordinates": [ [ -49.315990176330487, -25.413939776314535 ], [ -49.315991881814789, -25.413817013615159 ] ] } },
{ "type": "Feature", "properties": { "box_id": 1, "provider": "protomaps" }, "geometry": { "type": "LineString", "coordinates": [ [ -49.316730503055616, -25.413242259691593 ], [ -49.31653847874081, -25.413254505163419 ], [ -49.316528464470487, -25.413259807315168 ], [ -49.316520400402247, -25.413267840238394 ], [ -49.316517280788872, -25.413277735422074 ], [ -49.316518124261712, -25.413288578814058 ], [ -49.316522968429972, -25.413297662412656 ], [ -49.31652985055463, -25.413303158112655 ], [ -49.316537751657691, -25.413306859863049 ], [ -49.316545690368876, -25.413307853611343 ], [ -49.31661625768875, -25.413308661936913 ], [ -49.316731701195145, -25.413299150500794 ], [ -49.316840312684398, -25.413280532617698 ], [ -49.316906148600069, -25.413264133207083 ], [ -49.31691416251136, -25.413259710931015 ], [ -49.316920213676894, -25.413253460554547 ], [ -49.316923295658064, -25.413246273362827 ], [ -49.316925383733327, -25.413239074788503 ], [ -49.316922552413097, -25.413228208631921 ], [ -49.316915720405817, -25.413219102279907 ], [ -49.316906850456455, -25.413213583832043 ], [ -49.316894948659296, -25.413211641905246 ], [ -49.316730503055616, -25.413242259691593 ] ] } },
{ "type": "Feature", "properties": { "box_id": 1, "provider": "protomaps" }, "geometry": { "type": "LineString", "coordinates": [ [ -49.316275058359949, -25.413826577894451 ], [ -49.316273220998255, -25.413815723115587 ], [ -49.316268351754474, -25.413808444843351 ], [ -49.316259494333821, -25.41380202368909 ], [ -49.31625159320884, -25.413798321922759 ], [ -49.316236684562476, -25.413798151112523 ], [ -49.316227714297682, -25.413799853959713 ], [ -49.316218693878319, -25.413805167474429 ], [ -49.316211611123279, -25.413814114431784 ], [ -49.316209510455558, -25.41382221565976 ], [ -49.316191075049616, -25.414004372190711 ] ] } },
{ "type": "Feature", "properties": { "box_id": 1, "provider": "protomaps" }, "geometry": { "type": "LineString", "coordinates": [ [ -49.316191075049616, -25.414004372190711 ], [ -49.316181807163453, -25.41409906112052 ], [ -49.316183682136675, -25.414107207899022 ], [ -49.316188563925074, -25.414113583507167 ], [ -49.316194452165298, -25.414119067836015 ], [ -49.316203347221055, -25.414122780994013 ], [ -49.316230157778627, -25.414124893795048 ], [ -49.316239102990508, -25.41412499628299 ], [ -49.316251105170913, -25.414119716930749 ], [ -49.316259169316275, -25.414111684026988 ], [ -49.316262326591371, -25.414099080851024 ], [ -49.316266298860455, -25.414027804319076 ] ] } },
{ "type": "Feature", "properties": { "box_id": 1, "provider": "protomaps" }, "geometry": { "type": "LineString", "coordinates": [ [ -49.316266298860455, -25.414027804319076 ], [ -49.316275058359949, -25.413826577894451 ] ] } },
{ "type": "Feature", "properties": { "box_id": 1, "provider": "protomaps" }, "geometry": { "type": "LineString", "coordinates": [ [ -49.317028642861438, -25.412889966638552 ], [ -49.317033524650952, -25.412896342219387 ], [ -49.317040406778581, -25.412901837895767 ], [ -49.317055277725352, -25.412904716621455 ], [ -49.317066235720269, -25.412903036482405 ], [ -49.317099235018709, -25.412888969384834 ], [ -49.317108330520789, -25.412878239804684 ], [ -49.317110493766059, -25.41286562522119 ], [ -49.317108606212415, -25.412858381118561 ], [ -49.317095998767996, -25.412835666474841 ] ] } },
{ "type": "Feature", "properties": { "box_id": 1, "provider": "protomaps" }, "geometry": { "type": "LineString", "coordinates": [ [ -49.317095998767996, -25.412835666474841 ], [ -49.316979525205888, -25.41263300582991 ], [ -49.316973636996252, -25.412627521533331 ], [ -49.316966742354296, -25.412622928522087 ], [ -49.316958816215191, -25.412621032131064 ], [ -49.31694987111095, -25.412620929692554 ], [ -49.316923916904898, -25.412628757763489 ], [ -49.31691390270322, -25.412634059945436 ], [ -49.31690580110498, -25.412644800896356 ], [ -49.316904619211847, -25.412658329526199 ], [ -49.316907488118751, -25.412666487680735 ], [ -49.316975331714204, -25.412791852547613 ] ] } },
{ "type": "Feature", "properties": { "box_id": 1, "provider": "protomaps" }, "geometry": { "type": "LineString", "coordinates": [ [ -49.316975331714204, -25.412791852547613 ], [ -49.317028642861438, -25.412889966638552 ] ] } },
{ "type": "Feature", "properties": { "box_id": 1, "provider": "protomaps" }, "geometry": { "type": "LineString", "coordinates": [ [ -49.316302020390495, -25.414104049674812 ], [ -49.316302913997724, -25.414111282398089 ], [ -49.316306789342278, -25.414118549282563 ], [ -49.316311671137839, -25.414124924886959 ], [ -49.316321535034533, -25.414130454759082 ], [ -49.316333436908984, -25.414132396736235 ], [ -49.316377194136621, -25.414131092418526 ], [ -49.316385170512142, -25.414129378176902 ], [ -49.316397185224815, -25.414123196145358 ], [ -49.316404305598319, -25.414111541178425 ], [ -49.316405838617221, -25.414072737880648 ] ] } },
{ "type": "Feature", "properties": { "box_id": 1, "provider": "protomaps" }, "geometry": { "type": "LineString", "coordinates": [ [ -49.316405838617221, -25.414072737880648 ], [ -49.31640722332164, -25.41382989766042 ], [ -49.316405335799139, -25.413822653551037 ], [ -49.316401460456881, -25.41381538666905 ], [ -49.316395572220685, -25.413809902348568 ], [ -49.316387658553253, -25.41380710325641 ], [ -49.316344958040901, -25.413803905634541 ], [ -49.316336981686661, -25.413805619875113 ], [ -49.316323973093802, -25.413811790516629 ], [ -49.316315871360082, -25.413822531426689 ], [ -49.31631476460911, -25.41383064404339 ], [ -49.316304898420299, -25.4140399830899 ] ] } },
{ "type": "Feature", "properties": { "box_id": 1, "provider": "protomaps" }, "geometry": { "type": "LineString", "coordinates": [ [ -49.316304898420299, -25.4140399830899 ], [ -49.316302020390495, -25.414104049674812 ] ] } },
{ "type": "Feature", "properties": { "box_id": 1, "provider": "protomaps" }, "geometry": { "type": "LineString", "coordinates": [ [ -49.316538458706106, -25.414114883614999 ], [ -49.316543541095726, -25.414106816538148 ], [ -49.316547754935307, -25.414089711404266 ], [ -49.316549864575293, -25.414009385413706 ], [ -49.316552258986022, -25.413836975985728 ], [ -49.316550409063048, -25.413827023876255 ], [ -49.316545539801645, -25.413819745612351 ], [ -49.316537676274507, -25.413813335859388 ], [ -49.316529762603103, -25.413810536774712 ], [ -49.316478104356989, -25.413808139389367 ], [ -49.316469146630659, -25.413808939584296 ], [ -49.316457119416633, -25.413816024290881 ], [ -49.316449017693948, -25.413826765208867 ], [ -49.31644791095178, -25.413834877827025 ], [ -49.316445432119608, -25.414084928002289 ] ] } },
{ "type": "Feature", "properties": { "box_id": 1, "provider": "protomaps" }, "geometry": { "type": "LineString", "coordinates": [ [ -49.316861806281125, -25.41266325608121 ], [ -49.316852005138969, -25.412653212911845 ], [ -49.316844104066654, -25.412649511179719 ], [ -49.316835184027532, -25.412647603399218 ], [ -49.316787351460988, -25.412656083687853 ], [ -49.316776368418452, -25.412659569141933 ], [ -49.316766291538961, -25.412669384650432 ], [ -49.316763121828153, -25.412682890511562 ], [ -49.316764015457849, -25.412690123234235 ], [ -49.316777528989242, -25.412719167958134 ] ] } },
{ "type": "Feature", "properties": { "box_id": 1, "provider": "protomaps" }, "geometry": { "type": "LineString", "coordinates": [ [ -49.316777528989242, -25.412719167958134 ], [ -49.31688372485354, -25.412946086942558 ], [ -49.31689352602065, -25.412956130110764 ], [ -49.316907378000408, -25.412960802803834 ], [ -49.31692232414759, -25.41295826553846 ], [ -49.31697728960463, -25.412937227541516 ], [ -49.316984309588172, -25.412932793878159 ], [ -49.316989366829908, -25.412926532115584 ], [ -49.31699351789441, -25.412913940298445 ], [ -49.316989717735659, -25.412901257425862 ], [ -49.316919948931151, -25.412771356461462 ] ] } },
{ "type": "Feature", "properties": { "box_id": 1, "provider": "protomaps" }, "geometry": { "type": "LineString", "coordinates": [ [ -49.316919948931151, -25.412771356461462 ], [ -49.316861806281125, -25.41266325608121 ] ] } },
{ "type": "Feature", "properties": { "box_id": 1, "provider": "protomaps" }, "geometry": { "type": "LineString", "coordinates": [ [ -49.310748324655073, -25.414020455182381 ], [ -49.310738322669955, -25.414024854258258 ], [ -49.310730258183476, -25.41403288684063 ], [ -49.310726144172364, -25.414042770450443 ], [ -49.310725993216955, -25.414053602423643 ], [ -49.310730836966187, -25.414062686191716 ], [ -49.310739681511883, -25.41407001032956 ], [ -49.31075056419489, -25.414073746658381 ], [ -49.310762491105308, -25.414073883753183 ], [ -49.311387596221387, -25.413942937904984 ], [ -49.311398592087151, -25.413938550203476 ], [ -49.311405650042076, -25.413931408826379 ], [ -49.311409763994604, -25.413921525194368 ], [ -49.311409914888024, -25.413910693217147 ], [ -49.311405083666344, -25.413900706804228 ], [ -49.311396239089675, -25.413893382704853 ], [ -49.311385356399626, -25.413889646423588 ], [ -49.311374410836805, -25.413890423465315 ], [ -49.310748324655073, -25.414020455182381 ] ] } },
{ "type": "Feature", "properties": { "box_id": 1, "provider": "protomaps" }, "geometry": { "type": "LineString", "coordinates": [ [ -49.316169754058585, -25.413821760150679 ], [ -49.316168898077315, -25.413811819425842 ], [ -49.316165022749921, -25.413804552538362 ], [ -49.316157171784155, -25.413797240099115 ], [ -49.316146301473054, -25.413792601496461 ], [ -49.316058849964968, -25.413790696658818 ], [ -49.316047866799984, -25.413794182051607 ], [ -49.316040846733081, -25.413798615665428 ], [ -49.316033763965855, -25.413807562613563 ], [ -49.31603167582653, -25.413814761171469 ], [ -49.316029757201427, -25.413952869210988 ] ] } },
{ "type": "Feature", "properties": { "box_id": 1, "provider": "protomaps" }, "geometry": { "type": "LineString", "coordinates": [ [ -49.316029757201427, -25.413952869210988 ], [ -49.316027020212609, -25.414078328522255 ], [ -49.316029889087083, -25.414086486691122 ], [ -49.316033776954249, -25.414092850915051 ], [ -49.316040659098242, -25.414098346638564 ], [ -49.316048560235075, -25.414102048416773 ], [ -49.31608816624469, -25.414113335966398 ], [ -49.316112988972293, -25.414115426011534 ], [ -49.316123959625934, -25.41411284328235 ], [ -49.316135999427672, -25.414104855938859 ], [ -49.316140062851936, -25.414098582822991 ], [ -49.316142163530174, -25.41409048159678 ], [ -49.316152488053376, -25.413991290724123 ] ] } },
{ "type": "Feature", "properties": { "box_id": 1, "provider": "protomaps" }, "geometry": { "type": "LineString", "coordinates": [ [ -49.316152488053376, -25.413991290724123 ], [ -49.316169754058585, -25.413821760150679 ] ] } },
{ "type": "Feature", "properties": { "box_id": 1, "provider": "protomaps" }, "geometry": { "type": "LineString", "coordinates": [ [ -49.316885791642584, -25.413012015813209 ], [ -49.31687675877712, -25.413018232040773 ], [ -49.316870657488764, -25.413028093085799 ], [ -49.316869550785228, -25.413036205709787 ], [ -49.316871400726598, -25.413046157816993 ], [ -49.316916723049502, -25.413146888886079 ], [ -49.316922598747226, -25.413153275853141 ], [ -49.316930499854102, -25.413156977582606 ], [ -49.316939419932083, -25.413158885359174 ], [ -49.316948377608753, -25.413158085132892 ], [ -49.317022252409032, -25.413135458051844 ], [ -49.317344900010688, -25.413022689901897 ], [ -49.317352913890943, -25.413018267600119 ], [ -49.317358952492484, -25.413012919871271 ], [ -49.31736306593389, -25.41300303604498 ], [ -49.317364172604172, -25.412994923415546 ], [ -49.317362297563236, -25.412986776647763 ], [ -49.317309629164654, -25.412913948736907 ] ] } },
{ "type": "Feature", "properties": { "box_id": 1, "provider": "protomaps" }, "geometry": { "type": "LineString", "coordinates": [ [ -49.317309629164654, -25.412913948736907 ], [ -49.317078472753423, -25.41259441523124 ], [ -49.317068634002901, -25.412587080078314 ], [ -49.317059726495579, -25.412584269643929 ], [ -49.317050781393583, -25.412584167211698 ], [ -49.31703779803177, -25.412588532590838 ], [ -49.317026789937735, -25.41259382339944 ], [ -49.317019707316291, -25.412602770403815 ], [ -49.317017581663947, -25.412612676983528 ], [ -49.317019419081312, -25.412623531757255 ], [ -49.317152375516145, -25.412856173878286 ] ] } },
{ "type": "Feature", "properties": { "box_id": 1, "provider": "protomaps" }, "geometry": { "type": "LineString", "coordinates": [ [ -49.317152375516145, -25.412856173878286 ], [ -49.317168833274145, -25.412887960716429 ], [ -49.317167688999255, -25.412898781346609 ], [ -49.317159637527809, -25.412905911641126 ], [ -49.316885791642584, -25.413012015813209 ] ] } },
{ "type": "Feature", "properties": { "box_id": 1, "provider": "protomaps" }, "geometry": { "type": "LineString", "coordinates": [ [ -49.308729464135631, -25.414441417032663 ], [ -49.308064484369609, -25.414580017536682 ], [ -49.307963822053409, -25.414598720349144 ], [ -49.307953807329348, -25.414604021890554 ], [ -49.307947755652407, -25.414610271869471 ], [ -49.307943641396626, -25.41462015538799 ], [ -49.307943490188713, -25.414630987344736 ], [ -49.307950283766978, -25.414642802071139 ], [ -49.307959140774919, -25.414649223706338 ], [ -49.307970036010801, -25.414652057576081 ], [ -49.307994883823689, -25.414652343665196 ], [ -49.309181291662824, -25.414404184193568 ] ] } },
{ "type": "Feature", "properties": { "box_id": 1, "provider": "protomaps" }, "geometry": { "type": "LineString", "coordinates": [ [ -49.309181291662824, -25.414404184193568 ], [ -49.310664786083926, -25.41409442806297 ], [ -49.310675781986603, -25.414090040417694 ], [ -49.310683846480543, -25.414082007838761 ], [ -49.310687960496566, -25.414072124230422 ], [ -49.310688098875595, -25.414062194921883 ], [ -49.310683280289538, -25.414051305823744 ], [ -49.310674435748766, -25.414043981682727 ], [ -49.310663553071059, -25.414040245348502 ], [ -49.310651613584398, -25.41404101091025 ], [ -49.309203019993788, -25.414343043204205 ] ] } },
{ "type": "Feature", "properties": { "box_id": 1, "provider": "protomaps" }, "geometry": { "type": "LineString", "coordinates": [ [ -49.309203019993788, -25.414343043204205 ], [ -49.308729464135631, -25.414441417032663 ] ] } },
{ "type": "Feature", "properties": { "box_id": 1, "provider": "protomaps" }, "geometry": { "type": "LineString", "coordinates": [ [ -49.31690364195466, -25.413444666686392 ], [ -49.316904773727906, -25.413434748727877 ], [ -49.316900973565623, -25.41342206585351 ], [ -49.316891159829204, -25.413412925351835 ], [ -49.316877295266089, -25.413409155322288 ], [ -49.31634734237938, -25.413417529953758 ], [ -49.316335377886645, -25.413420101316753 ], [ -49.316289294581139, -25.413445754873152 ], [ -49.316259894529416, -25.413486947336146 ], [ -49.316221709859036, -25.413731171553192 ], [ -49.31622159701228, -25.413739295556482 ], [ -49.31622446589347, -25.41374745372217 ], [ -49.316231310412618, -25.413755657437537 ], [ -49.316242168185745, -25.413761198700957 ], [ -49.316296770516644, -25.413766338330181 ], [ -49.316693227648948, -25.413779005205704 ], [ -49.316704185727026, -25.413777325098142 ], [ -49.316761114347543, -25.413758115308177 ], [ -49.316768134387772, -25.413753681658456 ], [ -49.316782237138518, -25.413740301021448 ], [ -49.31678832593898, -25.41373134265049 ], [ -49.31690364195466, -25.413444666686392 ] ] } },
{ "type": "Feature", "properties": { "box_id": 1, "provider": "protomaps" }, "geometry": { "type": "LineString", "coordinates": [ [ -49.311873522345934, -25.416881747659168 ], [ -49.312024687356669, -25.416805842565108 ], [ -49.312124054600311, -25.416737467642623 ], [ -49.312130093614861, -25.416732120152549 ], [ -49.312191791917094, -25.416656090032561 ], [ -49.31223673158965, -25.416569936504501 ], [ -49.31228528145337, -25.416438683961029 ], [ -49.312295622005706, -25.416338590896313 ], [ -49.312286663123828, -25.416268068883976 ], [ -49.312281831746127, -25.416258082494455 ], [ -49.312272986949928, -25.416250758438608 ], [ -49.312262104021585, -25.416247022211238 ], [ -49.312253158671503, -25.416246919473316 ], [ -49.312245169540589, -25.416249536144871 ], [ -49.31223716783974, -25.416253055480855 ], [ -49.311638953111618, -25.416736408946253 ], [ -49.311597497740323, -25.416786489944752 ], [ -49.311573845090791, -25.416843095145467 ], [ -49.311574688124523, -25.416853938539482 ], [ -49.311583168247509, -25.416887439906983 ], [ -49.31158704337976, -25.41689470690342 ], [ -49.311600744668127, -25.416910212080928 ], [ -49.311611577332762, -25.416917559016955 ], [ -49.311664067166205, -25.416931704233885 ], [ -49.311750665084013, -25.416923671070229 ], [ -49.311873522345934, -25.416881747659168 ] ] } },
{ "type": "Feature", "properties": { "box_id": 1, "provider": "protomaps" }, "geometry": { "type": "LineString", "coordinates": [ [ -49.316251230951664, -25.413323439334981 ], [ -49.315716556764556, -25.41324237936233 ], [ -49.315704629905419, -25.413242242673643 ], [ -49.315691621346083, -25.413248413261055 ], [ -49.315683519599219, -25.413259154136089 ], [ -49.315681343654845, -25.413272671356822 ], [ -49.315716870100218, -25.413506003642969 ], [ -49.315721262697544, -25.413547583270784 ], [ -49.31575255970143, -25.413727601251843 ], [ -49.315755428550247, -25.413735759425073 ], [ -49.315760310301478, -25.41374213504584 ], [ -49.315770161598742, -25.413748567619216 ], [ -49.315781069515339, -25.413750498248319 ], [ -49.316150778674896, -25.413756540368677 ], [ -49.316162730665319, -25.413754871689729 ], [ -49.316171763621945, -25.413748655511345 ], [ -49.316177814849866, -25.413742405169053 ], [ -49.316180921966001, -25.413733412662214 ], [ -49.316221320224336, -25.413472963227708 ], [ -49.316260847423536, -25.413418344637705 ], [ -49.316333966798453, -25.413378555855818 ], [ -49.316340005461306, -25.413373208172313 ], [ -49.316345112904358, -25.413363335766363 ], [ -49.316345250815715, -25.41335340642787 ], [ -49.316342381933936, -25.413345248264179 ], [ -49.316337500165581, -25.413338872661686 ], [ -49.3163276363303, -25.413333342793305 ], [ -49.316319722695113, -25.413330543698983 ], [ -49.316251230951664, -25.413323439334981 ] ] } },
{ "type": "Feature", "properties": { "box_id": 1, "provider": "protomaps" }, "geometry": { "type": "LineString", "coordinates": [ [ -49.311302729522438, -25.414825812914916 ], [ -49.311305572936185, -25.414835776489124 ], [ -49.311342436299093, -25.414901202341479 ], [ -49.311349293109409, -25.414908503604916 ], [ -49.311420037716175, -25.414967999094937 ], [ -49.311505036744222, -25.415003282487046 ], [ -49.311601270684896, -25.415017027491292 ], [ -49.31175240899428, -25.415014249815606 ], [ -49.311893796703608, -25.414997817838795 ], [ -49.311966553807146, -25.414984208642775 ] ] } },
{ "type": "Feature", "properties": { "box_id": 1, "provider": "protomaps" }, "geometry": { "type": "LineString", "coordinates": [ [ -49.311966553807146, -25.414984208642775 ], [ -49.312064221677822, -25.41496637148974 ], [ -49.312210075169475, -25.414914780932531 ], [ -49.312482305623156, -25.414782485815596 ], [ -49.312578726849935, -25.414711368234396 ], [ -49.312630195614098, -25.414655985018744 ], [ -49.312655797422615, -25.414602110404484 ], [ -49.312657608097048, -25.414543448573923 ], [ -49.312656714707202, -25.414536215839828 ], [ -49.312623108899253, -25.414450965884082 ], [ -49.312578193117076, -25.414392670344171 ], [ -49.312570329777657, -25.414386260388131 ], [ -49.312511084579008, -25.414357593008035 ], [ -49.31250020180866, -25.414353856805697 ], [ -49.312425721216613, -25.414348487493822 ], [ -49.312261537168311, -25.414360144168853 ], [ -49.311918939964784, -25.414405863752144 ], [ -49.311804288018628, -25.414429825387405 ] ] } },
{ "type": "Feature", "properties": { "box_id": 1, "provider": "protomaps" }, "geometry": { "type": "LineString", "coordinates": [ [ -49.311804288018628, -25.414429825387405 ], [ -49.311612865857214, -25.414470058323964 ], [ -49.311524999160042, -25.414497938703128 ], [ -49.311424840800228, -25.414551859261504 ], [ -49.311349417022896, -25.414614189250138 ], [ -49.311308755021734, -25.414678724266899 ], [ -49.311292928274014, -25.414744447466845 ], [ -49.311302729522438, -25.414825812914916 ] ] } },
{ "type": "Feature", "properties": { "box_id": 1, "provider": "protomaps" }, "geometry": { "type": "LineString", "coordinates": [ [ -49.314532115958983, -25.413350679644363 ], [ -49.314527284493074, -25.413340693321395 ], [ -49.3145213963681, -25.413335208930938 ], [ -49.314511520072493, -25.413330581611142 ], [ -49.314499593212098, -25.41333044482424 ], [ -49.314243381351183, -25.41338348037447 ] ] } },
{ "type": "Feature", "properties": { "box_id": 1, "provider": "protomaps" }, "geometry": { "type": "LineString", "coordinates": [ [ -49.314243381351183, -25.41338348037447 ], [ -49.313315217186442, -25.413576865860541 ], [ -49.313304221414825, -25.413581253710952 ], [ -49.31329615712108, -25.41358928644485 ], [ -49.313292018211591, -25.413600975469933 ], [ -49.313293817621066, -25.413614538269638 ], [ -49.313628958346001, -25.414318964830223 ], [ -49.313633840002574, -25.414325340516651 ], [ -49.313640722043303, -25.414330836347563 ], [ -49.313651604852026, -25.414334572467105 ], [ -49.313664538276704, -25.414333818067082 ], [ -49.314701809828087, -25.414086610431223 ], [ -49.31471481852504, -25.414080439939298 ], [ -49.314719875930798, -25.414074178264222 ], [ -49.31472295806352, -25.41406699112714 ], [ -49.314723146311536, -25.414053451132723 ], [ -49.314569977021485, -25.413487438200153 ] ] } },
{ "type": "Feature", "properties": { "box_id": 1, "provider": "protomaps" }, "geometry": { "type": "LineString", "coordinates": [ [ -49.314569977021485, -25.413487438200153 ], [ -49.314532115958983, -25.413350679644363 ] ] } },
{ "type": "Feature", "properties": { "box_id": 1, "provider": "protomaps" }, "geometry": { "type": "LineString", "coordinates": [ [ -49.314983173428381, -25.415084733632838 ], [ -49.314979220260398, -25.41501156068102 ], [ -49.31496529026429, -25.414940981763156 ], [ -49.314747770678615, -25.414141306102945 ], [ -49.314741945255292, -25.414131308387937 ], [ -49.314734094360155, -25.414123995876235 ], [ -49.314722205070076, -25.41412115110456 ], [ -49.314711259492256, -25.414121928394934 ], [ -49.313689953047863, -25.414364805231617 ], [ -49.313679938570125, -25.414370107177366 ], [ -49.31367188680214, -25.414377237263885 ], [ -49.313667735338719, -25.414389828964595 ], [ -49.313670541268074, -25.414402500500291 ], [ -49.313777952400336, -25.414613184879705 ], [ -49.314176504277619, -25.415190138907466 ], [ -49.3142401298647, -25.415261287959662 ], [ -49.314302131740668, -25.415306236872855 ], [ -49.314368398073668, -25.415330470047373 ], [ -49.314439822333249, -25.415341220204276 ], [ -49.314518317027918, -25.415343926130543 ], [ -49.314612890194233, -25.415334177075099 ], [ -49.314707588855988, -25.415315401296652 ], [ -49.314852573388663, -25.415254770021654 ], [ -49.314960064874541, -25.415173846871312 ], [ -49.31496614133497, -25.415165791254367 ], [ -49.314978457384889, -25.415137945357944 ], [ -49.314983173428381, -25.415084733632838 ] ] } },
{ "type": "Feature", "properties": { "box_id": 1, "provider": "protomaps" }, "geometry": { "type": "LineString", "coordinates": [ [ -49.308778028988051, -25.413454303469166 ], [ -49.308768203301717, -25.413446065119665 ], [ -49.30875238901104, -25.413439563469755 ], [ -49.308711664178247, -25.413437289185076 ], [ -49.308312126565212, -25.413503109700201 ], [ -49.308304124949743, -25.413506628826624 ], [ -49.308294097734944, -25.413512833060736 ], [ -49.308222321194187, -25.413598676413322 ], [ -49.308200894890746, -25.413638153325795 ], [ -49.308145233474896, -25.413780156262785 ], [ -49.308147032305769, -25.413793719095878 ], [ -49.308154819768255, -25.41380554525481 ], [ -49.30817653451146, -25.413816628937425 ], [ -49.308221725055503, -25.413855067115989 ], [ -49.308229625911984, -25.413858769301836 ], [ -49.308238545871198, -25.413860677602202 ], [ -49.308788378585653, -25.413781239250319 ], [ -49.308797311143969, -25.413782244853369 ], [ -49.308806193327428, -25.413786861110161 ], [ -49.308811062106841, -25.413794139606807 ], [ -49.308810923575777, -25.413804068906064 ], [ -49.308805840701851, -25.413812135690034 ], [ -49.308795838672076, -25.413816534631042 ], [ -49.308280855514049, -25.41389186013318 ], [ -49.308267859143442, -25.413897127376455 ], [ -49.308261820117345, -25.413902474708223 ], [ -49.308257743708005, -25.41390965024911 ], [ -49.30825564251348, -25.413917751335966 ], [ -49.308256535636673, -25.413924984083735 ], [ -49.3083410755534, -25.414206730634163 ], [ -49.308344937812677, -25.414214900367625 ], [ -49.308351806994793, -25.41422129909709 ], [ -49.308357707463102, -25.414225881058822 ], [ -49.308365620944961, -25.414228680575324 ], [ -49.308390430884849, -25.414231674583107 ], [ -49.308599655668438, -25.414197970430582 ], [ -49.308609556973188, -25.414200792812544 ], [ -49.308616413573887, -25.414208094193757 ], [ -49.30861827543827, -25.41421714370621 ], [ -49.308614161251356, -25.414227027247495 ], [ -49.308609128727191, -25.414231483368944 ], [ -49.30860213357488, -25.414234111284987 ], [ -49.308391914819147, -25.414267803997074 ], [ -49.308345264057102, -25.414262752963335 ], [ -49.308336381859178, -25.414258136678072 ], [ -49.308309861246741, -25.414235261186445 ], [ -49.308305986391588, -25.414227994115436 ], [ -49.308205280831736, -25.413893698570231 ], [ -49.308199418179981, -25.413886408613493 ], [ -49.308151283710352, -25.413845228111992 ], [ -49.308125580742335, -25.413835001319821 ], [ -49.308113666470632, -25.413833961349045 ], [ -49.308105677426632, -25.413836577799859 ], [ -49.308097650585111, -25.413841902239902 ], [ -49.308088566841228, -25.413851728553098 ], [ -49.307789131710607, -25.414081205458938 ], [ -49.307783054850283, -25.414089260758505 ], [ -49.307764773857535, -25.414117037307559 ], [ -49.307752166463793, -25.414165643773082 ], [ -49.307749573758045, -25.414208948708463 ], [ -49.307744545564795, -25.414569111245246 ], [ -49.307748332180388, -25.414582696970403 ], [ -49.307756170056727, -25.414590912497957 ], [ -49.307763077032085, -25.414594603265204 ], [ -49.307771997035637, -25.414596511596105 ], [ -49.30778094224322, -25.414596614600512 ], [ -49.308056030553665, -25.41454471068781 ], [ -49.308674157774014, -25.414415501894325 ], [ -49.308684147263456, -25.414412005628137 ], [ -49.30869323100616, -25.414402179278508 ], [ -49.308697382978337, -25.414389587744868 ], [ -49.308680651327002, -25.414306336812068 ], [ -49.308680387925854, -25.414253970893327 ], [ -49.308684502108534, -25.414244087349996 ], [ -49.308690541135014, -25.414238740001 ], [ -49.3087195534304, -25.414225531765588 ], [ -49.308850133376986, -25.414199950232568 ], [ -49.308876126139495, -25.414189415642912 ], [ -49.308884190753638, -25.414181383169332 ], [ -49.308889336606335, -25.41416880306576 ], [ -49.308889512913311, -25.414156165775907 ], [ -49.308823616674438, -25.41389178739815 ], [ -49.308823717423955, -25.413884566089639 ], [ -49.308826774705906, -25.413879184420868 ], [ -49.308831819800709, -25.413873825627036 ], [ -49.308838814927434, -25.413871197698626 ], [ -49.308845772273322, -25.413871277760599 ], [ -49.308852704432326, -25.413873163149383 ], [ -49.308858604904685, -25.413877745091302 ], [ -49.308861498470726, -25.4138840980483 ], [ -49.308932188032088, -25.414161170888239 ], [ -49.308932087287786, -25.414168392196895 ], [ -49.308918713117016, -25.414200739404677 ], [ -49.308899576974383, -25.414218575370807 ], [ -49.308894557053826, -25.41422212883905 ], [ -49.308857580906171, -25.414236148274014 ], [ -49.308740966035153, -25.414258279294177 ], [ -49.30873395828916, -25.414261809880017 ], [ -49.308726925353525, -25.414267145792454 ], [ -49.308720798164337, -25.414278811787209 ], [ -49.308720445513167, -25.414304086364272 ], [ -49.308734371784581, -25.414374665690396 ], [ -49.308741165429424, -25.414386480383826 ], [ -49.308752979007707, -25.414394741614451 ], [ -49.308761899016076, -25.414396649885351 ], [ -49.308770856807868, -25.414395850165285 ], [ -49.309217501337635, -25.414302583429837 ] ] } },
{ "type": "Feature", "properties": { "box_id": 1, "provider": "protomaps" }, "geometry": { "type": "LineString", "coordinates": [ [ -49.309217501337635, -25.414302583429837 ], [ -49.309350094290885, -25.414275218994113 ], [ -49.309362121931663, -25.414268134893405 ], [ -49.309369242970142, -25.414256480302718 ], [ -49.309370337598736, -25.414249270426531 ], [ -49.309369456997274, -25.414241135018546 ], [ -49.309306540671002, -25.414048112978566 ] ] } },
{ "type": "Feature", "properties": { "box_id": 1, "provider": "protomaps" }, "geometry": { "type": "LineString", "coordinates": [ [ -49.309306540671002, -25.414048112978566 ], [ -49.309290311516548, -25.414000077413924 ], [ -49.309276698975808, -25.413978253400664 ], [ -49.309218562056763, -25.413941472202012 ], [ -49.309036628395397, -25.413800346424367 ], [ -49.308778028988051, -25.413454303469166 ] ] } },
{ "type": "Feature", "properties": { "box_id": 1, "provider": "protomaps" }, "geometry": { "type": "LineString", "coordinates": [ [ -49.31310962435991, -25.420277866026151 ], [ -49.313192199879097, -25.420344719078646 ], [ -49.313205033430329, -25.420351186071095 ], [ -49.313216960973456, -25.420351322998201 ], [ -49.313227944812944, -25.420347837854564 ], [ -49.313262091318329, -25.420322951191238 ], [ -49.313268143038322, -25.420316700998587 ], [ -49.31327122543702, -25.420309513910329 ], [ -49.313271376207467, -25.420298681932099 ], [ -49.313266544606407, -25.420288695567837 ], [ -49.313146586763999, -25.420122104404221 ], [ -49.312887849692579, -25.419784191661989 ], [ -49.312726574015969, -25.419586430267199 ], [ -49.312645027761086, -25.419302914637122 ], [ -49.312521565499047, -25.418531400724561 ], [ -49.312521287972558, -25.418479937420852 ], [ -49.312518456959182, -25.418469071200693 ], [ -49.312441267564509, -25.418372486977294 ], [ -49.312430434721136, -25.418365140094622 ], [ -49.312262545110407, -25.418285570282862 ], [ -49.312196101682851, -25.418273973410997 ], [ -49.312186137096866, -25.418275664573972 ], [ -49.312143208917071, -25.418288713620178 ], [ -49.312134187987688, -25.418294026854756 ], [ -49.311876355939852, -25.4185339206118 ], [ -49.311397527479656, -25.41893829400853 ], [ -49.311391475741189, -25.418944544123807 ], [ -49.311388393273155, -25.418951731169983 ], [ -49.311387286126404, -25.418959843724888 ], [ -49.311390154778074, -25.418968001969148 ], [ -49.311397955446481, -25.418978925317258 ], [ -49.312522212747218, -25.419841383997564 ], [ -49.31310962435991, -25.420277866026151 ] ] } },
{ "type": "Feature", "properties": { "box_id": 1, "provider": "protomaps" }, "geometry": { "type": "LineString", "coordinates": [ [ -49.312495980193816, -25.419869069805245 ], [ -49.311338305885087, -25.418979142632505 ], [ -49.311326441378228, -25.418974492239283 ], [ -49.311154097946549, -25.41892917670366 ], [ -49.311139201287759, -25.418928102680251 ], [ -49.31113020542756, -25.418931610519998 ], [ -49.310754568021643, -25.419135841367225 ], [ -49.310438478181176, -25.419418397433123 ], [ -49.310226513383029, -25.419647981731678 ], [ -49.310092013902164, -25.419811648827814 ], [ -49.310087899614608, -25.419821532399627 ], [ -49.31008680495745, -25.419828742275531 ], [ -49.310088654405519, -25.419838694436198 ], [ -49.310122649863878, -25.419895962330873 ], [ -49.310225139894484, -25.420031659436539 ], [ -49.310231028120988, -25.420037144001117 ], [ -49.31036977916893, -25.420138951302167 ], [ -49.310692576451743, -25.420302459928514 ] ] } },
{ "type": "Feature", "properties": { "box_id": 1, "provider": "protomaps" }, "geometry": { "type": "LineString", "coordinates": [ [ -49.310692576451743, -25.420302459928514 ], [ -49.311642226723279, -25.42078283548776 ], [ -49.312220427340307, -25.421024208561658 ], [ -49.312464793264255, -25.421109170955855 ], [ -49.312649155936597, -25.421148303450163 ], [ -49.312882914420392, -25.421138348420975 ], [ -49.313141457982923, -25.421061869705763 ], [ -49.31315151074984, -25.421053859836682 ], [ -49.313228447000157, -25.42095453128837 ], [ -49.313346322776646, -25.420770808599748 ], [ -49.313350411713287, -25.420762730255614 ], [ -49.313379913706292, -25.420642995302487 ], [ -49.313379912263905, -25.420571673368563 ], [ -49.313378062535392, -25.420561721235902 ], [ -49.313371230425261, -25.420552614720215 ], [ -49.313278991449117, -25.420465789029979 ], [ -49.313140400776149, -25.42035224969538 ] ] } },
{ "type": "Feature", "properties": { "box_id": 1, "provider": "protomaps" }, "geometry": { "type": "LineString", "coordinates": [ [ -49.313140400776149, -25.42035224969538 ], [ -49.31308340439918, -25.420304649274442 ], [ -49.312495980193816, -25.419869069805245 ] ] } },
{ "type": "Feature", "properties": { "box_id": 1, "provider": "protomaps" }, "geometry": { "type": "LineString", "coordinates": [ [ -49.316503810433836, -25.412601375781946 ], [ -49.316495796553973, -25.412605798037472 ], [ -49.316488738965965, -25.412612939679612 ], [ -49.316484600398077, -25.412624628813539 ], [ -49.316487394059962, -25.412638202978577 ], [ -49.316505801806684, -25.412672720653841 ], [ -49.316511689996062, -25.412678204968159 ], [ -49.31651957852322, -25.412682809385036 ], [ -49.316527517193627, -25.412683803132289 ], [ -49.316536474836155, -25.41268300292943 ], [ -49.316614337542902, -25.412659518913465 ] ] } },
{ "type": "Feature", "properties": { "box_id": 1, "provider": "protomaps" }, "geometry": { "type": "LineString", "coordinates": [ [ -49.316445432119608, -25.414084928002289 ], [ -49.316447081443599, -25.414109322785983 ], [ -49.316452919547885, -25.41411841777343 ], [ -49.316458807800949, -25.414123902092307 ], [ -49.316467702866149, -25.414127615234719 ], [ -49.316476635542465, -25.414128620375326 ], [ -49.316499508068759, -25.41412797958246 ], [ -49.316519436466834, -25.414124596627829 ], [ -49.316530419650981, -25.41412111120076 ], [ -49.316538458706106, -25.414114883614999 ] ] } }
]
}
