{
"type": "FeatureCollection",
"name": "curitiba_1km_protomaps_sidewalk_protoblocks",
"crs": { "type": "name", "properties": { "name": "urn:ogc:def:crs:OGC:1.3:CRS84" } },
"features": [
{ "type": "Feature", "properties": { "box_id": 1, "provider": "protomaps" }, "geometry": { "type": "Polygon", "coordinates": [ [ [ -49.247661531232843, -25.427227269836962 ], [ -49.247693559291015, -25.427537346282588 ], [ -49.247728503444598, -25.427875662419762 ], [ -49.248216569304603, -25.427835897132681 ], [ -49.248680684247439, -25.427798081781546 ], [ -49.249006717482182, -25.427771516373546 ], [ -49.248941219803264, -25.427124011049163 ], [ -49.248501062085758, -25.427161866516826 ], [ -49.247661481626444, -25.427226781739389 ], [ -49.247661531232843, -25.427227269836962 ] ] ] } },
{ "type": "Feature", "properties": { "box_id": 1, "provider": "protomaps" }, "geometry": { "type": "Polygon", "coordinates": [ [ [ -49.247693559291015, -25.427537346282588 ], [ -49.247661531232843, -25.427227269836962 ], [ -49.247661481626444, -25.427226781739389 ], [ -49.247366513820324, -25.427249587292838 ], [ -49.247381986255185, -25.427564002764974 ], [ -49.247382581116263, -25.427563978264448 ], [ -49.247693559291015, -25.427537346282588 ] ] ] } },
{ "type": "Feature", "properties": { "box_id": 1, "provider": "protomaps" }, "geometry": { "type": "Polygon", "coordinates": [ [ [ -49.247728503444598, -25.427875662419762 ], [ -49.247693559291015, -25.427537346282588 ], [ -49.247382581116263, -25.427563978264448 ], [ -49.247381986255185, -25.427564002764974 ], [ -49.247398645751133, -25.427902536840023 ], [ -49.247728503444598, -25.427875662419762 ] ] ] } },
{ "type": "Feature", "properties": { "box_id": 1, "provider": "protomaps" }, "geometry": { "type": "Polygon", "coordinates": [ [ [ -49.247728503444598, -25.427875662419762 ], [ -49.247728586305342, -25.427876463278789 ], [ -49.247768945985499, -25.428276141532962 ], [ -49.248189925694746, -25.428234973104754 ], [ -49.24821406587003, -25.428215594635418 ], [ -49.248230159227241, -25.428186526268053 ], [ -49.248216747947225, -25.427837705743162 ], [ -49.248216569304603, -25.427835897132681 ], [ -49.247728503444598, -25.427875662419762 ] ] ] } },
{ "type": "Feature", "properties": { "box_id": 1, "provider": "protomaps" }, "geometry": { "type": "Polygon", "coordinates": [ [ [ -49.247728586305342, -25.427876463278789 ], [ -49.247728503444598, -25.427875662419762 ], [ -49.247398645751133, -25.427902536840023 ], [ -49.246481266725809, -25.427977273579526 ], [ -49.246481358656773, -25.427978202743112 ], [ -49.246612786828756, -25.42810416581068 ], [ -49.246674477848707, -25.428138078708535 ], [ -49.247801006288888, -25.428595905242666 ], [ -49.247801233233183, -25.428595886282771 ], [ -49.247768945985499, -25.428276141532962 ], [ -49.247728586305342, -25.427876463278789 ] ] ] } },
{ "type": "Feature", "properties": { "box_id": 1, "provider": "protomaps" }, "geometry": { "type": "Polygon", "coordinates": [ [ [ -49.246338098718887, -25.42798893662242 ], [ -49.245277047504736, -25.427602736720718 ], [ -49.245236814371111, -25.427566401010463 ], [ -49.245223403319869, -25.427532488283962 ], [ -49.245223403061388, -25.427493729794893 ], [ -49.245239495784332, -25.427450127789939 ], [ -49.245274364550276, -25.427411369627848 ], [ -49.245274360221025, -25.427411325339527 ], [ -49.245054424293286, -25.427428326463541 ], [ -49.24477010973574, -25.427474350944181 ], [ -49.244792937373653, -25.427718696854633 ], [ -49.244829664236192, -25.428111811282943 ], [ -49.246338098718887, -25.42798893662242 ] ] ] } },
{ "type": "Feature", "properties": { "box_id": 1, "provider": "protomaps" }, "geometry": { "type": "Polygon", "coordinates": [ [ [ -49.245274360221025, -25.427411325339527 ], [ -49.245274364550276, -25.427411369627848 ], [ -49.245239495784332, -25.427450127789939 ], [ -49.245223403061388, -25.427493729794893 ], [ -49.245223403319869, -25.427532488283962 ], [ -49.245236814371111, -25.427566401010463 ], [ -49.245277047504736, -25.427602736720718 ], [ -49.246338098718887, -25.42798893662242 ], [ -49.246481213979031, -25.427977277463842 ], [ -49.246414429261584, -25.427323193847855 ], [ -49.245274360221025, -25.427411325339527 ] ] ] } },
{ "type": "Feature", "properties": { "box_id": 1, "provider": "protomaps" }, "geometry": { "type": "Polygon", "coordinates": [ [ [ -49.250444601257968, -25.429593498392133 ], [ -49.249138705239041, -25.429076309577784 ], [ -49.249152838969081, -25.429216031136342 ], [ -49.250460063371236, -25.429745842249705 ], [ -49.250449573377246, -25.429642488785316 ], [ -49.250444601257968, -25.429593498392133 ] ] ] } },
{ "type": "Feature", "properties": { "box_id": 1, "provider": "protomaps" }, "geometry": { "type": "Polygon", "coordinates": [ [ [ -49.249138705239041, -25.429076309577784 ], [ -49.250444601257968, -25.429593498392133 ], [ -49.250342473186784, -25.42858726182207 ], [ -49.249423778343441, -25.428661668013788 ], [ -49.249099419213309, -25.428687937326334 ], [ -49.249138705239041, -25.429076309577784 ] ] ] } },
{ "type": "Feature", "properties": { "box_id": 1, "provider": "protomaps" }, "geometry": { "type": "Polygon", "coordinates": [ [ [ -49.247379724589834, -25.424447866301289 ], [ -49.247288703489488, -25.423550122438208 ], [ -49.2472699281658, -25.423455649998434 ], [ -49.247261882217032, -25.423431426074259 ], [ -49.247245788379573, -25.423382975493261 ], [ -49.247208237939759, -25.423310298076235 ], [ -49.24696047047874, -25.422938176207502 ], [ -49.246853971070706, -25.422947267633361 ], [ -49.245973081461372, -25.423022457142206 ], [ -49.245153430065017, -25.423092415278475 ], [ -49.24435047304825, -25.423160944176587 ], [ -49.243167746478967, -25.423261877188704 ], [ -49.242031338363198, -25.423358847206831 ], [ -49.241918921071871, -25.423368439283937 ], [ -49.241918280750603, -25.423372557359301 ], [ -49.24190913358315, -25.423431426087838 ], [ -49.241897463503498, -25.423506519308358 ], [ -49.241897463921518, -25.423564656102283 ], [ -49.241910874351454, -25.42366155113298 ], [ -49.241909872592124, -25.423662145818344 ], [ -49.242047667670604, -25.423833538555193 ], [ -49.242125451790479, -25.423944967728762 ], [ -49.242283701907446, -25.423840806202591 ], [ -49.242390989872106, -25.424022482927363 ], [ -49.242455363089135, -25.424172669758754 ], [ -49.242500960749815, -25.424305899698584 ], [ -49.242576062960111, -25.424582048940792 ], [ -49.242600202232701, -25.424703167659043 ], [ -49.242616296302145, -25.424836397625494 ], [ -49.243311138001296, -25.424779732380287 ], [ -49.244497234440978, -25.424682997345659 ], [ -49.245307813487869, -25.424616881979233 ], [ -49.246131250312594, -25.424549713985208 ], [ -49.247379724589834, -25.424447866301289 ] ] ] } },
{ "type": "Feature", "properties": { "box_id": 1, "provider": "protomaps" }, "geometry": { "type": "Polygon", "coordinates": [ [ [ -49.247379724589834, -25.424447866301289 ], [ -49.247544466656819, -25.426072693629994 ], [ -49.248393774514568, -25.425999132254393 ], [ -49.24829989626415, -25.425245776633766 ], [ -49.24827843922828, -25.425114969372487 ], [ -49.248243570793377, -25.424979316717305 ], [ -49.248179197390733, -25.424833974685182 ], [ -49.247994125338586, -25.424492421981014 ], [ -49.247951601090072, -25.424401210742978 ], [ -49.247379724589834, -25.424447866301289 ] ] ] } },
{ "type": "Feature", "properties": { "box_id": 1, "provider": "protomaps" }, "geometry": { "type": "Polygon", "coordinates": [ [ [ -49.247544466656819, -25.426072693629994 ], [ -49.247379724589834, -25.424447866301289 ], [ -49.246131250312594, -25.424549713985208 ], [ -49.246297772855698, -25.426180664309967 ], [ -49.247141190035528, -25.426107620420748 ], [ -49.247544466656819, -25.426072693629994 ] ] ] } },
{ "type": "Feature", "properties": { "box_id": 1, "provider": "protomaps" }, "geometry": { "type": "Polygon", "coordinates": [ [ [ -49.247544466656819, -25.426072693629994 ], [ -49.247661481626444, -25.427226781739389 ], [ -49.248501062085758, -25.427161866516826 ], [ -49.24851179123575, -25.426958387564031 ], [ -49.248509108923407, -25.426863915741791 ], [ -49.248393774514568, -25.425999132254393 ], [ -49.247544466656819, -25.426072693629994 ] ] ] } },
{ "type": "Feature", "properties": { "box_id": 1, "provider": "protomaps" }, "geometry": { "type": "Polygon", "coordinates": [ [ [ -49.247661481626444, -25.427226781739389 ], [ -49.247544466656819, -25.426072693629994 ], [ -49.247141190035528, -25.426107620420748 ], [ -49.246297772855698, -25.426180664309967 ], [ -49.246414429261584, -25.427323193847855 ], [ -49.247366513820324, -25.427249587292838 ], [ -49.247661481626444, -25.427226781739389 ] ] ] } },
{ "type": "Feature", "properties": { "box_id": 1, "provider": "protomaps" }, "geometry": { "type": "Polygon", "coordinates": [ [ [ -49.247768945985499, -25.428276141532962 ], [ -49.247801233233183, -25.428595886282771 ], [ -49.247820919312581, -25.428790831808147 ], [ -49.248596081768724, -25.428728447793869 ], [ -49.249099195263952, -25.428687955421154 ], [ -49.249099419213309, -25.428687937326334 ], [ -49.249006717482182, -25.427771516373546 ], [ -49.248680684247439, -25.427798081781546 ], [ -49.248216569304603, -25.427835897132681 ], [ -49.248216747947225, -25.427837705743162 ], [ -49.248230159227241, -25.428186526268053 ], [ -49.24821406587003, -25.428215594635418 ], [ -49.248189925694746, -25.428234973104754 ], [ -49.247768945985499, -25.428276141532962 ] ] ] } },
{ "type": "Feature", "properties": { "box_id": 1, "provider": "protomaps" }, "geometry": { "type": "Polygon", "coordinates": [ [ [ -49.247820919312581, -25.428790831808147 ], [ -49.247801233233183, -25.428595886282771 ], [ -49.247801006288888, -25.428595905242666 ], [ -49.246674477848707, -25.428138078708535 ], [ -49.246612786828756, -25.42810416581068 ], [ -49.246481358656773, -25.427978202743112 ], [ -49.246481266725809, -25.427977273579526 ], [ -49.246481213979031, -25.427977277463842 ], [ -49.246574523254331, -25.428891131710746 ], [ -49.247820919312581, -25.428790831808147 ] ] ] } },
{ "type": "Feature", "properties": { "box_id": 1, "provider": "protomaps" }, "geometry": { "type": "Polygon", "coordinates": [ [ [ -49.250068814444369, -25.425888366148278 ], [ -49.250059425818563, -25.425795653391141 ], [ -49.250024556983377, -25.425785963679971 ], [ -49.249997734743097, -25.425764162294684 ], [ -49.249987006100262, -25.425737516857588 ], [ -49.249826073574397, -25.424458508276896 ], [ -49.249834120071206, -25.42442217296432 ], [ -49.24985557802119, -25.424390681993511 ], [ -49.249893128587409, -25.424376148427822 ], [ -49.249879052618084, -25.424243945062294 ], [ -49.248659954669087, -25.424343417193068 ], [ -49.248732116798706, -25.425056820932049 ], [ -49.248764215536283, -25.425374150263629 ], [ -49.248826689191475, -25.425991774377849 ], [ -49.250068814444369, -25.425888366148278 ] ] ] } },
{ "type": "Feature", "properties": { "box_id": 1, "provider": "protomaps" }, "geometry": { "type": "Polygon", "coordinates": [ [ [ -49.250182807371537, -25.42701410216862 ], [ -49.250068814444369, -25.425888366148278 ], [ -49.248826689191475, -25.425991774377849 ], [ -49.248870321609132, -25.426423119868755 ], [ -49.248941219803264, -25.427124011049163 ], [ -49.250183121570785, -25.427017196159206 ], [ -49.250182807371537, -25.42701410216862 ] ] ] } },
{ "type": "Feature", "properties": { "box_id": 1, "provider": "protomaps" }, "geometry": { "type": "Polygon", "coordinates": [ [ [ -49.247381986255185, -25.427564002764974 ], [ -49.247366513820324, -25.427249587292838 ], [ -49.246414429261584, -25.427323193847855 ], [ -49.246481213979031, -25.427977277463842 ], [ -49.246481266725809, -25.427977273579526 ], [ -49.247398645751133, -25.427902536840023 ], [ -49.247381986255185, -25.427564002764974 ] ] ] } },
{ "type": "Feature", "properties": { "box_id": 1, "provider": "protomaps" }, "geometry": { "type": "Polygon", "coordinates": [ [ [ -49.251065175018155, -25.42725149431012 ], [ -49.2508774998986, -25.427253916422465 ], [ -49.250861406578451, -25.427239382185071 ], [ -49.250861406753501, -25.427130375763685 ], [ -49.250872135228775, -25.427123108755634 ], [ -49.251055826148878, -25.427115895048576 ], [ -49.251043914741807, -25.426943153399918 ], [ -49.250668549936293, -25.426975441094744 ], [ -49.250183121570785, -25.427017196159206 ], [ -49.250249402658589, -25.427670254568472 ], [ -49.250469675493889, -25.427652304437661 ], [ -49.251089329846671, -25.427601806052895 ], [ -49.251065175018155, -25.42725149431012 ] ] ] } },
{ "type": "Feature", "properties": { "box_id": 1, "provider": "protomaps" }, "geometry": { "type": "Polygon", "coordinates": [ [ [ -49.251055826148878, -25.427115895048576 ], [ -49.250872135228775, -25.427123108755634 ], [ -49.250861406753501, -25.427130375763685 ], [ -49.250861406578451, -25.427239382185071 ], [ -49.2508774998986, -25.427253916422465 ], [ -49.251065175018155, -25.42725149431012 ], [ -49.251055826148878, -25.427115895048576 ] ] ] } },
{ "type": "Feature", "properties": { "box_id": 1, "provider": "protomaps" }, "geometry": { "type": "Polygon", "coordinates": [ [ [ -49.250794350608921, -25.425684224663929 ], [ -49.25120204684201, -25.425645466469415 ], [ -49.251220822752806, -25.425638199528795 ], [ -49.251226187186852, -25.425623665274184 ], [ -49.251212775784587, -25.425517081147714 ], [ -49.251199364662071, -25.425504969468097 ], [ -49.250805079892039, -25.425543727567547 ], [ -49.250791669176301, -25.425553417326249 ], [ -49.250794350608921, -25.425684224663929 ] ] ] } },
{ "type": "Feature", "properties": { "box_id": 1, "provider": "protomaps" }, "geometry": { "type": "Polygon", "coordinates": [ [ [ -49.249006717482182, -25.427771516373546 ], [ -49.249099419213309, -25.428687937326334 ], [ -49.249423778343441, -25.428661668013788 ], [ -49.250342473186784, -25.42858726182207 ], [ -49.25029172989521, -25.428087296690467 ], [ -49.250249402658589, -25.427670254568472 ], [ -49.249006717482182, -25.427771516373546 ] ] ] } },
{ "type": "Feature", "properties": { "box_id": 1, "provider": "protomaps" }, "geometry": { "type": "Polygon", "coordinates": [ [ [ -49.248941219803264, -25.427124011049163 ], [ -49.249006717482182, -25.427771516373546 ], [ -49.250249402658589, -25.427670254568472 ], [ -49.250183121570785, -25.427017196159206 ], [ -49.248941219803264, -25.427124011049163 ] ] ] } },
{ "type": "Feature", "properties": { "box_id": 1, "provider": "protomaps" }, "geometry": { "type": "Polygon", "coordinates": [ [ [ -49.248941219803264, -25.427124011049163 ], [ -49.248870321609132, -25.426423119868755 ], [ -49.248826689191475, -25.425991774377849 ], [ -49.248764215536283, -25.425374150263629 ], [ -49.248732116798706, -25.425056820932049 ], [ -49.248659954669087, -25.424343417193068 ], [ -49.248308024347466, -25.42437213083436 ], [ -49.247951601090072, -25.424401210742978 ], [ -49.247994125338586, -25.424492421981014 ], [ -49.248179197390733, -25.424833974685182 ], [ -49.248243570793377, -25.424979316717305 ], [ -49.24827843922828, -25.425114969372487 ], [ -49.24829989626415, -25.425245776633766 ], [ -49.248393774514568, -25.425999132254393 ], [ -49.248509108923407, -25.426863915741791 ], [ -49.24851179123575, -25.426958387564031 ], [ -49.248501062085758, -25.427161866516826 ], [ -49.248941219803264, -25.427124011049163 ] ] ] } },
{ "type": "Feature", "properties": { "box_id": 1, "provider": "protomaps" }, "geometry": { "type": "Polygon", "coordinates": [ [ [ -49.242474139219773, -25.428174414277123 ], [ -49.242576365221908, -25.429211161816319 ], [ -49.243752677880423, -25.429116784027446 ], [ -49.243712848867759, -25.428725575218358 ], [ -49.243337810010871, -25.428581371822109 ], [ -49.24301594543067, -25.428571682311883 ], [ -49.242774546432756, -25.428479631957714 ], [ -49.242750406257876, -25.428457830672901 ], [ -49.242720902212483, -25.428382737803268 ], [ -49.242715538028655, -25.42826888636689 ], [ -49.242664575658139, -25.428259197383998 ], [ -49.242543875723996, -25.428215594154349 ], [ -49.242474139219773, -25.428174414277123 ] ] ] } },
{ "type": "Feature", "properties": { "box_id": 1, "provider": "protomaps" }, "geometry": { "type": "Polygon", "coordinates": [ [ [ -49.244914948613257, -25.429024663777145 ], [ -49.246574523254331, -25.428891131710746 ], [ -49.246481213979031, -25.427977277463842 ], [ -49.246338098718887, -25.42798893662242 ], [ -49.244829664236192, -25.428111811282943 ], [ -49.244914948613257, -25.429024663777145 ] ] ] } },
{ "type": "Feature", "properties": { "box_id": 1, "provider": "protomaps" }, "geometry": { "type": "Polygon", "coordinates": [ [ [ -49.242715538028655, -25.42826888636689 ], [ -49.242720902212483, -25.428382737803268 ], [ -49.242750406257876, -25.428457830672901 ], [ -49.242774546432756, -25.428479631957714 ], [ -49.24301594543067, -25.428571682311883 ], [ -49.243337810010871, -25.428581371822109 ], [ -49.243712848867759, -25.428725575218358 ], [ -49.2436600615655, -25.428207073736768 ], [ -49.242841601119238, -25.428273731064237 ], [ -49.242715538028655, -25.42826888636689 ] ] ] } },
{ "type": "Feature", "properties": { "box_id": 1, "provider": "protomaps" }, "geometry": { "type": "Polygon", "coordinates": [ [ [ -49.251014292222749, -25.426338262968404 ], [ -49.250992835032314, -25.426003976214918 ], [ -49.250847995639703, -25.426006399171101 ], [ -49.250837266449331, -25.426011243989137 ], [ -49.250837266735417, -25.426020932731497 ], [ -49.250861405879299, -25.426326150900397 ], [ -49.250880182112603, -25.426343107665357 ], [ -49.251014292222749, -25.426338262968404 ] ] ] } },
{ "type": "Feature", "properties": { "box_id": 1, "provider": "protomaps" }, "geometry": { "type": "Polygon", "coordinates": [ [ [ -49.25029172989521, -25.428087296690467 ], [ -49.250292778016487, -25.428087208965014 ], [ -49.25041079534158, -25.428021805501952 ], [ -49.250480533076569, -25.427968513851187 ], [ -49.250491261614414, -25.427949134151515 ], [ -49.250493943947113, -25.427922488671069 ], [ -49.250469803832175, -25.427653605982854 ], [ -49.250469675493889, -25.427652304437661 ], [ -49.250249402658589, -25.427670254568472 ], [ -49.25029172989521, -25.428087296690467 ] ] ] } },
{ "type": "Feature", "properties": { "box_id": 1, "provider": "protomaps" }, "geometry": { "type": "Polygon", "coordinates": [ [ [ -49.244310616236454, -25.427332106659083 ], [ -49.244373025436616, -25.427191198839058 ], [ -49.243922601388746, -25.427038653549054 ], [ -49.243954718390107, -25.427188511992608 ], [ -49.244011044100183, -25.427234536819768 ], [ -49.244308769928203, -25.427331431877555 ], [ -49.244310616236454, -25.427332106659083 ] ] ] } },
{ "type": "Feature", "properties": { "box_id": 1, "provider": "protomaps" }, "geometry": { "type": "Polygon", "coordinates": [ [ [ -49.244373025436616, -25.427191198839058 ], [ -49.244310616236454, -25.427332106659083 ], [ -49.244308769928203, -25.427331431877555 ], [ -49.244011044100183, -25.427234536819768 ], [ -49.243954718390107, -25.427188511992608 ], [ -49.243922601388746, -25.427038653549054 ], [ -49.243528246755822, -25.42690509579208 ], [ -49.243527482388494, -25.426904812205439 ], [ -49.243594605803771, -25.427564138539573 ], [ -49.244445594826061, -25.427499139364624 ], [ -49.24477010973574, -25.427474350944181 ], [ -49.244755085883362, -25.427320669541587 ], [ -49.244751334603457, -25.427319320191348 ], [ -49.244373025436616, -25.427191198839058 ] ] ] } },
{ "type": "Feature", "properties": { "box_id": 1, "provider": "protomaps" }, "geometry": { "type": "Polygon", "coordinates": [ [ [ -49.244458973243823, -25.427733543726397 ], [ -49.244445594826061, -25.427499139364624 ], [ -49.243594605803771, -25.427564138539573 ], [ -49.2436600615655, -25.428207073736768 ], [ -49.244477584788875, -25.42814048817586 ], [ -49.244458973414325, -25.42786435222585 ], [ -49.244458973243823, -25.427733543726397 ] ] ] } },
{ "type": "Feature", "properties": { "box_id": 1, "provider": "protomaps" }, "geometry": { "type": "Polygon", "coordinates": [ [ [ -49.244445594826061, -25.427499139364624 ], [ -49.244458973243823, -25.427733543726397 ], [ -49.244788884629102, -25.427719009546106 ], [ -49.244792937373653, -25.427718696854633 ], [ -49.24477010973574, -25.427474350944181 ], [ -49.244445594826061, -25.427499139364624 ] ] ] } },
{ "type": "Feature", "properties": { "box_id": 1, "provider": "protomaps" }, "geometry": { "type": "Polygon", "coordinates": [ [ [ -49.244792937373653, -25.427718696854633 ], [ -49.244788884629102, -25.427719009546106 ], [ -49.244458973243823, -25.427733543726397 ], [ -49.244458973414325, -25.42786435222585 ], [ -49.244477584788875, -25.42814048817586 ], [ -49.244829664236192, -25.428111811282943 ], [ -49.244792937373653, -25.427718696854633 ] ] ] } },
{ "type": "Feature", "properties": { "box_id": 1, "provider": "protomaps" }, "geometry": { "type": "Polygon", "coordinates": [ [ [ -49.2436600615655, -25.428207073736768 ], [ -49.243594605803771, -25.427564138539573 ], [ -49.242423176310375, -25.427653606083418 ], [ -49.241788958492101, -25.427681841933005 ], [ -49.241742063260354, -25.427765051128556 ], [ -49.241841137393763, -25.427757767883644 ], [ -49.24192160381304, -25.427762612902974 ], [ -49.241983294495931, -25.427774724506001 ], [ -49.242058395868071, -25.427803792918052 ], [ -49.242114722236636, -25.427835283592017 ], [ -49.242165684718678, -25.427876463768637 ], [ -49.242420494963397, -25.428128389356427 ], [ -49.242474139219773, -25.428174414277123 ], [ -49.242543875723996, -25.428215594154349 ], [ -49.242664575658139, -25.428259197383998 ], [ -49.242715538028655, -25.42826888636689 ], [ -49.242841601119238, -25.428273731064237 ], [ -49.2436600615655, -25.428207073736768 ] ] ] } },
{ "type": "Feature", "properties": { "box_id": 1, "provider": "protomaps" }, "geometry": { "type": "Polygon", "coordinates": [ [ [ -49.243594605803771, -25.427564138539573 ], [ -49.243527482388494, -25.426904812205439 ], [ -49.242467675299601, -25.426512303408806 ], [ -49.242305159392771, -25.426452113907303 ], [ -49.242423176310375, -25.427653606083418 ], [ -49.243594605803771, -25.427564138539573 ] ] ] } },
{ "type": "Feature", "properties": { "box_id": 1, "provider": "protomaps" }, "geometry": { "type": "Polygon", "coordinates": [ [ [ -49.243527482388494, -25.426904812205439 ], [ -49.243478612071343, -25.426424779169515 ], [ -49.243021324542148, -25.426464370659065 ], [ -49.242467675299601, -25.426512303408806 ], [ -49.243527482388494, -25.426904812205439 ] ] ] } },
{ "type": "Feature", "properties": { "box_id": 1, "provider": "protomaps" }, "geometry": { "type": "Polygon", "coordinates": [ [ [ -49.243478612071343, -25.426424779169515 ], [ -49.243527482388494, -25.426904812205439 ], [ -49.243528246755822, -25.42690509579208 ], [ -49.243922601388746, -25.427038653549054 ], [ -49.244373025436616, -25.427191198839058 ], [ -49.244751334603457, -25.427319320191348 ], [ -49.244755085883362, -25.427320669541587 ], [ -49.244657526896809, -25.426322701617007 ], [ -49.243478612071343, -25.426424779169515 ] ] ] } },
{ "type": "Feature", "properties": { "box_id": 1, "provider": "protomaps" }, "geometry": { "type": "Polygon", "coordinates": [ [ [ -49.243478612071343, -25.426424779169515 ], [ -49.243311138001296, -25.424779732380287 ], [ -49.242616296302145, -25.424836397625494 ], [ -49.242618977978459, -25.42501565194015 ], [ -49.242602884990688, -25.425267578121968 ], [ -49.24254924054852, -25.425587330160777 ], [ -49.242476820740812, -25.42590465925128 ], [ -49.242380261883717, -25.426234101060199 ], [ -49.242302897900281, -25.426450935795419 ], [ -49.242305159392771, -25.426452113907303 ], [ -49.242467675299601, -25.426512303408806 ], [ -49.243021324542148, -25.426464370659065 ], [ -49.243478612071343, -25.426424779169515 ] ] ] } },
{ "type": "Feature", "properties": { "box_id": 1, "provider": "protomaps" }, "geometry": { "type": "Polygon", "coordinates": [ [ [ -49.243311138001296, -25.424779732380287 ], [ -49.243478612071343, -25.426424779169515 ], [ -49.244657526896809, -25.426322701617007 ], [ -49.244497234440978, -25.424682997345659 ], [ -49.243311138001296, -25.424779732380287 ] ] ] } },
{ "type": "Feature", "properties": { "box_id": 1, "provider": "protomaps" }, "geometry": { "type": "Polygon", "coordinates": [ [ [ -49.241610467326744, -25.427774724703021 ], [ -49.241742063260354, -25.427765051128556 ], [ -49.241788958492101, -25.427681841933005 ], [ -49.241661429105605, -25.427687518841559 ], [ -49.241506205274668, -25.427700263358556 ], [ -49.241457314088798, -25.42778651893882 ], [ -49.241610467326744, -25.427774724703021 ] ] ] } },
{ "type": "Feature", "properties": { "box_id": 1, "provider": "protomaps" }, "geometry": { "type": "Polygon", "coordinates": [ [ [ -49.246414429261584, -25.427323193847855 ], [ -49.246297772855698, -25.426180664309967 ], [ -49.245472956920004, -25.426252091905642 ], [ -49.244657526896809, -25.426322701617007 ], [ -49.244755085883362, -25.427320669541587 ], [ -49.245054424293286, -25.427428326463541 ], [ -49.245274360221025, -25.427411325339527 ], [ -49.246414429261584, -25.427323193847855 ] ] ] } },
{ "type": "Feature", "properties": { "box_id": 1, "provider": "protomaps" }, "geometry": { "type": "Polygon", "coordinates": [ [ [ -49.246297772855698, -25.426180664309967 ], [ -49.246131250312594, -25.424549713985208 ], [ -49.245307813487869, -25.424616881979233 ], [ -49.245472848622136, -25.426251057822725 ], [ -49.245472956920004, -25.426252091905642 ], [ -49.246297772855698, -25.426180664309967 ] ] ] } },
{ "type": "Feature", "properties": { "box_id": 1, "provider": "protomaps" }, "geometry": { "type": "Polygon", "coordinates": [ [ [ -49.241661429105605, -25.427687518841559 ], [ -49.241788958492101, -25.427681841933005 ], [ -49.241884052875932, -25.42751310899915 ], [ -49.241924286311793, -25.427433171165482 ], [ -49.242007434013935, -25.427234537495679 ], [ -49.241774082060893, -25.427149754562333 ], [ -49.241773399961311, -25.427149488201472 ], [ -49.241690933947588, -25.427355655516909 ], [ -49.241659517988104, -25.42741700211084 ], [ -49.241591691980382, -25.427549444271008 ], [ -49.241506205274668, -25.427700263358556 ], [ -49.241661429105605, -25.427687518841559 ] ] ] } },
{ "type": "Feature", "properties": { "box_id": 1, "provider": "protomaps" }, "geometry": { "type": "Polygon", "coordinates": [ [ [ -49.241788958492101, -25.427681841933005 ], [ -49.242423176310375, -25.427653606083418 ], [ -49.242305159392771, -25.426452113907303 ], [ -49.242302897900281, -25.426450935795419 ], [ -49.242224693175146, -25.42667012661742 ], [ -49.242007434013935, -25.427234537495679 ], [ -49.241924286311793, -25.427433171165482 ], [ -49.241884052875932, -25.42751310899915 ], [ -49.241788958492101, -25.427681841933005 ] ] ] } },
{ "type": "Feature", "properties": { "box_id": 1, "provider": "protomaps" }, "geometry": { "type": "Polygon", "coordinates": [ [ [ -49.24477010973574, -25.427474350944181 ], [ -49.245054424293286, -25.427428326463541 ], [ -49.244755085883362, -25.427320669541587 ], [ -49.24477010973574, -25.427474350944181 ] ] ] } },
{ "type": "Feature", "properties": { "box_id": 1, "provider": "protomaps" }, "geometry": { "type": "Polygon", "coordinates": [ [ [ -49.244497234440978, -25.424682997345659 ], [ -49.244657526896809, -25.426322701617007 ], [ -49.245472956920004, -25.426252091905642 ], [ -49.245472848622136, -25.426251057822725 ], [ -49.245307813487869, -25.424616881979233 ], [ -49.244497234440978, -25.424682997345659 ] ] ] } },
{ "type": "Feature", "properties": { "box_id": 1, "provider": "protomaps" }, "geometry": { "type": "Polygon", "coordinates": [ [ [ -49.241774082060893, -25.427149754562333 ], [ -49.242007434013935, -25.427234537495679 ], [ -49.242224693175146, -25.42667012661742 ], [ -49.242302897900281, -25.426450935795419 ], [ -49.242095947120085, -25.42634310788425 ], [ -49.241773399961311, -25.427149488201472 ], [ -49.241774082060893, -25.427149754562333 ] ] ] } },
{ "type": "Feature", "properties": { "box_id": 1, "provider": "protomaps" }, "geometry": { "type": "Polygon", "coordinates": [ [ [ -49.242095947120085, -25.42634310788425 ], [ -49.242302897900281, -25.426450935795419 ], [ -49.242380261883717, -25.426234101060199 ], [ -49.242476820740812, -25.42590465925128 ], [ -49.24254924054852, -25.425587330160777 ], [ -49.242602884990688, -25.425267578121968 ], [ -49.242618977978459, -25.42501565194015 ], [ -49.242616296302145, -25.424836397625494 ], [ -49.242405027447752, -25.424652842436124 ], [ -49.242436587975021, -25.424785527995613 ], [ -49.242449512317904, -25.424862855576546 ], [ -49.242458045924188, -25.424913912784383 ], [ -49.242455363038658, -25.42508590047607 ], [ -49.242436588244175, -25.425221553465516 ], [ -49.242377579227394, -25.425512236500587 ], [ -49.242326617172267, -25.425708447915234 ], [ -49.242281019790482, -25.425846522610474 ], [ -49.242095947120085, -25.42634310788425 ] ] ] } },
{ "type": "Feature", "properties": { "box_id": 1, "provider": "protomaps" }, "geometry": { "type": "Polygon", "coordinates": [ [ [ -49.242283701907446, -25.423840806202591 ], [ -49.242125451790479, -25.423944967728762 ], [ -49.242238104495854, -25.424136334265359 ], [ -49.242286384570917, -25.424245340267728 ], [ -49.242358804162613, -25.424458508858425 ], [ -49.242405027447752, -25.424652842436124 ], [ -49.242616296302145, -25.424836397625494 ], [ -49.242600202232701, -25.424703167659043 ], [ -49.242576062960111, -25.424582048940792 ], [ -49.242500960749815, -25.424305899698584 ], [ -49.242455363089135, -25.424172669758754 ], [ -49.242390989872106, -25.424022482927363 ], [ -49.242283701907446, -25.423840806202591 ] ] ] } },
{ "type": "Feature", "properties": { "box_id": 1, "provider": "protomaps" }, "geometry": { "type": "Polygon", "coordinates": [ [ [ -49.249893128587409, -25.424376148427822 ], [ -49.24985557802119, -25.424390681993511 ], [ -49.249834120071206, -25.42442217296432 ], [ -49.249826073574397, -25.424458508276896 ], [ -49.249987006100262, -25.425737516857588 ], [ -49.249997734743097, -25.425764162294684 ], [ -49.250024556983377, -25.425785963679971 ], [ -49.250059425818563, -25.425795653391141 ], [ -49.250094295032788, -25.425788386003831 ], [ -49.250131845582658, -25.42575447311652 ], [ -49.250142574498781, -25.425715715058967 ], [ -49.249995052976374, -25.424439129622392 ], [ -49.249968230395638, -25.424400372042179 ], [ -49.249927997603599, -25.424378570700746 ], [ -49.249893128587409, -25.424376148427822 ] ] ] } },
{ "type": "Feature", "properties": { "box_id": 1, "provider": "protomaps" }, "geometry": { "type": "Polygon", "coordinates": [ [ [ -49.249567097681215, -25.421198430445255 ], [ -49.248348774499391, -25.421299521083359 ], [ -49.248502152983015, -25.422806568560802 ], [ -49.249718012453528, -25.422702763941292 ], [ -49.249710738445877, -25.422602909993287 ], [ -49.249673188029426, -25.422598064254956 ], [ -49.249635636443188, -25.422571416121837 ], [ -49.249616861381888, -25.422537500330275 ], [ -49.249504208534624, -25.421420699166486 ], [ -49.249520302011248, -25.421386783506431 ], [ -49.249544442188835, -25.421360134570701 ], [ -49.249581992439111, -25.421350444505812 ], [ -49.249567097681215, -25.421198430445255 ] ] ] } },
{ "type": "Feature", "properties": { "box_id": 1, "provider": "protomaps" }, "geometry": { "type": "Polygon", "coordinates": [ [ [ -49.249581992439111, -25.421350444505812 ], [ -49.249544442188835, -25.421360134570701 ], [ -49.249520302011248, -25.421386783506431 ], [ -49.249504208534624, -25.421420699166486 ], [ -49.249616861381888, -25.422537500330275 ], [ -49.249635636443188, -25.422571416121837 ], [ -49.249673188029426, -25.422598064254956 ], [ -49.249710738445877, -25.422602909993287 ], [ -49.249748289284675, -25.422590796821943 ], [ -49.249777794115424, -25.422561726387549 ], [ -49.249791204764648, -25.422525388158817 ], [ -49.249670505191311, -25.421418276540553 ], [ -49.249657094683315, -25.421381938380673 ], [ -49.249624908260529, -25.421360135346777 ], [ -49.249581992439111, -25.421350444505812 ] ] ] } },
{ "type": "Feature", "properties": { "box_id": 1, "provider": "protomaps" }, "geometry": { "type": "Polygon", "coordinates": [ [ [ -49.250272158776852, -25.421597465822 ], [ -49.250271320576594, -25.421597546118921 ], [ -49.249827004695184, -25.421643478409777 ], [ -49.24983412042328, -25.421750167307579 ], [ -49.250244497946888, -25.421706561777835 ], [ -49.250271320621032, -25.421699294163957 ], [ -49.250282049396041, -25.421682335728779 ], [ -49.250272158776852, -25.421597465822 ] ] ] } },
{ "type": "Feature", "properties": { "box_id": 1, "provider": "protomaps" }, "geometry": { "type": "Polygon", "coordinates": [ [ [ -49.249827004695184, -25.421643478409777 ], [ -49.250271320576594, -25.421597546118921 ], [ -49.250272158776852, -25.421597465822 ], [ -49.250260591909829, -25.421498220687777 ], [ -49.250247180705379, -25.421481262759517 ], [ -49.250214993812648, -25.421476417851739 ], [ -49.249855577480588, -25.421515179332403 ], [ -49.249834120446145, -25.42152971414664 ], [ -49.249820709318186, -25.421549095280877 ], [ -49.249827004695184, -25.421643478409777 ] ] ] } },
{ "type": "Feature", "properties": { "box_id": 1, "provider": "protomaps" }, "geometry": { "type": "Polygon", "coordinates": [ [ [ -49.241956633460312, -25.422619071539089 ], [ -49.243098356022045, -25.422525536367132 ], [ -49.243013451416743, -25.421624560844371 ], [ -49.241865369108716, -25.421722960567028 ], [ -49.241956472147699, -25.422617445494406 ], [ -49.241956633460312, -25.422619071539089 ] ] ] } },
{ "type": "Feature", "properties": { "box_id": 1, "provider": "protomaps" }, "geometry": { "type": "Polygon", "coordinates": [ [ [ -49.244279162691875, -25.422428789466455 ], [ -49.243098356022045, -25.422525536367132 ], [ -49.243167746478967, -25.423261877188704 ], [ -49.24435047304825, -25.423160944176587 ], [ -49.244279162691875, -25.422428789466455 ] ] ] } },
{ "type": "Feature", "properties": { "box_id": 1, "provider": "protomaps" }, "geometry": { "type": "Polygon", "coordinates": [ [ [ -49.245898812734943, -25.422296070612919 ], [ -49.244279162691875, -25.422428789466455 ], [ -49.24435047304825, -25.423160944176587 ], [ -49.245153430065017, -25.423092415278475 ], [ -49.245973081461372, -25.423022457142206 ], [ -49.245898812734943, -25.422296070612919 ] ] ] } },
{ "type": "Feature", "properties": { "box_id": 1, "provider": "protomaps" }, "geometry": { "type": "Polygon", "coordinates": [ [ [ -49.246500134081685, -25.422246792639243 ], [ -49.245898812734943, -25.422296070612919 ], [ -49.245973081461372, -25.423022457142206 ], [ -49.246853971070706, -25.422947267633361 ], [ -49.24696047047874, -25.422938176207502 ], [ -49.246500134081685, -25.422246792639243 ] ] ] } },
{ "type": "Feature", "properties": { "box_id": 1, "provider": "protomaps" }, "geometry": { "type": "Polygon", "coordinates": [ [ [ -49.25003707078146, -25.422675522137268 ], [ -49.250542016834316, -25.422632407610077 ], [ -49.250665558160591, -25.422621858874439 ], [ -49.250641465263207, -25.422399414342358 ], [ -49.250630736399486, -25.422377611510793 ], [ -49.250601231752022, -25.422367920840195 ], [ -49.250464439504341, -25.422365498444197 ], [ -49.250416159793623, -25.422358231144681 ], [ -49.250367880043044, -25.42233885019342 ], [ -49.250121116872165, -25.422321892875786 ], [ -49.249992514868701, -25.422556617629304 ], [ -49.249997735363401, -25.422566571679436 ], [ -49.25003707078146, -25.422675522137268 ] ] ] } },
{ "type": "Feature", "properties": { "box_id": 1, "provider": "protomaps" }, "geometry": { "type": "Polygon", "coordinates": [ [ [ -49.250665558160591, -25.422621858874439 ], [ -49.250756664150565, -25.422614079114084 ], [ -49.2507165675216, -25.422336428021229 ], [ -49.25068974526824, -25.422309779699422 ], [ -49.250649512124241, -25.422300089497654 ], [ -49.250598549583366, -25.422302511558325 ], [ -49.250367880043044, -25.42233885019342 ], [ -49.250416159793623, -25.422358231144681 ], [ -49.250464439504341, -25.422365498444197 ], [ -49.250601231752022, -25.422367920840195 ], [ -49.250630736399486, -25.422377611510793 ], [ -49.250641465263207, -25.422399414342358 ], [ -49.250665558160591, -25.422621858874439 ] ] ] } },
{ "type": "Feature", "properties": { "box_id": 1, "provider": "protomaps" }, "geometry": { "type": "Polygon", "coordinates": [ [ [ -49.249866306738959, -25.422178961502038 ], [ -49.249847531512081, -25.4222201452097 ], [ -49.249844848821709, -25.422251637770625 ], [ -49.249852896004519, -25.422290399213619 ], [ -49.249992514868701, -25.422556617629304 ], [ -49.250121116872165, -25.422321892875786 ], [ -49.249992370251043, -25.422292821620822 ], [ -49.249906539838577, -25.422249215569536 ], [ -49.249879717982267, -25.422220144927142 ], [ -49.249866306738959, -25.422178961502038 ] ] ] } },
{ "type": "Feature", "properties": { "box_id": 1, "provider": "protomaps" }, "geometry": { "type": "Polygon", "coordinates": [ [ [ -49.251242233561712, -25.429757259634812 ], [ -49.251372518754224, -25.420730911240661 ], [ -49.241433222841955, -25.420612285938248 ], [ -49.241302198029018, -25.429638586320642 ], [ -49.251242233561712, -25.429757259634812 ] ], [ [ -49.250460063371236, -25.429745842249705 ], [ -49.249152838969081, -25.429216031136342 ], [ -49.249138705239041, -25.429076309577784 ], [ -49.249099419213309, -25.428687937326334 ], [ -49.249099195263952, -25.428687955421154 ], [ -49.248596081768724, -25.428728447793869 ], [ -49.247820919312581, -25.428790831808147 ], [ -49.246574523254331, -25.428891131710746 ], [ -49.244914948613257, -25.429024663777145 ], [ -49.244829664236192, -25.428111811282943 ], [ -49.244477584788875, -25.42814048817586 ], [ -49.2436600615655, -25.428207073736768 ], [ -49.243712848867759, -25.428725575218358 ], [ -49.243752677880423, -25.429116784027446 ], [ -49.242576365221908, -25.429211161816319 ], [ -49.242474139219773, -25.428174414277123 ], [ -49.242420494963397, -25.428128389356427 ], [ -49.242165684718678, -25.427876463768637 ], [ -49.242114722236636, -25.427835283592017 ], [ -49.242058395868071, -25.427803792918052 ], [ -49.241983294495931, -25.427774724506001 ], [ -49.24192160381304, -25.427762612902974 ], [ -49.241841137393763, -25.427757767883644 ], [ -49.241742063260354, -25.427765051128556 ], [ -49.241610467326744, -25.427774724703021 ], [ -49.241457314088798, -25.42778651893882 ], [ -49.241506205274668, -25.427700263358556 ], [ -49.241591691980382, -25.427549444271008 ], [ -49.241659517988104, -25.42741700211084 ], [ -49.241690933947588, -25.427355655516909 ], [ -49.241773399961311, -25.427149488201472 ], [ -49.242095947120085, -25.42634310788425 ], [ -49.242281019790482, -25.425846522610474 ], [ -49.242326617172267, -25.425708447915234 ], [ -49.242377579227394, -25.425512236500587 ], [ -49.242436588244175, -25.425221553465516 ], [ -49.242455363038658, -25.42508590047607 ], [ -49.242458045924188, -25.424913912784383 ], [ -49.242449512317904, -25.424862855576546 ], [ -49.242436587975021, -25.424785527995613 ], [ -49.242405027447752, -25.424652842436124 ], [ -49.242358804162613, -25.424458508858425 ], [ -49.242286384570917, -25.424245340267728 ], [ -49.242238104495854, -25.424136334265359 ], [ -49.242125451790479, -25.423944967728762 ], [ -49.242047667670604, -25.423833538555193 ], [ -49.241909872592124, -25.423662145818344 ], [ -49.241910874351454, -25.42366155113298 ], [ -49.241897463921518, -25.423564656102283 ], [ -49.241897463503498, -25.423506519308358 ], [ -49.24190913358315, -25.423431426087838 ], [ -49.241918280750603, -25.423372557359301 ], [ -49.241918921071871, -25.423368439283937 ], [ -49.242031338363198, -25.423358847206831 ], [ -49.243167746478967, -25.423261877188704 ], [ -49.243098356022045, -25.422525536367132 ], [ -49.244279162691875, -25.422428789466455 ], [ -49.245898812734943, -25.422296070612919 ], [ -49.246500134081685, -25.422246792639243 ], [ -49.24696047047874, -25.422938176207502 ], [ -49.247208237939759, -25.423310298076235 ], [ -49.247245788379573, -25.423382975493261 ], [ -49.247261882217032, -25.423431426074259 ], [ -49.2472699281658, -25.423455649998434 ], [ -49.247288703489488, -25.423550122438208 ], [ -49.247379724589834, -25.424447866301289 ], [ -49.247951601090072, -25.424401210742978 ], [ -49.248308024347466, -25.42437213083436 ], [ -49.248659954669087, -25.424343417193068 ], [ -49.249879052618084, -25.424243945062294 ], [ -49.249893128587409, -25.424376148427822 ], [ -49.249927997603599, -25.424378570700746 ], [ -49.249968230395638, -25.424400372042179 ], [ -49.249995052976374, -25.424439129622392 ], [ -49.250142574498781, -25.425715715058967 ], [ -49.250131845582658, -25.42575447311652 ], [ -49.250094295032788, -25.425788386003831 ], [ -49.250059425818563, -25.425795653391141 ], [ -49.250068814444369, -25.425888366148278 ], [ -49.250182807371537, -25.42701410216862 ], [ -49.250183121570785, -25.427017196159206 ], [ -49.250668549936293, -25.426975441094744 ], [ -49.251043914741807, -25.426943153399918 ], [ -49.251055826148878, -25.427115895048576 ], [ -49.251065175018155, -25.42725149431012 ], [ -49.251089329846671, -25.427601806052895 ], [ -49.250469675493889, -25.427652304437661 ], [ -49.250469803832175, -25.427653605982854 ], [ -49.250493943947113, -25.427922488671069 ], [ -49.250491261614414, -25.427949134151515 ], [ -49.250480533076569, -25.427968513851187 ], [ -49.25041079534158, -25.428021805501952 ], [ -49.250292778016487, -25.428087208965014 ], [ -49.25029172989521, -25.428087296690467 ], [ -49.250342473186784, -25.42858726182207 ], [ -49.250444601257968, -25.429593498392133 ], [ -49.250449573377246, -25.429642488785316 ], [ -49.250460063371236, -25.429745842249705 ] ], [ [ -49.251226187186852, -25.425623665274184 ], [ -49.251220822752806, -25.425638199528795 ], [ -49.25120204684201, -25.425645466469415 ], [ -49.250794350608921, -25.425684224663929 ], [ -49.250791669176301, -25.425553417326249 ], [ -49.250805079892039, -25.425543727567547 ], [ -49.251199364662071, -25.425504969468097 ], [ -49.251212775784587, -25.425517081147714 ], [ -49.251226187186852, -25.425623665274184 ] ], [ [ -49.251014292222749, -25.426338262968404 ], [ -49.250880182112603, -25.426343107665357 ], [ -49.250861405879299, -25.426326150900397 ], [ -49.250837266735417, -25.426020932731497 ], [ -49.250837266449331, -25.426011243989137 ], [ -49.250847995639703, -25.426006399171101 ], [ -49.250992835032314, -25.426003976214918 ], [ -49.251014292222749, -25.426338262968404 ] ], [ [ -49.248348774499391, -25.421299521083359 ], [ -49.249567097681215, -25.421198430445255 ], [ -49.249581992439111, -25.421350444505812 ], [ -49.249624908260529, -25.421360135346777 ], [ -49.249657094683315, -25.421381938380673 ], [ -49.249670505191311, -25.421418276540553 ], [ -49.249791204764648, -25.422525388158817 ], [ -49.249777794115424, -25.422561726387549 ], [ -49.249748289284675, -25.422590796821943 ], [ -49.249710738445877, -25.422602909993287 ], [ -49.249718012453528, -25.422702763941292 ], [ -49.248502152983015, -25.422806568560802 ], [ -49.248348774499391, -25.421299521083359 ] ], [ [ -49.24983412042328, -25.421750167307579 ], [ -49.249827004695184, -25.421643478409777 ], [ -49.249820709318186, -25.421549095280877 ], [ -49.249834120446145, -25.42152971414664 ], [ -49.249855577480588, -25.421515179332403 ], [ -49.250214993812648, -25.421476417851739 ], [ -49.250247180705379, -25.421481262759517 ], [ -49.250260591909829, -25.421498220687777 ], [ -49.250272158776852, -25.421597465822 ], [ -49.250282049396041, -25.421682335728779 ], [ -49.250271320621032, -25.421699294163957 ], [ -49.250244497946888, -25.421706561777835 ], [ -49.24983412042328, -25.421750167307579 ] ], [ [ -49.243098356022045, -25.422525536367132 ], [ -49.241956633460312, -25.422619071539089 ], [ -49.241956472147699, -25.422617445494406 ], [ -49.241865369108716, -25.421722960567028 ], [ -49.243013451416743, -25.421624560844371 ], [ -49.243098356022045, -25.422525536367132 ] ], [ [ -49.250542016834316, -25.422632407610077 ], [ -49.25003707078146, -25.422675522137268 ], [ -49.249997735363401, -25.422566571679436 ], [ -49.249992514868701, -25.422556617629304 ], [ -49.249852896004519, -25.422290399213619 ], [ -49.249844848821709, -25.422251637770625 ], [ -49.249847531512081, -25.4222201452097 ], [ -49.249866306738959, -25.422178961502038 ], [ -49.249879717982267, -25.422220144927142 ], [ -49.249906539838577, -25.422249215569536 ], [ -49.249992370251043, -25.422292821620822 ], [ -49.250121116872165, -25.422321892875786 ], [ -49.250367880043044, -25.42233885019342 ], [ -49.250598549583366, -25.422302511558325 ], [ -49.250649512124241, -25.422300089497654 ], [ -49.25068974526824, -25.422309779699422 ], [ -49.2507165675216, -25.422336428021229 ], [ -49.250756664150565, -25.422614079114084 ], [ -49.250665558160591, -25.422621858874439 ], [ -49.250542016834316, -25.422632407610077 ] ] ] } }
]
}
