{
"type": "FeatureCollection",
"name": "curitiba_1km_osmnx_sidewalk_protoblocks",
"crs": { "type": "name", "properties": { "name": "urn:ogc:def:crs:OGC:1.3:CRS84" } },
"features": [
{ "type": "Feature", "properties": { "box_id": 1, "provider": "osmnx" }, "geometry": { "type": "Polygon", "coordinates": [ [ [ -49.295425800131305, -25.43150450011354 ], [ -49.295382099855857, -25.431581000228267 ], [ -49.296487000387401, -25.432017699726554 ], [ -49.29757799988144, -25.43244889993208 ], [ -49.298448300029229, -25.432792899772455 ], [ -49.298708799834131, -25.432895900071124 ], [ -49.298836813365988, -25.432946518745471 ], [ -49.298917657199098, -25.432782730440586 ], [ -49.29878899971304, -25.4327320998689 ], [ -49.298528199685556, -25.432629399586041 ], [ -49.29765820030515, -25.432286700161566 ], [ -49.296566800458514, -25.431856899806206 ], [ -49.295470499574918, -25.431425100039313 ], [ -49.295425800131305, -25.43150450011354 ] ] ] } },
{ "type": "Feature", "properties": { "box_id": 1, "provider": "osmnx" }, "geometry": { "type": "Polygon", "coordinates": [ [ [ -49.295382099855857, -25.431581000228267 ], [ -49.295425800131305, -25.43150450011354 ], [ -49.295470499574918, -25.431425100039313 ], [ -49.294310600207005, -25.4309687000293 ], [ -49.293115299683919, -25.4305002995719 ], [ -49.293076899834226, -25.430579100408774 ], [ -49.293038600204277, -25.430656500346071 ], [ -49.294231400011533, -25.431126699700727 ], [ -49.295382099855857, -25.431581000228267 ] ] ] } },
{ "type": "Feature", "properties": { "box_id": 1, "provider": "osmnx" }, "geometry": { "type": "Polygon", "coordinates": [ [ [ -49.295382099855857, -25.431581000228267 ], [ -49.294909199915274, -25.432419300305746 ], [ -49.296062700094765, -25.432872700442047 ], [ -49.29715549965524, -25.433302299828263 ], [ -49.298416200487573, -25.433797900417499 ], [ -49.298441199727733, -25.433747699862661 ], [ -49.298742399737755, -25.433137799978535 ], [ -49.298836813365988, -25.432946518745471 ], [ -49.298708799834131, -25.432895900071124 ], [ -49.298448300029229, -25.432792899772455 ], [ -49.29757799988144, -25.43244889993208 ], [ -49.296487000387401, -25.432017699726554 ], [ -49.295382099855857, -25.431581000228267 ] ] ] } },
{ "type": "Feature", "properties": { "box_id": 1, "provider": "osmnx" }, "geometry": { "type": "Polygon", "coordinates": [ [ [ -49.294909199915274, -25.432419300305746 ], [ -49.295382099855857, -25.431581000228267 ], [ -49.294231400011533, -25.431126699700727 ], [ -49.293801400485762, -25.431984399778987 ], [ -49.294909199915274, -25.432419300305746 ] ] ] } },
{ "type": "Feature", "properties": { "box_id": 1, "provider": "osmnx" }, "geometry": { "type": "Polygon", "coordinates": [ [ [ -49.294909199915274, -25.432419300305746 ], [ -49.294287699678485, -25.433516900025882 ], [ -49.295505199600335, -25.433995400228856 ], [ -49.295525699627383, -25.433953999985135 ], [ -49.296062700094765, -25.432872700442047 ], [ -49.294909199915274, -25.432419300305746 ] ] ] } },
{ "type": "Feature", "properties": { "box_id": 1, "provider": "osmnx" }, "geometry": { "type": "Polygon", "coordinates": [ [ [ -49.294287699678485, -25.433516900025882 ], [ -49.294909199915274, -25.432419300305746 ], [ -49.293801400485762, -25.431984399778987 ], [ -49.29354669969063, -25.432492399764477 ], [ -49.293514100227249, -25.432557400130925 ], [ -49.293259999984102, -25.433064299628583 ], [ -49.293239299946158, -25.433105599708604 ], [ -49.294287699678485, -25.433516900025882 ] ] ] } },
{ "type": "Feature", "properties": { "box_id": 1, "provider": "osmnx" }, "geometry": { "type": "Polygon", "coordinates": [ [ [ -49.294287699678485, -25.433516900025882 ], [ -49.293852100396691, -25.434286599946567 ], [ -49.295113399941002, -25.434785299791969 ], [ -49.295134700257329, -25.434742300113985 ], [ -49.29548769991893, -25.434030599632994 ], [ -49.295505199600335, -25.433995400228856 ], [ -49.294287699678485, -25.433516900025882 ] ] ] } },
{ "type": "Feature", "properties": { "box_id": 1, "provider": "osmnx" }, "geometry": { "type": "Polygon", "coordinates": [ [ [ -49.293852100396691, -25.434286599946567 ], [ -49.294287699678485, -25.433516900025882 ], [ -49.293239299946158, -25.433105599708604 ], [ -49.292869900289304, -25.43384249963329 ], [ -49.292846299582131, -25.433889599832359 ], [ -49.293852100396691, -25.434286599946567 ] ] ] } },
{ "type": "Feature", "properties": { "box_id": 1, "provider": "osmnx" }, "geometry": { "type": "Polygon", "coordinates": [ [ [ -49.293852100396691, -25.434286599946567 ], [ -49.293419400094521, -25.435051600380827 ], [ -49.293296499642665, -25.435269099841157 ], [ -49.293342699527415, -25.43528690006664 ], [ -49.294590699628728, -25.435766000170734 ], [ -49.294620299718538, -25.435777399588495 ], [ -49.29509530049117, -25.434821700123848 ], [ -49.295113399941002, -25.434785299791969 ], [ -49.293852100396691, -25.434286599946567 ] ] ] } },
{ "type": "Feature", "properties": { "box_id": 1, "provider": "osmnx" }, "geometry": { "type": "Polygon", "coordinates": [ [ [ -49.293296499642665, -25.435269099841157 ], [ -49.293419400094521, -25.435051600380827 ], [ -49.293852100396691, -25.434286599946567 ], [ -49.292846299582131, -25.433889599832359 ], [ -49.292830500360843, -25.433931000136038 ], [ -49.292555200434101, -25.434651399832426 ], [ -49.292594099591774, -25.434816000281572 ], [ -49.292613599795686, -25.434877399886371 ], [ -49.292650300458433, -25.434954300117361 ], [ -49.292670699803374, -25.434986200300969 ], [ -49.292718199950365, -25.435060700018159 ], [ -49.293027599582039, -25.435169700118319 ], [ -49.293242200321849, -25.435248999935975 ], [ -49.293296499642665, -25.435269099841157 ] ] ] } },
{ "type": "Feature", "properties": { "box_id": 1, "provider": "osmnx" }, "geometry": { "type": "Polygon", "coordinates": [ [ [ -49.293296499642665, -25.435269099841157 ], [ -49.292938699822919, -25.435902099981199 ], [ -49.292986700037176, -25.435921199616981 ], [ -49.294258399893678, -25.436427400410576 ], [ -49.294291100502143, -25.43644039956169 ], [ -49.294620299718538, -25.435777399588495 ], [ -49.294590699628728, -25.435766000170734 ], [ -49.293342699527415, -25.43528690006664 ], [ -49.293296499642665, -25.435269099841157 ] ] ] } },
{ "type": "Feature", "properties": { "box_id": 1, "provider": "osmnx" }, "geometry": { "type": "Polygon", "coordinates": [ [ [ -49.292938699822919, -25.435902099981199 ], [ -49.293296499642665, -25.435269099841157 ], [ -49.293242200321849, -25.435248999935975 ], [ -49.293027599582039, -25.435169700118319 ], [ -49.292718199950365, -25.435060700018159 ], [ -49.292384499903164, -25.434973200449708 ], [ -49.291096900388133, -25.43602219958597 ], [ -49.291065999637354, -25.436047400126178 ], [ -49.291867099855409, -25.436363299818815 ], [ -49.292481499941573, -25.436605699854262 ], [ -49.292528700060892, -25.436624300123274 ], [ -49.292938699822919, -25.435902099981199 ] ] ] } },
{ "type": "Feature", "properties": { "box_id": 1, "provider": "osmnx" }, "geometry": { "type": "Polygon", "coordinates": [ [ [ -49.291691600019973, -25.434714700353922 ], [ -49.292384499903164, -25.434973200449708 ], [ -49.292425600352857, -25.434938099805606 ], [ -49.292458099848226, -25.43489530027594 ], [ -49.292555200434101, -25.434651399832426 ], [ -49.292830500360843, -25.433931000136038 ], [ -49.292846299582131, -25.433889599832359 ], [ -49.292187799682544, -25.433628500265243 ], [ -49.291685800307711, -25.433429899937387 ], [ -49.291358999622723, -25.434099800377645 ], [ -49.2914330004402, -25.434251699843834 ], [ -49.291615799904534, -25.434627299653936 ], [ -49.291623599892162, -25.434638699769387 ], [ -49.291644500452129, -25.43466929956082 ], [ -49.291691600019973, -25.434714700353922 ] ] ] } },
{ "type": "Feature", "properties": { "box_id": 1, "provider": "osmnx" }, "geometry": { "type": "Polygon", "coordinates": [ [ [ -49.292384499903164, -25.434973200449708 ], [ -49.291691600019973, -25.434714700353922 ], [ -49.291634499731273, -25.434721999806953 ], [ -49.291596199697992, -25.434732799601949 ], [ -49.291020500147127, -25.434950400191877 ], [ -49.290969499675448, -25.434978599776628 ], [ -49.29092960026302, -25.435013600218095 ], [ -49.29089290001459, -25.435055100123535 ], [ -49.290514800385999, -25.435830000004085 ], [ -49.29055790034041, -25.435847000343532 ], [ -49.291065999637354, -25.436047400126178 ], [ -49.291096900388133, -25.43602219958597 ], [ -49.292384499903164, -25.434973200449708 ] ] ] } },
{ "type": "Feature", "properties": { "box_id": 1, "provider": "osmnx" }, "geometry": { "type": "Polygon", "coordinates": [ [ [ -49.292384499903164, -25.434973200449708 ], [ -49.292718199950365, -25.435060700018159 ], [ -49.292670699803374, -25.434986200300969 ], [ -49.292650300458433, -25.434954300117361 ], [ -49.292613599795686, -25.434877399886371 ], [ -49.292594099591774, -25.434816000281572 ], [ -49.292555200434101, -25.434651399832426 ], [ -49.292458099848226, -25.43489530027594 ], [ -49.292425600352857, -25.434938099805606 ], [ -49.292384499903164, -25.434973200449708 ] ] ] } },
{ "type": "Feature", "properties": { "box_id": 1, "provider": "osmnx" }, "geometry": { "type": "Polygon", "coordinates": [ [ [ -49.29089290001459, -25.435055100123535 ], [ -49.29092960026302, -25.435013600218095 ], [ -49.290969499675448, -25.434978599776628 ], [ -49.291020500147127, -25.434950400191877 ], [ -49.291596199697992, -25.434732799601949 ], [ -49.291634499731273, -25.434721999806953 ], [ -49.291691600019973, -25.434714700353922 ], [ -49.291644500452129, -25.43466929956082 ], [ -49.291623599892162, -25.434638699769387 ], [ -49.291615799904534, -25.434627299653936 ], [ -49.2914330004402, -25.434251699843834 ], [ -49.291358999622723, -25.434099800377645 ], [ -49.290748599656915, -25.434252000093181 ], [ -49.290702499736213, -25.434296700240765 ], [ -49.290684399605524, -25.434337500223712 ], [ -49.290676099582093, -25.434378299601924 ], [ -49.290681799724808, -25.434417800278844 ], [ -49.290697300129708, -25.434455600380428 ], [ -49.290877700108801, -25.434795999976906 ], [ -49.290891700141415, -25.434846000204445 ], [ -49.29090120006245, -25.434901299867938 ], [ -49.290903099970457, -25.434957099718524 ], [ -49.29089290001459, -25.435055100123535 ] ] ] } },
{ "type": "Feature", "properties": { "box_id": 1, "provider": "osmnx" }, "geometry": { "type": "Polygon", "coordinates": [ [ [ -49.296208200411783, -25.435218199864231 ], [ -49.295757200225054, -25.435039900121442 ], [ -49.295113399941002, -25.434785299791969 ], [ -49.29509530049117, -25.434821700123848 ], [ -49.294620299718538, -25.435777399588495 ], [ -49.294653199528845, -25.43578979970151 ], [ -49.295679599661902, -25.436177299555457 ], [ -49.295724900389558, -25.436194399784291 ], [ -49.296208200411783, -25.435218199864231 ] ] ] } },
{ "type": "Feature", "properties": { "box_id": 1, "provider": "osmnx" }, "geometry": { "type": "Polygon", "coordinates": [ [ [ -49.295757200225054, -25.435039900121442 ], [ -49.296208200411783, -25.435218199864231 ], [ -49.296599900387761, -25.434425600265811 ], [ -49.295505199600335, -25.433995400228856 ], [ -49.29548769991893, -25.434030599632994 ], [ -49.295134700257329, -25.434742300113985 ], [ -49.295113399941002, -25.434785299791969 ], [ -49.295757200225054, -25.435039900121442 ] ] ] } },
{ "type": "Feature", "properties": { "box_id": 1, "provider": "osmnx" }, "geometry": { "type": "Polygon", "coordinates": [ [ [ -49.292187799682544, -25.433628500265243 ], [ -49.292846299582131, -25.433889599832359 ], [ -49.292869900289304, -25.43384249963329 ], [ -49.293239299946158, -25.433105599708604 ], [ -49.292294399520166, -25.432733499855896 ], [ -49.292284199586447, -25.432788799734357 ], [ -49.292215899741599, -25.433158200252549 ], [ -49.292200199826553, -25.43329140029185 ], [ -49.292194999839673, -25.433404999813892 ], [ -49.292189500006337, -25.433577299601829 ], [ -49.292187799682544, -25.433628500265243 ] ] ] } },
{ "type": "Feature", "properties": { "box_id": 1, "provider": "osmnx" }, "geometry": { "type": "Polygon", "coordinates": [ [ [ -49.291685800307711, -25.433429899937387 ], [ -49.292187799682544, -25.433628500265243 ], [ -49.292189500006337, -25.433577299601829 ], [ -49.292194999839673, -25.433404999813892 ], [ -49.292200199826553, -25.43329140029185 ], [ -49.292215899741599, -25.433158200252549 ], [ -49.292284199586447, -25.432788799734357 ], [ -49.292294399520166, -25.432733499855896 ], [ -49.292068899602164, -25.432644800325342 ], [ -49.291685800307711, -25.433429899937387 ] ] ] } },
{ "type": "Feature", "properties": { "box_id": 1, "provider": "osmnx" }, "geometry": { "type": "Polygon", "coordinates": [ [ [ -49.289703400470707, -25.432646100036791 ], [ -49.291685800307711, -25.433429899937387 ], [ -49.292068899602164, -25.432644800325342 ], [ -49.290929499557215, -25.432196999984821 ], [ -49.290694800001198, -25.432104799550014 ], [ -49.290498500196385, -25.432027599725561 ], [ -49.29032070023824, -25.431957700161909 ], [ -49.290068700006415, -25.431858699717313 ], [ -49.289703400470707, -25.432646100036791 ] ] ] } },
{ "type": "Feature", "properties": { "box_id": 1, "provider": "osmnx" }, "geometry": { "type": "Polygon", "coordinates": [ [ [ -49.293239299946158, -25.433105599708604 ], [ -49.293259999984102, -25.433064299628583 ], [ -49.293514100227249, -25.432557400130925 ], [ -49.29354669969063, -25.432492399764477 ], [ -49.293801400485762, -25.431984399778987 ], [ -49.292618299911695, -25.43151869977433 ], [ -49.292456499547527, -25.431850099905841 ], [ -49.29234230035221, -25.432084100159745 ], [ -49.292274200113688, -25.432223700375108 ], [ -49.292068899602164, -25.432644800325342 ], [ -49.292294399520166, -25.432733499855896 ], [ -49.293239299946158, -25.433105599708604 ] ] ] } },
{ "type": "Feature", "properties": { "box_id": 1, "provider": "osmnx" }, "geometry": { "type": "Polygon", "coordinates": [ [ [ -49.292068899602164, -25.432644800325342 ], [ -49.292274200113688, -25.432223700375108 ], [ -49.29234230035221, -25.432084100159745 ], [ -49.292298200093256, -25.432066900064964 ], [ -49.291389799612674, -25.431711400032132 ], [ -49.291335800276521, -25.431684900311726 ], [ -49.291293200295293, -25.431651299936274 ], [ -49.29126079963968, -25.431610600303127 ], [ -49.291161499516356, -25.43141060041496 ], [ -49.291144000467661, -25.431375300435686 ], [ -49.290408800370493, -25.431583099879223 ], [ -49.290315499730895, -25.431609400402063 ], [ -49.290163200346001, -25.431652500447697 ], [ -49.290068700006415, -25.431858699717313 ], [ -49.29032070023824, -25.431957700161909 ], [ -49.290498500196385, -25.432027599725561 ], [ -49.290694800001198, -25.432104799550014 ], [ -49.290929499557215, -25.432196999984821 ], [ -49.292068899602164, -25.432644800325342 ] ] ] } },
{ "type": "Feature", "properties": { "box_id": 1, "provider": "osmnx" }, "geometry": { "type": "Polygon", "coordinates": [ [ [ -49.29234230035221, -25.432084100159745 ], [ -49.292456499547527, -25.431850099905841 ], [ -49.292618299911695, -25.43151869977433 ], [ -49.29171540025272, -25.431163700047644 ], [ -49.291662499732674, -25.431196900144055 ], [ -49.291633499632127, -25.431215100085517 ], [ -49.291539900126516, -25.431255999844218 ], [ -49.291423499995609, -25.43129630029151 ], [ -49.291144000467661, -25.431375300435686 ], [ -49.291161499516356, -25.43141060041496 ], [ -49.29126079963968, -25.431610600303127 ], [ -49.291293200295293, -25.431651299936274 ], [ -49.291335800276521, -25.431684900311726 ], [ -49.291389799612674, -25.431711400032132 ], [ -49.292298200093256, -25.432066900064964 ], [ -49.29234230035221, -25.432084100159745 ] ] ] } },
{ "type": "Feature", "properties": { "box_id": 1, "provider": "osmnx" }, "geometry": { "type": "Polygon", "coordinates": [ [ [ -49.293801400485762, -25.431984399778987 ], [ -49.294231400011533, -25.431126699700727 ], [ -49.293038600204277, -25.430656500346071 ], [ -49.292618299911695, -25.43151869977433 ], [ -49.293801400485762, -25.431984399778987 ] ] ] } },
{ "type": "Feature", "properties": { "box_id": 1, "provider": "osmnx" }, "geometry": { "type": "Polygon", "coordinates": [ [ [ -49.292618299911695, -25.43151869977433 ], [ -49.293038600204277, -25.430656500346071 ], [ -49.292610400456127, -25.430486899650599 ], [ -49.292283900136837, -25.430357500105774 ], [ -49.29171540025272, -25.431163700047644 ], [ -49.292618299911695, -25.43151869977433 ] ] ] } },
{ "type": "Feature", "properties": { "box_id": 1, "provider": "osmnx" }, "geometry": { "type": "Polygon", "coordinates": [ [ [ -49.293038600204277, -25.430656500346071 ], [ -49.293076899834226, -25.430579100408774 ], [ -49.293115299683919, -25.4305002995719 ], [ -49.292955500210276, -25.430437099917778 ], [ -49.292508299950647, -25.430260399700252 ], [ -49.292446200338425, -25.430235799627223 ], [ -49.292122500249334, -25.430107900260232 ], [ -49.291062700133082, -25.429688999614537 ], [ -49.291025300272373, -25.429770699574647 ], [ -49.290991199996668, -25.429845499882212 ], [ -49.292048900029179, -25.43026450034677 ], [ -49.292283900136837, -25.430357500105774 ], [ -49.292610400456127, -25.430486899650599 ], [ -49.293038600204277, -25.430656500346071 ] ] ] } },
{ "type": "Feature", "properties": { "box_id": 1, "provider": "osmnx" }, "geometry": { "type": "Polygon", "coordinates": [ [ [ -49.291062700133082, -25.429688999614537 ], [ -49.289900899669568, -25.429231400010309 ], [ -49.28986250014686, -25.429312599599832 ], [ -49.289827799537889, -25.42938580008747 ], [ -49.290991199996668, -25.429845499882212 ], [ -49.291025300272373, -25.429770699574647 ], [ -49.291062700133082, -25.429688999614537 ] ] ] } },
{ "type": "Feature", "properties": { "box_id": 1, "provider": "osmnx" }, "geometry": { "type": "Polygon", "coordinates": [ [ [ -49.291062700133082, -25.429688999614537 ], [ -49.292122500249334, -25.430107900260232 ], [ -49.292146499783648, -25.430057999769303 ], [ -49.292683299648964, -25.428940300251494 ], [ -49.292702899832854, -25.428899400005292 ], [ -49.291620500242757, -25.428471399873391 ], [ -49.29137079959397, -25.429016399733136 ], [ -49.291062700133082, -25.429688999614537 ] ] ] } },
{ "type": "Feature", "properties": { "box_id": 1, "provider": "osmnx" }, "geometry": { "type": "Polygon", "coordinates": [ [ [ -49.292122500249334, -25.430107900260232 ], [ -49.292446200338425, -25.430235799627223 ], [ -49.29400600012594, -25.429414800203542 ], [ -49.292702899832854, -25.428899400005292 ], [ -49.292683299648964, -25.428940300251494 ], [ -49.292146499783648, -25.430057999769303 ], [ -49.292122500249334, -25.430107900260232 ] ] ] } },
{ "type": "Feature", "properties": { "box_id": 1, "provider": "osmnx" }, "geometry": { "type": "Polygon", "coordinates": [ [ [ -49.292446200338425, -25.430235799627223 ], [ -49.292508299950647, -25.430260399700252 ], [ -49.292955500210276, -25.430437099917778 ], [ -49.293115299683919, -25.4305002995719 ], [ -49.293271400167043, -25.430182399596752 ], [ -49.293281300128626, -25.430165199782934 ], [ -49.293290400226503, -25.430152200440805 ], [ -49.293303499995659, -25.430136800072663 ], [ -49.293314699906773, -25.430125700245757 ], [ -49.293336299542695, -25.430108500038031 ], [ -49.29384630019829, -25.429734500114051 ], [ -49.294160799843873, -25.429475900295845 ], [ -49.294064000144303, -25.429437599665658 ], [ -49.29400600012594, -25.429414800203542 ], [ -49.292446200338425, -25.430235799627223 ] ] ] } },
{ "type": "Feature", "properties": { "box_id": 1, "provider": "osmnx" }, "geometry": { "type": "Polygon", "coordinates": [ [ [ -49.293115299683919, -25.4305002995719 ], [ -49.294310600207005, -25.4309687000293 ], [ -49.294907900240062, -25.429777500240117 ], [ -49.294160799843873, -25.429475900295845 ], [ -49.29384630019829, -25.429734500114051 ], [ -49.293336299542695, -25.430108500038031 ], [ -49.293314699906773, -25.430125700245757 ], [ -49.293303499995659, -25.430136800072663 ], [ -49.293290400226503, -25.430152200440805 ], [ -49.293281300128626, -25.430165199782934 ], [ -49.293271400167043, -25.430182399596752 ], [ -49.293115299683919, -25.4305002995719 ] ] ] } },
{ "type": "Feature", "properties": { "box_id": 1, "provider": "osmnx" }, "geometry": { "type": "Polygon", "coordinates": [ [ [ -49.294310600207005, -25.4309687000293 ], [ -49.295470499574918, -25.431425100039313 ], [ -49.295968000031053, -25.43053880032716 ], [ -49.296122599924352, -25.430266699569753 ], [ -49.294907900240062, -25.429777500240117 ], [ -49.294310600207005, -25.4309687000293 ] ] ] } },
{ "type": "Feature", "properties": { "box_id": 1, "provider": "osmnx" }, "geometry": { "type": "Polygon", "coordinates": [ [ [ -49.295470499574918, -25.431425100039313 ], [ -49.296566800458514, -25.431856899806206 ], [ -49.29765820030515, -25.432286700161566 ], [ -49.298236099929944, -25.431118100243641 ], [ -49.297911499589013, -25.430987399689791 ], [ -49.297150500371274, -25.430680799894382 ], [ -49.296122599924352, -25.430266699569753 ], [ -49.295968000031053, -25.43053880032716 ], [ -49.295470499574918, -25.431425100039313 ] ] ] } },
{ "type": "Feature", "properties": { "box_id": 1, "provider": "osmnx" }, "geometry": { "type": "Polygon", "coordinates": [ [ [ -49.294235100344089, -25.429332600000745 ], [ -49.294160799843873, -25.429475900295845 ], [ -49.294907900240062, -25.429777500240117 ], [ -49.295214099791366, -25.429166299706491 ], [ -49.29545110010033, -25.428693500403298 ], [ -49.295178399631503, -25.428841699757502 ], [ -49.295079100442678, -25.428890299862939 ], [ -49.294971099865073, -25.428935100118835 ], [ -49.29464079998538, -25.42906650038638 ], [ -49.294509000021357, -25.429127699659009 ], [ -49.294411799999466, -25.429180399815948 ], [ -49.294333399914279, -25.429238400074301 ], [ -49.294235100344089, -25.429332600000745 ] ] ] } },
{ "type": "Feature", "properties": { "box_id": 1, "provider": "osmnx" }, "geometry": { "type": "Polygon", "coordinates": [ [ [ -49.290991199996668, -25.429845499882212 ], [ -49.290589499743049, -25.430721100345771 ], [ -49.29171540025272, -25.431163700047644 ], [ -49.292283900136837, -25.430357500105774 ], [ -49.292048900029179, -25.43026450034677 ], [ -49.290991199996668, -25.429845499882212 ] ] ] } },
{ "type": "Feature", "properties": { "box_id": 1, "provider": "osmnx" }, "geometry": { "type": "Polygon", "coordinates": [ [ [ -49.290589499743049, -25.430721100345771 ], [ -49.290991199996668, -25.429845499882212 ], [ -49.289827799537889, -25.42938580008747 ], [ -49.289414100301904, -25.430258900196083 ], [ -49.290589499743049, -25.430721100345771 ] ] ] } },
{ "type": "Feature", "properties": { "box_id": 1, "provider": "osmnx" }, "geometry": { "type": "Polygon", "coordinates": [ [ [ -49.290589499743049, -25.430721100345771 ], [ -49.290163200346001, -25.431652500447697 ], [ -49.290315499730895, -25.431609400402063 ], [ -49.290408800370493, -25.431583099879223 ], [ -49.291144000467661, -25.431375300435686 ], [ -49.291423499995609, -25.43129630029151 ], [ -49.291539900126516, -25.431255999844218 ], [ -49.291633499632127, -25.431215100085517 ], [ -49.291662499732674, -25.431196900144055 ], [ -49.29171540025272, -25.431163700047644 ], [ -49.290589499743049, -25.430721100345771 ] ] ] } },
{ "type": "Feature", "properties": { "box_id": 1, "provider": "osmnx" }, "geometry": { "type": "Polygon", "coordinates": [ [ [ -49.290068700006415, -25.431858699717313 ], [ -49.290163200346001, -25.431652500447697 ], [ -49.289720000458765, -25.431746899740542 ], [ -49.290068700006415, -25.431858699717313 ] ] ] } },
{ "type": "Feature", "properties": { "box_id": 1, "provider": "osmnx" }, "geometry": { "type": "Polygon", "coordinates": [ [ [ -49.297469299806856, -25.435716800209075 ], [ -49.298011300484255, -25.435931099668831 ], [ -49.2985671995744, -25.43615100030425 ], [ -49.298590100289246, -25.436103500103918 ], [ -49.298934899704612, -25.435388700299995 ], [ -49.298953299799159, -25.435350500038417 ], [ -49.297861300314629, -25.434921400015774 ], [ -49.297469299806856, -25.435716800209075 ] ] ] } },
{ "type": "Feature", "properties": { "box_id": 1, "provider": "osmnx" }, "geometry": { "type": "Polygon", "coordinates": [ [ [ -49.297469299806856, -25.435716800209075 ], [ -49.297305599868956, -25.435652099921562 ], [ -49.296208200411783, -25.435218199864231 ], [ -49.295724900389558, -25.436194399784291 ], [ -49.295783500358318, -25.436185699663845 ], [ -49.295922299946909, -25.436165000152414 ], [ -49.295909000010219, -25.436190499860913 ], [ -49.295846099804244, -25.436311400037393 ], [ -49.295828200061337, -25.436345899662907 ], [ -49.296107600474414, -25.437069499910375 ], [ -49.296121400040036, -25.437105299929744 ], [ -49.296839499855693, -25.436886899636512 ], [ -49.296900199588791, -25.436868400038854 ], [ -49.297083000469428, -25.436498299724896 ], [ -49.297261499845945, -25.436136699694352 ], [ -49.297469299806856, -25.435716800209075 ] ] ] } },
{ "type": "Feature", "properties": { "box_id": 1, "provider": "osmnx" }, "geometry": { "type": "Polygon", "coordinates": [ [ [ -49.296208200411783, -25.435218199864231 ], [ -49.297305599868956, -25.435652099921562 ], [ -49.297469299806856, -25.435716800209075 ], [ -49.297861300314629, -25.434921400015774 ], [ -49.296599900387761, -25.434425600265811 ], [ -49.296208200411783, -25.435218199864231 ] ] ] } },
{ "type": "Feature", "properties": { "box_id": 1, "provider": "osmnx" }, "geometry": { "type": "Polygon", "coordinates": [ [ [ -49.297861300314629, -25.434921400015774 ], [ -49.298379700438232, -25.43387219986607 ], [ -49.298416200487573, -25.433797900417499 ], [ -49.29715549965524, -25.433302299828263 ], [ -49.296599900387761, -25.434425600265811 ], [ -49.297861300314629, -25.434921400015774 ] ] ] } },
{ "type": "Feature", "properties": { "box_id": 1, "provider": "osmnx" }, "geometry": { "type": "Polygon", "coordinates": [ [ [ -49.295724900389558, -25.436194399784291 ], [ -49.295766400142696, -25.436255299575073 ], [ -49.295828200061337, -25.436345899662907 ], [ -49.295846099804244, -25.436311400037393 ], [ -49.295909000010219, -25.436190499860913 ], [ -49.295922299946909, -25.436165000152414 ], [ -49.295783500358318, -25.436185699663845 ], [ -49.295724900389558, -25.436194399784291 ] ] ] } },
{ "type": "Feature", "properties": { "box_id": 1, "provider": "osmnx" }, "geometry": { "type": "Polygon", "coordinates": [ [ [ -49.296062700094765, -25.432872700442047 ], [ -49.295525699627383, -25.433953999985135 ], [ -49.295505199600335, -25.433995400228856 ], [ -49.296599900387761, -25.434425600265811 ], [ -49.29715549965524, -25.433302299828263 ], [ -49.296062700094765, -25.432872700442047 ] ] ] } },
{ "type": "Feature", "properties": { "box_id": 1, "provider": "osmnx" }, "geometry": { "type": "Polygon", "coordinates": [ [ [ -49.296122599924352, -25.430266699569753 ], [ -49.297150500371274, -25.430680799894382 ], [ -49.297167899784952, -25.430645800401397 ], [ -49.297547500443955, -25.429881000292177 ], [ -49.297876399877119, -25.429218900308708 ], [ -49.297889299539627, -25.429193000286702 ], [ -49.29701429957079, -25.428846700121646 ], [ -49.296940299721328, -25.428817400308386 ], [ -49.296122599924352, -25.430266699569753 ] ] ] } },
{ "type": "Feature", "properties": { "box_id": 1, "provider": "osmnx" }, "geometry": { "type": "Polygon", "coordinates": [ [ [ -49.297150500371274, -25.430680799894382 ], [ -49.297911499589013, -25.430987399689791 ], [ -49.298236099929944, -25.431118100243641 ], [ -49.298256199509289, -25.431077500208183 ], [ -49.298975900233792, -25.429623000026403 ], [ -49.297889299539627, -25.429193000286702 ], [ -49.297876399877119, -25.429218900308708 ], [ -49.297547500443955, -25.429881000292177 ], [ -49.297167899784952, -25.430645800401397 ], [ -49.297150500371274, -25.430680799894382 ] ] ] } },
{ "type": "Feature", "properties": { "box_id": 1, "provider": "osmnx" }, "geometry": { "type": "Polygon", "coordinates": [ [ [ -49.296122599924352, -25.430266699569753 ], [ -49.296940299721328, -25.428817400308386 ], [ -49.296022600012904, -25.428454300183482 ], [ -49.295934000189511, -25.428419199743182 ], [ -49.29545110010033, -25.428693500403298 ], [ -49.295214099791366, -25.429166299706491 ], [ -49.294907900240062, -25.429777500240117 ], [ -49.296122599924352, -25.430266699569753 ] ] ] } },
{ "type": "Feature", "properties": { "box_id": 1, "provider": "osmnx" }, "geometry": { "type": "Polygon", "coordinates": [ [ [ -49.299147698039398, -25.437202866729752 ], [ -49.299274457673874, -25.428176299212151 ], [ -49.289334298930669, -25.428060881900997 ], [ -49.289206799307806, -25.437087402714042 ], [ -49.299147698039398, -25.437202866729752 ] ], [ [ -49.292938699822919, -25.435902099981199 ], [ -49.292528700060892, -25.436624300123274 ], [ -49.292481499941573, -25.436605699854262 ], [ -49.291867099855409, -25.436363299818815 ], [ -49.291065999637354, -25.436047400126178 ], [ -49.29055790034041, -25.435847000343532 ], [ -49.290514800385999, -25.435830000004085 ], [ -49.29089290001459, -25.435055100123535 ], [ -49.290903099970457, -25.434957099718524 ], [ -49.29090120006245, -25.434901299867938 ], [ -49.290891700141415, -25.434846000204445 ], [ -49.290877700108801, -25.434795999976906 ], [ -49.290697300129708, -25.434455600380428 ], [ -49.290681799724808, -25.434417800278844 ], [ -49.290676099582093, -25.434378299601924 ], [ -49.290684399605524, -25.434337500223712 ], [ -49.290702499736213, -25.434296700240765 ], [ -49.290748599656915, -25.434252000093181 ], [ -49.291358999622723, -25.434099800377645 ], [ -49.291685800307711, -25.433429899937387 ], [ -49.289703400470707, -25.432646100036791 ], [ -49.290068700006415, -25.431858699717313 ], [ -49.289720000458765, -25.431746899740542 ], [ -49.290163200346001, -25.431652500447697 ], [ -49.290589499743049, -25.430721100345771 ], [ -49.289414100301904, -25.430258900196083 ], [ -49.289827799537889, -25.42938580008747 ], [ -49.28986250014686, -25.429312599599832 ], [ -49.289900899669568, -25.429231400010309 ], [ -49.291062700133082, -25.429688999614537 ], [ -49.29137079959397, -25.429016399733136 ], [ -49.291620500242757, -25.428471399873391 ], [ -49.292702899832854, -25.428899400005292 ], [ -49.29400600012594, -25.429414800203542 ], [ -49.294064000144303, -25.429437599665658 ], [ -49.294160799843873, -25.429475900295845 ], [ -49.294235100344089, -25.429332600000745 ], [ -49.294333399914279, -25.429238400074301 ], [ -49.294411799999466, -25.429180399815948 ], [ -49.294509000021357, -25.429127699659009 ], [ -49.29464079998538, -25.42906650038638 ], [ -49.294971099865073, -25.428935100118835 ], [ -49.295079100442678, -25.428890299862939 ], [ -49.295178399631503, -25.428841699757502 ], [ -49.29545110010033, -25.428693500403298 ], [ -49.295934000189511, -25.428419199743182 ], [ -49.296022600012904, -25.428454300183482 ], [ -49.296940299721328, -25.428817400308386 ], [ -49.29701429957079, -25.428846700121646 ], [ -49.297889299539627, -25.429193000286702 ], [ -49.298975900233792, -25.429623000026403 ], [ -49.298256199509289, -25.431077500208183 ], [ -49.298236099929944, -25.431118100243641 ], [ -49.29765820030515, -25.432286700161566 ], [ -49.298528199685556, -25.432629399586041 ], [ -49.29878899971304, -25.4327320998689 ], [ -49.298917657199098, -25.432782730440586 ], [ -49.298836813365988, -25.432946518745471 ], [ -49.298742399737755, -25.433137799978535 ], [ -49.298441199727733, -25.433747699862661 ], [ -49.298416200487573, -25.433797900417499 ], [ -49.298379700438232, -25.43387219986607 ], [ -49.297861300314629, -25.434921400015774 ], [ -49.298953299799159, -25.435350500038417 ], [ -49.298934899704612, -25.435388700299995 ], [ -49.298590100289246, -25.436103500103918 ], [ -49.2985671995744, -25.43615100030425 ], [ -49.298011300484255, -25.435931099668831 ], [ -49.297469299806856, -25.435716800209075 ], [ -49.297261499845945, -25.436136699694352 ], [ -49.297083000469428, -25.436498299724896 ], [ -49.296900199588791, -25.436868400038854 ], [ -49.296839499855693, -25.436886899636512 ], [ -49.296121400040036, -25.437105299929744 ], [ -49.296107600474414, -25.437069499910375 ], [ -49.295828200061337, -25.436345899662907 ], [ -49.295766400142696, -25.436255299575073 ], [ -49.295724900389558, -25.436194399784291 ], [ -49.295679599661902, -25.436177299555457 ], [ -49.294653199528845, -25.43578979970151 ], [ -49.294620299718538, -25.435777399588495 ], [ -49.294291100502143, -25.43644039956169 ], [ -49.294258399893678, -25.436427400410576 ], [ -49.292986700037176, -25.435921199616981 ], [ -49.292938699822919, -25.435902099981199 ] ] ] } }
]
}
