{
"type": "FeatureCollection",
"name": "curitiba_1km_protomaps_sidewalk_topology_gaps",
"crs": { "type": "name", "properties": { "name": "urn:ogc:def:crs:OGC:1.3:CRS84" } },
"features": [
{ "type": "Feature", "properties": { "name": "Avenida Visconde de Guarapuava", "pmap:kind_detail": "residential", "pmap:min_zoom": 13.0, "pmap:kind": "minor_road", "pmap:level": 0.0, "oneway": null, "highway": "minor_road", "pmap:link": null, "service": null, "building": null, "layer": null, "height": null, "amenity": null, "shop": null, "addr:housenumber": null, "footway": null, "sidewalk": null, "gap_length_m": 29.852438851034563, "box_id": 1, "provider": "protomaps" }, "geometry": { "type": "LineString", "coordinates": [ [ -49.250454692051207, -25.4296437411436 ], [ -49.250728969093842, -25.429746634333927 ] ] } },
{ "type": "Feature", "properties": { "name": "Rua Camões", "pmap:kind_detail": "residential", "pmap:min_zoom": 13.0, "pmap:kind": "minor_road", "pmap:level": 0.0, "oneway": "no", "highway": "minor_road", "pmap:link": null, "service": null, "building": null, "layer": null, "height": null, "amenity": null, "shop": null, "addr:housenumber": null, "footway": null, "sidewalk": null, "gap_length_m": 102.09359735391061, "box_id": 1, "provider": "protomaps" }, "geometry": { "type": "LineString", "coordinates": [ [ -49.247821373483852, -25.428795326546744 ], [ -49.247914050281054, -25.429713085677275 ] ] } },
{ "type": "Feature", "properties": { "name": "Rua Padre Germano Mayer", "pmap:kind_detail": "tertiary", "pmap:min_zoom": 10.0, "pmap:kind": "medium_road", "pmap:level": 0.0, "oneway": null, "highway": "medium_road", "pmap:link": null, "service": null, "building": null, "layer": null, "height": null, "amenity": null, "shop": null, "addr:housenumber": null, "footway": null, "sidewalk": null, "gap_length_m": 56.346420053035779, "box_id": 1, "provider": "protomaps" }, "geometry": { "type": "LineString", "coordinates": [ [ -49.249195222788558, -25.429728361586807 ], [ -49.24915326230753, -25.429221145434518 ] ] } },
{ "type": "Feature", "properties": { "name": "Rua Padre Germano Mayer", "pmap:kind_detail": "tertiary", "pmap:min_zoom": 10.0, "pmap:kind": "medium_road", "pmap:level": 0.0, "oneway": null, "highway": "medium_road", "pmap:link": null, "service": null, "building": null, "layer": null, "height": null, "amenity": null, "shop": null, "addr:housenumber": null, "footway": null, "sidewalk": null, "gap_length_m": 100.95327444192928, "box_id": 1, "provider": "protomaps" }, "geometry": { "type": "LineString", "coordinates": [ [ -49.248659500161921, -25.424338922565326 ], [ -49.248567706317338, -25.423431426334229 ] ] } },
{ "type": "Feature", "properties": { "name": null, "pmap:kind_detail": "service", "pmap:min_zoom": 15.0, "pmap:kind": "minor_road", "pmap:level": 0.0, "oneway": null, "highway": "minor_road", "pmap:link": null, "service": "parking_aisle", "building": null, "layer": null, "height": null, "amenity": null, "shop": null, "addr:housenumber": null, "footway": null, "sidewalk": null, "gap_length_m": 74.691871483015916, "box_id": 1, "provider": "protomaps" }, "geometry": { "type": "LineString", "coordinates": [ [ -49.247143864631653, -25.426786399985261 ], [ -49.247141207788651, -25.426112152867969 ] ] } },
{ "type": "Feature", "properties": { "name": null, "pmap:kind_detail": "service", "pmap:min_zoom": 15.0, "pmap:kind": "minor_road", "pmap:level": 0.0, "oneway": null, "highway": "minor_road", "pmap:link": null, "service": "parking_aisle", "building": null, "layer": null, "height": null, "amenity": null, "shop": null, "addr:housenumber": null, "footway": null, "sidewalk": null, "gap_length_m": 44.758498766262385, "box_id": 1, "provider": "protomaps" }, "geometry": { "type": "LineString", "coordinates": [ [ -49.248681010234073, -25.427802586911639 ], [ -49.248707592487335, -25.428205905082375 ] ] } },
{ "type": "Feature", "properties": { "name": null, "pmap:kind_detail": "service", "pmap:min_zoom": 15.0, "pmap:kind": "minor_road", "pmap:level": 0.0, "oneway": null, "highway": "minor_road", "pmap:link": null, "service": "parking_aisle", "building": null, "layer": null, "height": null, "amenity": null, "shop": null, "addr:housenumber": null, "footway": null, "sidewalk": null, "gap_length_m": 33.481657551884474, "box_id": 1, "provider": "protomaps" }, "geometry": { "type": "LineString", "coordinates": [ [ -49.249190390110016, -25.429685969270654 ], [ -49.249058961868286, -25.429693236361608 ], [ -49.249032139778137, -25.429688391634308 ], [ -49.249007999897003, -25.429669012725132 ], [ -49.248932898044586, -25.429560006361022 ] ] } },
{ "type": "Feature", "properties": { "name": null, "pmap:kind_detail": "service", "pmap:min_zoom": 15.0, "pmap:kind": "minor_road", "pmap:level": 0.0, "oneway": null, "highway": "minor_road", "pmap:link": null, "service": "parking_aisle", "building": null, "layer": null, "height": null, "amenity": null, "shop": null, "addr:housenumber": null, "footway": null, "sidewalk": null, "gap_length_m": 14.639289211428167, "box_id": 1, "provider": "protomaps" }, "geometry": { "type": "LineString", "coordinates": [ [ -49.248932898044586, -25.429560006361022 ], [ -49.248887948330093, -25.429434317673145 ] ] } },
{ "type": "Feature", "properties": { "name": null, "pmap:kind_detail": "service", "pmap:min_zoom": 15.0, "pmap:kind": "minor_road", "pmap:level": 0.0, "oneway": null, "highway": "minor_road", "pmap:link": null, "service": "parking_aisle", "building": null, "layer": null, "height": null, "amenity": null, "shop": null, "addr:housenumber": null, "footway": null, "sidewalk": null, "gap_length_m": 14.962148718034291, "box_id": 1, "provider": "protomaps" }, "geometry": { "type": "LineString", "coordinates": [ [ -49.248887948330093, -25.429434317673145 ], [ -49.248842007285226, -25.429305857020765 ] ] } },
{ "type": "Feature", "properties": { "name": null, "pmap:kind_detail": "service", "pmap:min_zoom": 15.0, "pmap:kind": "minor_road", "pmap:level": 0.0, "oneway": null, "highway": "minor_road", "pmap:link": null, "service": "parking_aisle", "building": null, "layer": null, "height": null, "amenity": null, "shop": null, "addr:housenumber": null, "footway": null, "sidewalk": null, "gap_length_m": 28.153779998119241, "box_id": 1, "provider": "protomaps" }, "geometry": { "type": "LineString", "coordinates": [ [ -49.248842007285226, -25.429305857020765 ], [ -49.248793423175812, -25.429170005813866 ], [ -49.248769283294678, -25.429162738722919 ], [ -49.248672723770142, -25.429172428177512 ] ] } },
{ "type": "Feature", "properties": { "name": null, "pmap:kind_detail": "service", "pmap:min_zoom": 15.0, "pmap:kind": "minor_road", "pmap:level": 0.0, "oneway": null, "highway": "minor_road", "pmap:link": null, "service": "parking_aisle", "building": null, "layer": null, "height": null, "amenity": null, "shop": null, "addr:housenumber": null, "footway": null, "sidewalk": null, "gap_length_m": 21.162131471118816, "box_id": 1, "provider": "protomaps" }, "geometry": { "type": "LineString", "coordinates": [ [ -49.248932898044586, -25.429560006361022 ], [ -49.248726367950439, -25.429596341815724 ] ] } },
{ "type": "Feature", "properties": { "name": null, "pmap:kind_detail": "service", "pmap:min_zoom": 15.0, "pmap:kind": "minor_road", "pmap:level": 0.0, "oneway": null, "highway": "minor_road", "pmap:link": null, "service": "parking_aisle", "building": null, "layer": null, "height": null, "amenity": null, "shop": null, "addr:housenumber": null, "footway": null, "sidewalk": null, "gap_length_m": 18.06885546848234, "box_id": 1, "provider": "protomaps" }, "geometry": { "type": "LineString", "coordinates": [ [ -49.248887948330093, -25.429434317673145 ], [ -49.24871027469635, -25.429458267087856 ] ] } },
{ "type": "Feature", "properties": { "name": null, "pmap:kind_detail": "service", "pmap:min_zoom": 15.0, "pmap:kind": "minor_road", "pmap:level": 0.0, "oneway": null, "highway": "minor_road", "pmap:link": null, "service": "parking_aisle", "building": null, "layer": null, "height": null, "amenity": null, "shop": null, "addr:housenumber": null, "footway": null, "sidewalk": null, "gap_length_m": 14.391510444135452, "box_id": 1, "provider": "protomaps" }, "geometry": { "type": "LineString", "coordinates": [ [ -49.248842007285226, -25.429305857020765 ], [ -49.248699545860291, -25.429317769996331 ] ] } },
{ "type": "Feature", "properties": { "name": "Rua Fernando Amaro", "pmap:kind_detail": "residential", "pmap:min_zoom": 13.0, "pmap:kind": "minor_road", "pmap:level": 0.0, "oneway": "yes", "highway": "minor_road", "pmap:link": null, "service": null, "building": null, "layer": null, "height": null, "amenity": null, "shop": null, "addr:housenumber": null, "footway": null, "sidewalk": null, "gap_length_m": 91.682703316337182, "box_id": 1, "provider": "protomaps" }, "geometry": { "type": "LineString", "coordinates": [ [ -49.251255221163781, -25.42851333107987 ], [ -49.250347423967135, -25.428586860803833 ] ] } },
{ "type": "Feature", "properties": { "name": null, "pmap:kind_detail": "service", "pmap:min_zoom": 15.0, "pmap:kind": "minor_road", "pmap:level": 0.0, "oneway": "yes", "highway": "minor_road", "pmap:link": null, "service": "parking_aisle", "building": null, "layer": null, "height": null, "amenity": null, "shop": null, "addr:housenumber": null, "footway": null, "sidewalk": null, "gap_length_m": 32.089920537325568, "box_id": 1, "provider": "protomaps" }, "geometry": { "type": "LineString", "coordinates": [ [ -49.249733350591995, -25.429734774557733 ], [ -49.249544441699982, -25.429671435088778 ], [ -49.249509572982788, -25.429676279816082 ], [ -49.249480068683631, -25.429690813997947 ], [ -49.24946129322052, -25.429729571816317 ], [ -49.24946129322052, -25.429731532644933 ] ] } },
{ "type": "Feature", "properties": { "name": "Rua Schiller", "pmap:kind_detail": "residential", "pmap:min_zoom": 13.0, "pmap:kind": "minor_road", "pmap:level": 0.0, "oneway": "no", "highway": "minor_road", "pmap:link": null, "service": null, "building": null, "layer": null, "height": null, "amenity": null, "shop": null, "addr:housenumber": null, "footway": null, "sidewalk": null, "gap_length_m": 12.824395408374636, "box_id": 1, "provider": "protomaps" }, "geometry": { "type": "LineString", "coordinates": [ [ -49.249866306781769, -25.424124222337262 ], [ -49.249878575104262, -25.42423945234534 ] ] } },
{ "type": "Feature", "properties": { "name": null, "pmap:kind_detail": "residential", "pmap:min_zoom": 13.0, "pmap:kind": "minor_road", "pmap:level": 0.0, "oneway": null, "highway": "minor_road", "pmap:link": null, "service": null, "building": null, "layer": null, "height": null, "amenity": null, "shop": null, "addr:housenumber": null, "footway": null, "sidewalk": null, "gap_length_m": 13.484799140906976, "box_id": 1, "provider": "protomaps" }, "geometry": { "type": "LineString", "coordinates": [ [ -49.25096333026886, -25.423567078698461 ], [ -49.250949919223793, -25.423445960516116 ] ] } },
{ "type": "Feature", "properties": { "name": "Rua Dias da Rocha Filho", "pmap:kind_detail": "residential", "pmap:min_zoom": 13.0, "pmap:kind": "minor_road", "pmap:level": 0.0, "oneway": "yes", "highway": "minor_road", "pmap:link": null, "service": null, "building": null, "layer": null, "height": null, "amenity": null, "shop": null, "addr:housenumber": null, "footway": null, "sidewalk": null, "gap_length_m": 123.32692163949068, "box_id": 1, "provider": "protomaps" }, "geometry": { "type": "LineString", "coordinates": [ [ -49.251294586774812, -25.425786309130572 ], [ -49.25007376402862, -25.425887954473186 ] ] } },
{ "type": "Feature", "properties": { "name": "Travessa Kalil Karan", "pmap:kind_detail": "residential", "pmap:min_zoom": 13.0, "pmap:kind": "minor_road", "pmap:level": 0.0, "oneway": null, "highway": "minor_road", "pmap:link": null, "service": null, "building": null, "layer": null, "height": null, "amenity": null, "shop": null, "addr:housenumber": null, "footway": null, "sidewalk": null, "gap_length_m": 83.159784475641004, "box_id": 1, "provider": "protomaps" }, "geometry": { "type": "LineString", "coordinates": [ [ -49.251307658244706, -25.424880705499131 ], [ -49.251223504543304, -25.424133911791845 ] ] } },
{ "type": "Feature", "properties": { "name": "Rua Antônio Mion", "pmap:kind_detail": "residential", "pmap:min_zoom": 13.0, "pmap:kind": "minor_road", "pmap:level": 0.0, "oneway": null, "highway": "minor_road", "pmap:link": null, "service": null, "building": null, "layer": null, "height": null, "amenity": null, "shop": null, "addr:housenumber": null, "footway": null, "sidewalk": null, "gap_length_m": 139.15244438781193, "box_id": 1, "provider": "protomaps" }, "geometry": { "type": "LineString", "coordinates": [ [ -49.250936508178711, -25.425420186888381 ], [ -49.250829219818122, -25.424167824882907 ] ] } },
{ "type": "Feature", "properties": { "name": "Rua Schiller", "pmap:kind_detail": "residential", "pmap:min_zoom": 13.0, "pmap:kind": "minor_road", "pmap:level": 0.0, "oneway": "yes", "highway": "minor_road", "pmap:link": null, "service": null, "building": null, "layer": null, "height": null, "amenity": null, "shop": null, "addr:housenumber": null, "footway": null, "sidewalk": null, "gap_length_m": 161.70750963996664, "box_id": 1, "provider": "protomaps" }, "geometry": { "type": "LineString", "coordinates": [ [ -49.249862412181066, -25.42343142633424 ], [ -49.249922633171089, -25.424058818518798 ], [ -49.249917268753052, -25.424087886882557 ], [ -49.249906539916992, -25.424102421064436 ], [ -49.249866306781769, -25.424124222337262 ], [ -49.249815344810486, -25.424114532882676 ], [ -49.249788522720337, -25.42407577506432 ], [ -49.249719337983564, -25.423431426334236 ] ] } },
{ "type": "Feature", "properties": { "name": "Travessa Nelson Gonçalves de Lima", "pmap:kind_detail": "residential", "pmap:min_zoom": 13.0, "pmap:kind": "minor_road", "pmap:level": 0.0, "oneway": null, "highway": "minor_road", "pmap:link": null, "service": null, "building": null, "layer": null, "height": null, "amenity": null, "shop": null, "addr:housenumber": null, "footway": null, "sidewalk": null, "gap_length_m": 101.70567536304389, "box_id": 1, "provider": "protomaps" }, "geometry": { "type": "LineString", "coordinates": [ [ -49.251327106522169, -25.423533229689014 ], [ -49.25096333026886, -25.423567078698461 ], [ -49.251019656658173, -25.424150868337385 ] ] } },
{ "type": "Feature", "properties": { "name": "Rua Marechal Deodoro", "pmap:kind_detail": "primary", "pmap:min_zoom": 8.0, "pmap:kind": "major_road", "pmap:level": 0.0, "oneway": "yes", "highway": "major_road", "pmap:link": null, "service": null, "building": null, "layer": null, "height": null, "amenity": null, "shop": null, "addr:housenumber": null, "footway": null, "sidewalk": null, "gap_length_m": 17.605262646109857, "box_id": 1, "provider": "protomaps" }, "geometry": { "type": "LineString", "coordinates": [ [ -49.251268590920468, -25.427587196129199 ], [ -49.251094282081716, -25.427601401832071 ] ] } },
{ "type": "Feature", "properties": { "name": "Rua Fernandes de Barros", "pmap:kind_detail": "residential", "pmap:min_zoom": 13.0, "pmap:kind": "minor_road", "pmap:level": 0.0, "oneway": "no", "highway": "minor_road", "pmap:link": null, "service": null, "building": null, "layer": null, "height": null, "amenity": null, "shop": null, "addr:housenumber": null, "footway": null, "sidewalk": null, "gap_length_m": 89.275786547180957, "box_id": 1, "provider": "protomaps" }, "geometry": { "type": "LineString", "coordinates": [ [ -49.246656918005449, -25.429698085546477 ], [ -49.246574981851424, -25.428895626090839 ] ] } },
{ "type": "Feature", "properties": { "name": "Rua Fernandes de Barros", "pmap:kind_detail": "residential", "pmap:min_zoom": 13.0, "pmap:kind": "minor_road", "pmap:level": 0.0, "oneway": "no", "highway": "minor_road", "pmap:link": null, "service": null, "building": null, "layer": null, "height": null, "amenity": null, "shop": null, "addr:housenumber": null, "footway": null, "sidewalk": null, "gap_length_m": 123.91246238397251, "box_id": 1, "provider": "protomaps" }, "geometry": { "type": "LineString", "coordinates": [ [ -49.246130791150541, -25.424545219778697 ], [ -49.246017072763102, -25.423431426334233 ] ] } },
{ "type": "Feature", "properties": { "name": "Rua XV de Novembro", "pmap:kind_detail": "primary", "pmap:min_zoom": 8.0, "pmap:kind": "major_road", "pmap:level": 0.0, "oneway": "yes", "highway": "major_road", "pmap:link": null, "service": null, "building": null, "layer": null, "height": null, "amenity": null, "shop": null, "addr:housenumber": null, "footway": null, "sidewalk": null, "gap_length_m": 23.171681303286061, "box_id": 1, "provider": "protomaps" }, "geometry": { "type": "LineString", "coordinates": [ [ -49.251048862929551, -25.426942727830362 ], [ -49.251278178872859, -25.426923001948598 ] ] } },
{ "type": "Feature", "properties": { "name": "Rua Professor Brandão", "pmap:kind_detail": "secondary", "pmap:min_zoom": 10.0, "pmap:kind": "medium_road", "pmap:level": 0.0, "oneway": "yes", "highway": "medium_road", "pmap:link": null, "service": null, "building": null, "layer": null, "height": null, "amenity": null, "shop": null, "addr:housenumber": null, "footway": null, "sidewalk": null, "gap_length_m": 144.89485185775007, "box_id": 1, "provider": "protomaps" }, "geometry": { "type": "LineString", "coordinates": [ [ -49.251318544305043, -25.424126475679934 ], [ -49.249884003001192, -25.424243540527783 ] ] } },
{ "type": "Feature", "properties": { "name": "Rua Flávio Dallegrave", "pmap:kind_detail": "service", "pmap:min_zoom": 15.0, "pmap:kind": "minor_road", "pmap:level": 0.0, "oneway": null, "highway": "minor_road", "pmap:link": null, "service": "parking_aisle", "building": null, "layer": null, "height": null, "amenity": null, "shop": null, "addr:housenumber": null, "footway": null, "sidewalk": null, "gap_length_m": 95.978188286828924, "box_id": 1, "provider": "protomaps" }, "geometry": { "type": "LineString", "coordinates": [ [ -49.24794899179637, -25.424396891919603 ], [ -49.24747109413147, -25.423647016698808 ] ] } },
{ "type": "Feature", "properties": { "name": null, "pmap:kind_detail": "residential", "pmap:min_zoom": 13.0, "pmap:kind": "minor_road", "pmap:level": 0.0, "oneway": "yes", "highway": "minor_road", "pmap:link": null, "service": null, "building": null, "layer": null, "height": null, "amenity": null, "shop": null, "addr:housenumber": null, "footway": null, "sidewalk": null, "gap_length_m": 122.08507220048965, "box_id": 1, "provider": "protomaps" }, "geometry": { "type": "LineString", "coordinates": [ [ -49.248305549551162, -25.424367801045534 ], [ -49.247665566153231, -25.423431426334233 ] ] } },
{ "type": "Feature", "properties": { "name": null, "pmap:kind_detail": "residential", "pmap:min_zoom": 13.0, "pmap:kind": "minor_road", "pmap:level": 0.0, "oneway": "yes", "highway": "minor_road", "pmap:link": null, "service": null, "building": null, "layer": null, "height": null, "amenity": null, "shop": null, "addr:housenumber": null, "footway": null, "sidewalk": null, "gap_length_m": 67.883909562343447, "box_id": 1, "provider": "protomaps" }, "geometry": { "type": "LineString", "coordinates": [ [ -49.247665674455703, -25.423431426334233 ], [ -49.247310161590576, -25.422910575276426 ] ] } },
{ "type": "Feature", "properties": { "name": "Rua Conselheiro Carrão", "pmap:kind_detail": "tertiary", "pmap:min_zoom": 10.0, "pmap:kind": "medium_road", "pmap:level": 0.0, "oneway": "yes", "highway": "medium_road", "pmap:link": null, "service": null, "building": null, "layer": null, "height": null, "amenity": null, "shop": null, "addr:housenumber": null, "footway": null, "sidewalk": null, "gap_length_m": 180.91840956152944, "box_id": 1, "provider": "protomaps" }, "geometry": { "type": "LineString", "coordinates": [ [ -49.25136295226735, -25.421049399823556 ], [ -49.24957204719076, -25.421198019679533 ] ] } },
{ "type": "Feature", "properties": { "name": "Rua Schiller", "pmap:kind_detail": "residential", "pmap:min_zoom": 13.0, "pmap:kind": "minor_road", "pmap:level": 0.0, "oneway": "yes", "highway": "minor_road", "pmap:link": null, "service": null, "building": null, "layer": null, "height": null, "amenity": null, "shop": null, "addr:housenumber": null, "footway": null, "sidewalk": null, "gap_length_m": 46.874655357030065, "box_id": 1, "provider": "protomaps" }, "geometry": { "type": "LineString", "coordinates": [ [ -49.249555170536041, -25.421076695040341 ], [ -49.249520301818855, -25.421074272477277 ], [ -49.249488115310669, -25.421057314535862 ], [ -49.24946129322052, -25.421028243779155 ], [ -49.249447882175446, -25.420999173022444 ], [ -49.249419636595732, -25.420712170656603 ] ] } },
{ "type": "Feature", "properties": { "name": "Rua Schiller", "pmap:kind_detail": "residential", "pmap:min_zoom": 13.0, "pmap:kind": "minor_road", "pmap:level": 0.0, "oneway": "yes", "highway": "minor_road", "pmap:link": null, "service": null, "building": null, "layer": null, "height": null, "amenity": null, "shop": null, "addr:housenumber": null, "footway": null, "sidewalk": null, "gap_length_m": 43.853540159128691, "box_id": 1, "provider": "protomaps" }, "geometry": { "type": "LineString", "coordinates": [ [ -49.249609854701589, -25.420714436877397 ], [ -49.249632954597473, -25.420967679702663 ], [ -49.249630272388458, -25.421004018148547 ], [ -49.249614179134369, -25.421037934031382 ], [ -49.249590039253235, -25.421064582225043 ], [ -49.249555170536041, -25.421076695040341 ] ] } },
{ "type": "Feature", "properties": { "name": "Rua Schiller", "pmap:kind_detail": "residential", "pmap:min_zoom": 13.0, "pmap:kind": "minor_road", "pmap:level": 0.0, "oneway": "yes", "highway": "minor_road", "pmap:link": null, "service": null, "building": null, "layer": null, "height": null, "amenity": null, "shop": null, "addr:housenumber": null, "footway": null, "sidewalk": null, "gap_length_m": 152.59899593149987, "box_id": 1, "provider": "protomaps" }, "geometry": { "type": "LineString", "coordinates": [ [ -49.249718556638626, -25.423431426334236 ], [ -49.249657094478607, -25.422847588636873 ], [ -49.249675869941711, -25.422806405064865 ], [ -49.249691963195801, -25.422794292249581 ], [ -49.249724149703979, -25.422787024560389 ], [ -49.249764382839203, -25.42279186968651 ], [ -49.249793887138367, -25.422806405064872 ], [ -49.249807298183441, -25.422830630695458 ], [ -49.249862730503089, -25.423431426334236 ] ] } },
{ "type": "Feature", "properties": { "name": "Rua Schiller", "pmap:kind_detail": "residential", "pmap:min_zoom": 13.0, "pmap:kind": "minor_road", "pmap:level": 0.0, "oneway": "no", "highway": "minor_road", "pmap:link": null, "service": null, "building": null, "layer": null, "height": null, "amenity": null, "shop": null, "addr:housenumber": null, "footway": null, "sidewalk": null, "gap_length_m": 8.854365668290777, "box_id": 1, "provider": "protomaps" }, "geometry": { "type": "LineString", "coordinates": [ [ -49.249718340284325, -25.422707269435733 ], [ -49.249724149703979, -25.422787024560389 ] ] } },
{ "type": "Feature", "properties": { "name": "Rua Schiller", "pmap:kind_detail": "residential", "pmap:min_zoom": 13.0, "pmap:kind": "minor_road", "pmap:level": 0.0, "oneway": "no", "highway": "minor_road", "pmap:link": null, "service": null, "building": null, "layer": null, "height": null, "amenity": null, "shop": null, "addr:housenumber": null, "footway": null, "sidewalk": null, "gap_length_m": 13.03879317134944, "box_id": 1, "provider": "protomaps" }, "geometry": { "type": "LineString", "coordinates": [ [ -49.249555170536041, -25.421076695040341 ], [ -49.249566657702452, -25.421193934608791 ] ] } },
{ "type": "Feature", "properties": { "name": "Rua Itupava", "pmap:kind_detail": "secondary", "pmap:min_zoom": 10.0, "pmap:kind": "medium_road", "pmap:level": 0.0, "oneway": "yes", "highway": "medium_road", "pmap:link": null, "service": null, "building": null, "layer": null, "height": null, "amenity": null, "shop": null, "addr:housenumber": null, "footway": null, "sidewalk": null, "gap_length_m": 154.72191869836766, "box_id": 1, "provider": "protomaps" }, "geometry": { "type": "LineString", "coordinates": [ [ -49.24696596657887, -25.422937707612476 ], [ -49.248497204673555, -25.422806991422128 ] ] } },
{ "type": "Feature", "properties": { "name": "Rua Itupava", "pmap:kind_detail": "secondary", "pmap:min_zoom": 10.0, "pmap:kind": "medium_road", "pmap:level": 0.0, "oneway": "yes", "highway": "medium_road", "pmap:link": null, "service": null, "building": null, "layer": null, "height": null, "amenity": null, "shop": null, "addr:housenumber": null, "footway": null, "sidewalk": null, "gap_length_m": 31.226004727065845, "box_id": 1, "provider": "protomaps" }, "geometry": { "type": "LineString", "coordinates": [ [ -49.249722962654729, -25.422702341175956 ], [ -49.250031996747836, -25.42267595544558 ] ] } },
{ "type": "Feature", "properties": { "name": "Rua Itupava", "pmap:kind_detail": "secondary", "pmap:min_zoom": 10.0, "pmap:kind": "medium_road", "pmap:level": 0.0, "oneway": "yes", "highway": "medium_road", "pmap:link": null, "service": null, "building": null, "layer": null, "height": null, "amenity": null, "shop": null, "addr:housenumber": null, "footway": null, "sidewalk": null, "gap_length_m": 58.552934051820714, "box_id": 1, "provider": "protomaps" }, "geometry": { "type": "LineString", "coordinates": [ [ -49.250761612546064, -25.422613657265092 ], [ -49.251341092126772, -25.422564175809157 ] ] } },
{ "type": "Feature", "properties": { "name": "Rua Camões", "pmap:kind_detail": "residential", "pmap:min_zoom": 13.0, "pmap:kind": "minor_road", "pmap:level": 0.0, "oneway": "no", "highway": "minor_road", "pmap:link": null, "service": null, "building": null, "layer": null, "height": null, "amenity": null, "shop": null, "addr:housenumber": null, "footway": null, "sidewalk": null, "gap_length_m": 185.52363298116686, "box_id": 1, "provider": "protomaps" }, "geometry": { "type": "LineString", "coordinates": [ [ -49.246996214069668, -25.420683276925864 ], [ -49.247165322303772, -25.422350963209674 ] ] } },
{ "type": "Feature", "properties": { "name": null, "pmap:kind_detail": "service", "pmap:min_zoom": 15.0, "pmap:kind": "minor_road", "pmap:level": 0.0, "oneway": null, "highway": "minor_road", "pmap:link": null, "service": "parking_aisle", "building": null, "layer": null, "height": null, "amenity": null, "shop": null, "addr:housenumber": null, "footway": null, "sidewalk": null, "gap_length_m": 49.457204112754802, "box_id": 1, "provider": "protomaps" }, "geometry": { "type": "LineString", "coordinates": [ [ -49.250035285949707, -25.422929955780898 ], [ -49.250088930130005, -25.4229420685962 ], [ -49.250126481056213, -25.422971139352921 ], [ -49.250182807445526, -25.423075309564478 ], [ -49.250257909297943, -25.423300607929011 ] ] } },
{ "type": "Feature", "properties": { "name": null, "pmap:kind_detail": "service", "pmap:min_zoom": 15.0, "pmap:kind": "minor_road", "pmap:level": 0.0, "oneway": null, "highway": "minor_road", "pmap:link": null, "service": "parking_aisle", "building": null, "layer": null, "height": null, "amenity": null, "shop": null, "addr:housenumber": null, "footway": null, "sidewalk": null, "gap_length_m": 46.2976843264804, "box_id": 1, "provider": "protomaps" }, "geometry": { "type": "LineString", "coordinates": [ [ -49.248299896717072, -25.420815058229909 ], [ -49.248651266098022, -25.420793255162373 ], [ -49.248664677143097, -25.420785987473192 ], [ -49.248670041561127, -25.420773874657897 ], [ -49.248664823125537, -25.420703175531063 ] ] } },
{ "type": "Feature", "properties": { "name": null, "pmap:kind_detail": "service", "pmap:min_zoom": 15.0, "pmap:kind": "minor_road", "pmap:level": 0.0, "oneway": null, "highway": "minor_road", "pmap:link": null, "service": "parking_aisle", "building": null, "layer": null, "height": null, "amenity": null, "shop": null, "addr:housenumber": null, "footway": null, "sidewalk": null, "gap_length_m": 11.013996746428793, "box_id": 1, "provider": "protomaps" }, "geometry": { "type": "LineString", "coordinates": [ [ -49.24850973486074, -25.420701326861217 ], [ -49.248517155647278, -25.42080052285155 ] ] } },
{ "type": "Feature", "properties": { "name": "Rua Padre Germano Mayer", "pmap:kind_detail": "tertiary", "pmap:min_zoom": 10.0, "pmap:kind": "medium_road", "pmap:level": 0.0, "oneway": null, "highway": "medium_road", "pmap:link": null, "service": null, "building": null, "layer": null, "height": null, "amenity": null, "shop": null, "addr:housenumber": null, "footway": null, "sidewalk": null, "gap_length_m": 69.015130379656952, "box_id": 1, "provider": "protomaps" }, "geometry": { "type": "LineString", "coordinates": [ [ -49.248565749075546, -25.423431426334236 ], [ -49.248502610894931, -25.42281106288808 ] ] } },
{ "type": "Feature", "properties": { "name": "Rua Padre Germano Mayer", "pmap:kind_detail": "tertiary", "pmap:min_zoom": 10.0, "pmap:kind": "medium_road", "pmap:level": 0.0, "oneway": null, "highway": "medium_road", "pmap:link": null, "service": null, "building": null, "layer": null, "height": null, "amenity": null, "shop": null, "addr:housenumber": null, "footway": null, "sidewalk": null, "gap_length_m": 66.343382576877104, "box_id": 1, "provider": "protomaps" }, "geometry": { "type": "LineString", "coordinates": [ [ -49.248348316517664, -25.421295026760589 ], [ -49.248287624036031, -25.42069867898968 ] ] } },
{ "type": "Feature", "properties": { "name": "Rua Presidente Beaurepaire Rohan", "pmap:kind_detail": "residential", "pmap:min_zoom": 13.0, "pmap:kind": "minor_road", "pmap:level": 0.0, "oneway": "no", "highway": "minor_road", "pmap:link": null, "service": null, "building": null, "layer": null, "height": null, "amenity": null, "shop": null, "addr:housenumber": null, "footway": null, "sidewalk": null, "gap_length_m": 48.290157618413751, "box_id": 1, "provider": "protomaps" }, "geometry": { "type": "LineString", "coordinates": [ [ -49.242619620903014, -25.429649839664702 ], [ -49.242576808739528, -25.429215657382869 ] ] } },
{ "type": "Feature", "properties": { "name": "Avenida Marechal Humberto de Alencar Castelo Branco", "pmap:kind_detail": "secondary", "pmap:min_zoom": 10.0, "pmap:kind": "medium_road", "pmap:level": 0.0, "oneway": "yes", "highway": "medium_road", "pmap:link": null, "service": null, "building": null, "layer": null, "height": null, "amenity": null, "shop": null, "addr:housenumber": null, "footway": null, "sidewalk": null, "gap_length_m": 73.732361939254105, "box_id": 1, "provider": "protomaps" }, "geometry": { "type": "LineString", "coordinates": [ [ -49.241656064987183, -25.427917643808389 ], [ -49.241409301757812, -25.428351246901194 ], [ -49.241323543748535, -25.428510757032132 ] ] } },
{ "type": "Feature", "properties": { "name": "Avenida Marechal Humberto de Alencar Castelo Branco", "pmap:kind_detail": "secondary", "pmap:min_zoom": 10.0, "pmap:kind": "medium_road", "pmap:level": 0.0, "oneway": "yes", "highway": "medium_road", "pmap:link": null, "service": null, "building": null, "layer": null, "height": null, "amenity": null, "shop": null, "addr:housenumber": null, "footway": null, "sidewalk": null, "gap_length_m": 6.4570132759313301, "box_id": 1, "provider": "protomaps" }, "geometry": { "type": "LineString", "coordinates": [ [ -49.241330845148099, -25.428007846239559 ], [ -49.241361021995544, -25.427956401626741 ] ] } },
{ "type": "Feature", "properties": { "name": "Avenida Sete de Setembro", "pmap:kind_detail": "residential", "pmap:min_zoom": 13.0, "pmap:kind": "minor_road", "pmap:level": 0.0, "oneway": "no", "highway": "minor_road", "pmap:link": null, "service": null, "building": null, "layer": null, "height": null, "amenity": null, "shop": null, "addr:housenumber": null, "footway": null, "sidewalk": null, "gap_length_m": 98.631897069816233, "box_id": 1, "provider": "protomaps" }, "geometry": { "type": "LineString", "coordinates": [ [ -49.245322644710541, -25.429344415996443 ], [ -49.246224897768791, -25.429692928187155 ] ] } },
{ "type": "Feature", "properties": { "name": "Avenida Sete de Setembro", "pmap:kind_detail": "residential", "pmap:min_zoom": 13.0, "pmap:kind": "minor_road", "pmap:level": 0.0, "oneway": "no", "highway": "minor_road", "pmap:link": null, "service": null, "building": null, "layer": null, "height": null, "amenity": null, "shop": null, "addr:housenumber": null, "footway": null, "sidewalk": null, "gap_length_m": 106.43166155625148, "box_id": 1, "provider": "protomaps" }, "geometry": { "type": "LineString", "coordinates": [ [ -49.243718043797344, -25.42872757215309 ], [ -49.244692325592041, -25.429102179631752 ] ] } },
{ "type": "Feature", "properties": { "name": "Rua Fernando Amaro", "pmap:kind_detail": "residential", "pmap:min_zoom": 13.0, "pmap:kind": "minor_road", "pmap:level": 0.0, "oneway": "no", "highway": "minor_road", "pmap:link": null, "service": null, "building": null, "layer": null, "height": null, "amenity": null, "shop": null, "addr:housenumber": null, "footway": null, "sidewalk": null, "gap_length_m": 84.875890090632993, "box_id": 1, "provider": "protomaps" }, "geometry": { "type": "LineString", "coordinates": [ [ -49.242152273654938, -25.42924509908692 ], [ -49.241311890964276, -25.429313357521409 ] ] } },
{ "type": "Feature", "properties": { "name": null, "pmap:kind_detail": "service", "pmap:min_zoom": 14.0, "pmap:kind": "minor_road", "pmap:level": 0.0, "oneway": null, "highway": "minor_road", "pmap:link": null, "service": null, "building": null, "layer": null, "height": null, "amenity": null, "shop": null, "addr:housenumber": null, "footway": null, "sidewalk": null, "gap_length_m": 15.341731471803444, "box_id": 1, "provider": "protomaps" }, "geometry": { "type": "LineString", "coordinates": [ [ -49.250799715518951, -25.425827143981063 ], [ -49.250794520312944, -25.425688732693228 ] ] } },
{ "type": "Feature", "properties": { "name": null, "pmap:kind_detail": "service", "pmap:min_zoom": 14.0, "pmap:kind": "minor_road", "pmap:level": 0.0, "oneway": null, "highway": "minor_road", "pmap:link": null, "service": null, "building": null, "layer": null, "height": null, "amenity": null, "shop": null, "addr:housenumber": null, "footway": null, "sidewalk": null, "gap_length_m": 31.067546401977275, "box_id": 1, "provider": "protomaps" }, "geometry": { "type": "LineString", "coordinates": [ [ -49.24907773733139, -25.425362050160857 ], [ -49.24876918735054, -25.425373958647995 ] ] } },
{ "type": "Feature", "properties": { "name": null, "pmap:kind_detail": "service", "pmap:min_zoom": 14.0, "pmap:kind": "minor_road", "pmap:level": 0.0, "oneway": null, "highway": "minor_road", "pmap:link": null, "service": null, "building": null, "layer": null, "height": null, "amenity": null, "shop": null, "addr:housenumber": null, "footway": null, "sidewalk": null, "gap_length_m": 31.587654925521456, "box_id": 1, "provider": "protomaps" }, "geometry": { "type": "LineString", "coordinates": [ [ -49.249050915241241, -25.425047142886751 ], [ -49.248737092677437, -25.425056669623846 ] ] } },
{ "type": "Feature", "properties": { "name": null, "pmap:kind_detail": "service", "pmap:min_zoom": 14.0, "pmap:kind": "minor_road", "pmap:level": 0.0, "oneway": null, "highway": "minor_road", "pmap:link": null, "service": null, "building": null, "layer": null, "height": null, "amenity": null, "shop": null, "addr:housenumber": null, "footway": null, "sidewalk": null, "gap_length_m": 56.28585248579148, "box_id": 1, "provider": "protomaps" }, "geometry": { "type": "LineString", "coordinates": [ [ -49.24958735704422, -25.428280998355433 ], [ -49.249429106712348, -25.428302799628248 ], [ -49.249410331249237, -25.428319756173789 ], [ -49.249404966831207, -25.428336712719311 ], [ -49.249410331249237, -25.428528079447421 ], [ -49.249423325931588, -25.428657173158474 ] ] } },
{ "type": "Feature", "properties": { "name": null, "pmap:kind_detail": "service", "pmap:min_zoom": 14.0, "pmap:kind": "minor_road", "pmap:level": 0.0, "oneway": null, "highway": "minor_road", "pmap:link": null, "service": null, "building": null, "layer": null, "height": null, "amenity": null, "shop": null, "addr:housenumber": null, "footway": null, "sidewalk": null, "gap_length_m": 50.807625947946057, "box_id": 1, "provider": "protomaps" }, "geometry": { "type": "LineString", "coordinates": [ [ -49.249378144741058, -25.426381865256221 ], [ -49.248959720134735, -25.426420623074566 ], [ -49.248875294007476, -25.426422933595319 ] ] } },
{ "type": "Feature", "properties": { "name": null, "pmap:kind_detail": "service", "pmap:min_zoom": 14.0, "pmap:kind": "minor_road", "pmap:level": 0.0, "oneway": null, "highway": "minor_road", "pmap:link": null, "service": null, "building": null, "layer": null, "height": null, "amenity": null, "shop": null, "addr:housenumber": null, "footway": null, "sidewalk": null, "gap_length_m": 36.33990010515307, "box_id": 1, "provider": "protomaps" }, "geometry": { "type": "LineString", "coordinates": [ [ -49.250649511814117, -25.426643480530092 ], [ -49.250660240650177, -25.426907518167607 ], [ -49.250668044761781, -25.426970950796214 ] ] } },
{ "type": "Feature", "properties": { "name": null, "pmap:kind_detail": "service", "pmap:min_zoom": 14.0, "pmap:kind": "minor_road", "pmap:level": 0.0, "oneway": null, "highway": "minor_road", "pmap:link": null, "service": null, "building": null, "layer": null, "height": null, "amenity": null, "shop": null, "addr:housenumber": null, "footway": null, "sidewalk": null, "gap_length_m": 32.557142059927308, "box_id": 1, "provider": "protomaps" }, "geometry": { "type": "LineString", "coordinates": [ [ -49.251255691051483, -25.426326150892347 ], [ -49.251282566691671, -25.426619033084691 ] ] } },
{ "type": "Feature", "properties": { "name": null, "pmap:kind_detail": "service", "pmap:min_zoom": 14.0, "pmap:kind": "minor_road", "pmap:level": 0.0, "oneway": null, "highway": "minor_road", "pmap:link": null, "service": null, "building": null, "layer": null, "height": null, "amenity": null, "shop": null, "addr:housenumber": null, "footway": null, "sidewalk": null, "gap_length_m": 23.821143405709691, "box_id": 1, "provider": "protomaps" }, "geometry": { "type": "LineString", "coordinates": [ [ -49.251255691051483, -25.426326150892347 ], [ -49.251019254259951, -25.426338013752801 ] ] } },
{ "type": "Feature", "properties": { "name": null, "pmap:kind_detail": "service", "pmap:min_zoom": 14.0, "pmap:kind": "minor_road", "pmap:level": 0.0, "oneway": null, "highway": "minor_road", "pmap:link": null, "service": null, "building": null, "layer": null, "height": null, "amenity": null, "shop": null, "addr:housenumber": null, "footway": null, "sidewalk": null, "gap_length_m": 3.1311420874921478, "box_id": 1, "provider": "protomaps" }, "geometry": { "type": "LineString", "coordinates": [ [ -49.251286805368636, -25.426325391432233 ], [ -49.251255691051483, -25.426326150892347 ] ] } },
{ "type": "Feature", "properties": { "name": null, "pmap:kind_detail": "service", "pmap:min_zoom": 14.0, "pmap:kind": "minor_road", "pmap:level": 0.0, "oneway": null, "highway": "minor_road", "pmap:link": null, "service": null, "building": null, "layer": null, "height": null, "amenity": null, "shop": null, "addr:housenumber": null, "footway": null, "sidewalk": null, "gap_length_m": 37.058049543771951, "box_id": 1, "provider": "protomaps" }, "geometry": { "type": "LineString", "coordinates": [ [ -49.248788058757782, -25.429019819267747 ], [ -49.248598917684745, -25.428732750846653 ] ] } },
{ "type": "Feature", "properties": { "name": null, "pmap:kind_detail": "service", "pmap:min_zoom": 14.0, "pmap:kind": "minor_road", "pmap:level": 0.0, "oneway": null, "highway": "minor_road", "pmap:link": null, "service": null, "building": null, "layer": null, "height": null, "amenity": null, "shop": null, "addr:housenumber": null, "footway": null, "sidewalk": null, "gap_length_m": 28.577451057184184, "box_id": 1, "provider": "protomaps" }, "geometry": { "type": "LineString", "coordinates": [ [ -49.242999851703644, -25.426202610346348 ], [ -49.243020952041967, -25.426459868956734 ] ] } },
{ "type": "Feature", "properties": { "name": null, "pmap:kind_detail": "service", "pmap:min_zoom": 14.0, "pmap:kind": "minor_road", "pmap:level": 0.0, "oneway": null, "highway": "minor_road", "pmap:link": null, "service": null, "building": null, "layer": null, "height": null, "amenity": null, "shop": null, "addr:housenumber": null, "footway": null, "sidewalk": null, "gap_length_m": 36.321804739606684, "box_id": 1, "provider": "protomaps" }, "geometry": { "type": "LineString", "coordinates": [ [ -49.243970811367042, -25.427416214533466 ], [ -49.244244396686554, -25.42738230144241 ], [ -49.244279265403748, -25.427367767260531 ], [ -49.244303405284882, -25.427348388351344 ], [ -49.244308761841488, -25.427336294299717 ] ] } },
{ "type": "Feature", "properties": { "name": null, "pmap:kind_detail": "service", "pmap:min_zoom": 14.0, "pmap:kind": "minor_road", "pmap:level": 0.0, "oneway": null, "highway": "minor_road", "pmap:link": null, "service": null, "building": null, "layer": null, "height": null, "amenity": null, "shop": null, "addr:housenumber": null, "footway": null, "sidewalk": null, "gap_length_m": 45.755688941830293, "box_id": 1, "provider": "protomaps" }, "geometry": { "type": "LineString", "coordinates": [ [ -49.243201017379761, -25.42360583651681 ], [ -49.242747724056244, -25.423639749607869 ] ] } },
{ "type": "Feature", "properties": { "name": null, "pmap:kind_detail": "service", "pmap:min_zoom": 14.0, "pmap:kind": "minor_road", "pmap:level": 0.0, "oneway": null, "highway": "minor_road", "pmap:link": null, "service": null, "building": null, "layer": null, "height": null, "amenity": null, "shop": null, "addr:housenumber": null, "footway": null, "sidewalk": null, "gap_length_m": 47.420966671897148, "box_id": 1, "provider": "protomaps" }, "geometry": { "type": "LineString", "coordinates": [ [ -49.241905713475866, -25.423664616747004 ], [ -49.241511225700378, -25.423898942518097 ] ] } },
{ "type": "Feature", "properties": { "name": "Rua Prefeito Ângelo Ferrário Lopes", "pmap:kind_detail": "residential", "pmap:min_zoom": 13.0, "pmap:kind": "minor_road", "pmap:level": 0.0, "oneway": null, "highway": "minor_road", "pmap:link": null, "service": null, "building": null, "layer": null, "height": null, "amenity": null, "shop": null, "addr:housenumber": null, "footway": null, "sidewalk": null, "gap_length_m": 60.384174067240707, "box_id": 1, "provider": "protomaps" }, "geometry": { "type": "LineString", "coordinates": [ [ -49.243808394891317, -25.429664057094097 ], [ -49.243753135001917, -25.429121278445649 ] ] } },
{ "type": "Feature", "properties": { "name": "Rua Prefeito Ângelo Ferrário Lopes", "pmap:kind_detail": "residential", "pmap:min_zoom": 13.0, "pmap:kind": "minor_road", "pmap:level": 0.0, "oneway": null, "highway": "minor_road", "pmap:link": null, "service": null, "building": null, "layer": null, "height": null, "amenity": null, "shop": null, "addr:housenumber": null, "footway": null, "sidewalk": null, "gap_length_m": 149.41301734891184, "box_id": 1, "provider": "protomaps" }, "geometry": { "type": "LineString", "coordinates": [ [ -49.243310701691925, -25.42477523628294 ], [ -49.243183505150583, -25.423431426334233 ] ] } },
{ "type": "Feature", "properties": { "name": "Rua Presidente Rodrigo Otávio", "pmap:kind_detail": "residential", "pmap:min_zoom": 13.0, "pmap:kind": "minor_road", "pmap:level": 0.0, "oneway": "no", "highway": "minor_road", "pmap:link": null, "service": null, "building": null, "layer": null, "height": null, "amenity": null, "shop": null, "addr:housenumber": null, "footway": null, "sidewalk": null, "gap_length_m": 138.69123728666557, "box_id": 1, "provider": "protomaps" }, "geometry": { "type": "LineString", "coordinates": [ [ -49.244496794932545, -25.424678501450558 ], [ -49.24437488700638, -25.423431426334233 ] ] } },
{ "type": "Feature", "properties": { "name": "Rua Presidente Rodrigo Otávio", "pmap:kind_detail": "residential", "pmap:min_zoom": 13.0, "pmap:kind": "minor_road", "pmap:level": 0.0, "oneway": "no", "highway": "minor_road", "pmap:link": null, "service": null, "building": null, "layer": null, "height": null, "amenity": null, "shop": null, "addr:housenumber": null, "footway": null, "sidewalk": null, "gap_length_m": 25.251742730568576, "box_id": 1, "provider": "protomaps" }, "geometry": { "type": "LineString", "coordinates": [ [ -49.244977684631294, -25.429678032111187 ], [ -49.2449551820755, -25.429450999996902 ] ] } },
{ "type": "Feature", "properties": { "name": "Rua Coronel Assumpção", "pmap:kind_detail": "residential", "pmap:min_zoom": 13.0, "pmap:kind": "minor_road", "pmap:level": 0.0, "oneway": null, "highway": "minor_road", "pmap:link": null, "service": null, "building": null, "layer": null, "height": null, "amenity": null, "shop": null, "addr:housenumber": null, "footway": null, "sidewalk": null, "gap_length_m": 131.37293271956869, "box_id": 1, "provider": "protomaps" }, "geometry": { "type": "LineString", "coordinates": [ [ -49.245188097417937, -25.423431426334229 ], [ -49.245307360050766, -25.424612387230823 ] ] } },
{ "type": "Feature", "properties": { "name": "Rua Coronel Assumpção", "pmap:kind_detail": "residential", "pmap:min_zoom": 13.0, "pmap:kind": "minor_road", "pmap:level": 0.0, "oneway": null, "highway": "minor_road", "pmap:link": null, "service": null, "building": null, "layer": null, "height": null, "amenity": null, "shop": null, "addr:housenumber": null, "footway": null, "sidewalk": null, "gap_length_m": 37.220729133688856, "box_id": 1, "provider": "protomaps" }, "geometry": { "type": "LineString", "coordinates": [ [ -49.245153895486169, -25.423096909016333 ], [ -49.245188560685506, -25.423431426334233 ] ] } },
{ "type": "Feature", "properties": { "name": "Rua Professor Doutor Duílio Aníbal Calderari", "pmap:kind_detail": "residential", "pmap:min_zoom": 13.0, "pmap:kind": "minor_road", "pmap:level": 0.0, "oneway": "no", "highway": "minor_road", "pmap:link": null, "service": null, "building": null, "layer": null, "height": null, "amenity": null, "shop": null, "addr:housenumber": null, "footway": null, "sidewalk": null, "gap_length_m": 54.903777950415481, "box_id": 1, "provider": "protomaps" }, "geometry": { "type": "LineString", "coordinates": [ [ -49.241408388227953, -25.422665948011801 ], [ -49.241444170475006, -25.422661051281299 ], [ -49.241951683343487, -25.422619476458198 ] ] } },
{ "type": "Feature", "properties": { "name": null, "pmap:kind_detail": "primary_link", "pmap:min_zoom": 8.0, "pmap:kind": "major_road", "pmap:level": 0.0, "oneway": "yes", "highway": "major_road", "pmap:link": 1.0, "service": null, "building": null, "layer": null, "height": null, "amenity": null, "shop": null, "addr:housenumber": null, "footway": null, "sidewalk": null, "gap_length_m": 34.162649137728948, "box_id": 1, "provider": "protomaps" }, "geometry": { "type": "LineString", "coordinates": [ [ -49.241337715725756, -25.427534597567888 ], [ -49.241363704204559, -25.427527643261229 ], [ -49.241508543491364, -25.427479195988294 ], [ -49.241652570998674, -25.427419863766268 ] ] } },
{ "type": "Feature", "properties": { "name": null, "pmap:kind_detail": "secondary", "pmap:min_zoom": 10.0, "pmap:kind": "medium_road", "pmap:level": 1.0, "oneway": "yes", "highway": "medium_road", "pmap:link": null, "service": null, "building": null, "layer": 1.0, "height": null, "amenity": null, "shop": null, "addr:housenumber": null, "footway": null, "sidewalk": null, "gap_length_m": 20.665872980453489, "box_id": 1, "provider": "protomaps" }, "geometry": { "type": "LineString", "coordinates": [ [ -49.241361021995544, -25.427956401626741 ], [ -49.241455039743066, -25.42779053219882 ] ] } },
{ "type": "Feature", "properties": { "name": null, "pmap:kind_detail": "secondary", "pmap:min_zoom": 10.0, "pmap:kind": "medium_road", "pmap:level": 1.0, "oneway": "yes", "highway": "medium_road", "pmap:link": null, "service": null, "building": null, "layer": 1.0, "height": null, "amenity": null, "shop": null, "addr:housenumber": null, "footway": null, "sidewalk": null, "gap_length_m": 18.401160487844017, "box_id": 1, "provider": "protomaps" }, "geometry": { "type": "LineString", "coordinates": [ [ -49.24173940108421, -25.427769775089637 ], [ -49.241656064987183, -25.427917643808389 ] ] } },
{ "type": "Feature", "properties": { "name": "Rua Raphael Papa", "pmap:kind_detail": "primary", "pmap:min_zoom": 8.0, "pmap:kind": "major_road", "pmap:level": 0.0, "oneway": "yes", "highway": "major_road", "pmap:link": null, "service": null, "building": null, "layer": null, "height": null, "amenity": null, "shop": null, "addr:housenumber": null, "footway": null, "sidewalk": null, "gap_length_m": 11.957511330305854, "box_id": 1, "provider": "protomaps" }, "geometry": { "type": "LineString", "coordinates": [ [ -49.241452361519968, -25.427786900229552 ], [ -49.241333920422171, -25.427796021369591 ] ] } },
{ "type": "Feature", "properties": { "name": "Rua Raphael Papa", "pmap:kind_detail": "primary", "pmap:min_zoom": 8.0, "pmap:kind": "major_road", "pmap:level": 0.0, "oneway": "yes", "highway": "major_road", "pmap:link": null, "service": null, "building": null, "layer": null, "height": null, "amenity": null, "shop": null, "addr:housenumber": null, "footway": null, "sidewalk": null, "gap_length_m": 16.689899585942563, "box_id": 1, "provider": "protomaps" }, "geometry": { "type": "LineString", "coordinates": [ [ -49.241335106683763, -25.427714311034212 ], [ -49.241500342180544, -25.42770074494981 ] ] } },
{ "type": "Feature", "properties": { "name": "Rua Engenheiro Carlos Westermann", "pmap:kind_detail": "residential", "pmap:min_zoom": 13.0, "pmap:kind": "minor_road", "pmap:level": 0.0, "oneway": null, "highway": "minor_road", "pmap:link": null, "service": null, "building": null, "layer": null, "height": null, "amenity": null, "shop": null, "addr:housenumber": null, "footway": null, "sidewalk": null, "gap_length_m": 46.324459011046116, "box_id": 1, "provider": "protomaps" }, "geometry": { "type": "LineString", "coordinates": [ [ -49.241768825662575, -25.427147703632922 ], [ -49.241345728972739, -25.42698262618919 ] ] } },
{ "type": "Feature", "properties": { "name": null, "pmap:kind_detail": "secondary_link", "pmap:min_zoom": 10.0, "pmap:kind": "medium_road", "pmap:level": 0.0, "oneway": "yes", "highway": "medium_road", "pmap:link": 1.0, "service": null, "building": null, "layer": null, "height": null, "amenity": null, "shop": null, "addr:housenumber": null, "footway": null, "sidewalk": null, "gap_length_m": 10.399100797777677, "box_id": 1, "provider": "protomaps" }, "geometry": { "type": "LineString", "coordinates": [ [ -49.241409301757812, -25.428351246901194 ], [ -49.241344928741455, -25.428397271810486 ], [ -49.241325084235115, -25.428404651467332 ] ] } },
{ "type": "Feature", "properties": { "name": "Avenida Edgard Stellfeld", "pmap:kind_detail": "residential", "pmap:min_zoom": 13.0, "pmap:kind": "minor_road", "pmap:level": 0.0, "oneway": "no", "highway": "minor_road", "pmap:link": null, "service": null, "building": null, "layer": null, "height": null, "amenity": null, "shop": null, "addr:housenumber": null, "footway": null, "sidewalk": null, "gap_length_m": 79.980609557279024, "box_id": 1, "provider": "protomaps" }, "geometry": { "type": "LineString", "coordinates": [ [ -49.242091357201829, -25.426341344222894 ], [ -49.241359121764155, -25.426060062790516 ] ] } },
{ "type": "Feature", "properties": { "name": "Avenida Nossa Senhora da Luz", "pmap:kind_detail": "secondary", "pmap:min_zoom": 10.0, "pmap:kind": "medium_road", "pmap:level": 0.0, "oneway": "yes", "highway": "medium_road", "pmap:link": null, "service": null, "building": null, "layer": null, "height": null, "amenity": null, "shop": null, "addr:housenumber": null, "footway": null, "sidewalk": null, "gap_length_m": 30.837021632956112, "box_id": 1, "provider": "protomaps" }, "geometry": { "type": "LineString", "coordinates": [ [ -49.241905131343373, -25.423656249547143 ], [ -49.241724379684612, -25.423431426334233 ] ] } },
{ "type": "Feature", "properties": { "name": "Avenida Nossa Senhora da Luz", "pmap:kind_detail": "secondary", "pmap:min_zoom": 10.0, "pmap:kind": "medium_road", "pmap:level": 0.0, "oneway": "yes", "highway": "medium_road", "pmap:link": null, "service": null, "building": null, "layer": null, "height": null, "amenity": null, "shop": null, "addr:housenumber": null, "footway": null, "sidewalk": null, "gap_length_m": 54.900317121018801, "box_id": 1, "provider": "protomaps" }, "geometry": { "type": "LineString", "coordinates": [ [ -49.241967847209949, -25.423431426334233 ], [ -49.24221396446228, -25.423739066517403 ], [ -49.242281078142149, -25.423836978023811 ] ] } },
{ "type": "Feature", "properties": { "name": "Rua Professor Ewaldo Schiebler", "pmap:kind_detail": "residential", "pmap:min_zoom": 13.0, "pmap:kind": "minor_road", "pmap:level": 0.0, "oneway": "no", "highway": "minor_road", "pmap:link": null, "service": null, "building": null, "layer": null, "height": null, "amenity": null, "shop": null, "addr:housenumber": null, "footway": null, "sidewalk": null, "gap_length_m": 116.01552407452463, "box_id": 1, "provider": "protomaps" }, "geometry": { "type": "LineString", "coordinates": [ [ -49.241382467263669, -25.424451797787682 ], [ -49.242444139208843, -25.424860785964647 ] ] } },
{ "type": "Feature", "properties": { "name": "Rua Valdívia", "pmap:kind_detail": "residential", "pmap:min_zoom": 13.0, "pmap:kind": "minor_road", "pmap:level": 0.0, "oneway": "no", "highway": "minor_road", "pmap:link": null, "service": null, "building": null, "layer": null, "height": null, "amenity": null, "shop": null, "addr:housenumber": null, "footway": null, "sidewalk": null, "gap_length_m": 43.439094769155638, "box_id": 1, "provider": "protomaps" }, "geometry": { "type": "LineString", "coordinates": [ [ -49.242030883667731, -25.423354352560068 ], [ -49.241991341114044, -25.42296387166374 ] ] } },
{ "type": "Feature", "properties": { "name": "Rua Valdívia", "pmap:kind_detail": "residential", "pmap:min_zoom": 13.0, "pmap:kind": "minor_road", "pmap:level": 0.0, "oneway": "no", "highway": "minor_road", "pmap:link": null, "service": null, "building": null, "layer": null, "height": null, "amenity": null, "shop": null, "addr:housenumber": null, "footway": null, "sidewalk": null, "gap_length_m": 122.13503079475979, "box_id": 1, "provider": "protomaps" }, "geometry": { "type": "LineString", "coordinates": [ [ -49.241753098665967, -25.420620628058998 ], [ -49.241864911749921, -25.421718466130709 ] ] } },
{ "type": "Feature", "properties": { "name": "Rua Prefeito Ângelo Ferrário Lopes", "pmap:kind_detail": "residential", "pmap:min_zoom": 13.0, "pmap:kind": "minor_road", "pmap:level": 0.0, "oneway": null, "highway": "minor_road", "pmap:link": null, "service": null, "building": null, "layer": null, "height": null, "amenity": null, "shop": null, "addr:housenumber": null, "footway": null, "sidewalk": null, "gap_length_m": 18.350886178970104, "box_id": 1, "provider": "protomaps" }, "geometry": { "type": "LineString", "coordinates": [ [ -49.243183724433287, -25.423431426334236 ], [ -49.243168170371462, -25.423266374466383 ] ] } },
{ "type": "Feature", "properties": { "name": "Rua Prefeito Ângelo Ferrário Lopes", "pmap:kind_detail": "residential", "pmap:min_zoom": 13.0, "pmap:kind": "minor_road", "pmap:level": 0.0, "oneway": null, "highway": "minor_road", "pmap:link": null, "service": null, "building": null, "layer": null, "height": null, "amenity": null, "shop": null, "addr:housenumber": null, "footway": null, "sidewalk": null, "gap_length_m": 109.56753742068145, "box_id": 1, "provider": "protomaps" }, "geometry": { "type": "LineString", "coordinates": [ [ -49.243013027849948, -25.421620063767811 ], [ -49.242920161546685, -25.420634589233018 ] ] } },
{ "type": "Feature", "properties": { "name": "Avenida Nossa Senhora da Luz", "pmap:kind_detail": "secondary", "pmap:min_zoom": 10.0, "pmap:kind": "medium_road", "pmap:level": 0.0, "oneway": "yes", "highway": "medium_road", "pmap:link": null, "service": null, "building": null, "layer": null, "height": null, "amenity": null, "shop": null, "addr:housenumber": null, "footway": null, "sidewalk": null, "gap_length_m": 86.349754439440915, "box_id": 1, "provider": "protomaps" }, "geometry": { "type": "LineString", "coordinates": [ [ -49.241407339247928, -25.422738221804142 ], [ -49.241914095397448, -25.423367361174869 ] ] } },
{ "type": "Feature", "properties": { "name": "Avenida Nossa Senhora da Luz", "pmap:kind_detail": "secondary", "pmap:min_zoom": 10.0, "pmap:kind": "medium_road", "pmap:level": 0.0, "oneway": "yes", "highway": "medium_road", "pmap:link": null, "service": null, "building": null, "layer": null, "height": null, "amenity": null, "shop": null, "addr:housenumber": null, "footway": null, "sidewalk": null, "gap_length_m": 7.3628445378839551, "box_id": 1, "provider": "protomaps" }, "geometry": { "type": "LineString", "coordinates": [ [ -49.241922488476696, -25.423377781142634 ], [ -49.241965698651939, -25.423431426334233 ] ] } },
{ "type": "Feature", "properties": { "name": "Avenida Nossa Senhora da Luz", "pmap:kind_detail": "secondary", "pmap:min_zoom": 10.0, "pmap:kind": "medium_road", "pmap:level": 0.0, "oneway": "yes", "highway": "medium_road", "pmap:link": null, "service": null, "building": null, "layer": null, "height": null, "amenity": null, "shop": null, "addr:housenumber": null, "footway": null, "sidewalk": null, "gap_length_m": 54.545870035898417, "box_id": 1, "provider": "protomaps" }, "geometry": { "type": "LineString", "coordinates": [ [ -49.24172386864192, -25.423431426334229 ], [ -49.241403039228643, -25.423034486402923 ] ] } },
{ "type": "Feature", "properties": { "name": "Rua Conselheiro Carrão", "pmap:kind_detail": "residential", "pmap:min_zoom": 13.0, "pmap:kind": "minor_road", "pmap:level": 0.0, "oneway": "no", "highway": "minor_road", "pmap:link": null, "service": null, "building": null, "layer": null, "height": null, "amenity": null, "shop": null, "addr:housenumber": null, "footway": null, "sidewalk": null, "gap_length_m": 217.68274360225044, "box_id": 1, "provider": "protomaps" }, "geometry": { "type": "LineString", "coordinates": [ [ -49.248343825042369, -25.421299932160352 ], [ -49.246188998222351, -25.421478840508232 ] ] } },
{ "type": "Feature", "properties": { "name": "Rua Conselheiro Carrão", "pmap:kind_detail": "residential", "pmap:min_zoom": 13.0, "pmap:kind": "minor_road", "pmap:level": 0.0, "oneway": "no", "highway": "minor_road", "pmap:link": null, "service": null, "building": null, "layer": null, "height": null, "amenity": null, "shop": null, "addr:housenumber": null, "footway": null, "sidewalk": null, "gap_length_m": 138.26806707993171, "box_id": 1, "provider": "protomaps" }, "geometry": { "type": "LineString", "coordinates": [ [ -49.245805442333221, -25.421381937985842 ], [ -49.244437515735626, -25.421503066138829 ] ] } },
{ "type": "Feature", "properties": { "name": "Rua Conselheiro Carrão", "pmap:kind_detail": "residential", "pmap:min_zoom": 13.0, "pmap:kind": "minor_road", "pmap:level": 0.0, "oneway": "no", "highway": "minor_road", "pmap:link": null, "service": null, "building": null, "layer": null, "height": null, "amenity": null, "shop": null, "addr:housenumber": null, "footway": null, "sidewalk": null, "gap_length_m": 102.74464082818379, "box_id": 1, "provider": "protomaps" }, "geometry": { "type": "LineString", "coordinates": [ [ -49.244035184383392, -25.421536982021657 ], [ -49.243018399520146, -25.421624136408898 ] ] } },
{ "type": "Feature", "properties": { "name": "Rua Conselheiro Carrão", "pmap:kind_detail": "residential", "pmap:min_zoom": 13.0, "pmap:kind": "minor_road", "pmap:level": 0.0, "oneway": "no", "highway": "minor_road", "pmap:link": null, "service": null, "building": null, "layer": null, "height": null, "amenity": null, "shop": null, "addr:housenumber": null, "footway": null, "sidewalk": null, "gap_length_m": 44.349992329284738, "box_id": 1, "provider": "protomaps" }, "geometry": { "type": "LineString", "coordinates": [ [ -49.241860420940007, -25.421723384533156 ], [ -49.241421522289237, -25.421760999252765 ] ] } },
{ "type": "Feature", "properties": { "name": "Rua Fernandes de Barros", "pmap:kind_detail": "residential", "pmap:min_zoom": 13.0, "pmap:kind": "minor_road", "pmap:level": 0.0, "oneway": "no", "highway": "minor_road", "pmap:link": null, "service": null, "building": null, "layer": null, "height": null, "amenity": null, "shop": null, "addr:housenumber": null, "footway": null, "sidewalk": null, "gap_length_m": 44.999444147195668, "box_id": 1, "provider": "protomaps" }, "geometry": { "type": "LineString", "coordinates": [ [ -49.246014895807058, -25.423431426334233 ], [ -49.245973540735342, -25.423026951405763 ] ] } },
{ "type": "Feature", "properties": { "name": "Rua Fernandes de Barros", "pmap:kind_detail": "residential", "pmap:min_zoom": 13.0, "pmap:kind": "minor_road", "pmap:level": 0.0, "oneway": "no", "highway": "minor_road", "pmap:link": null, "service": null, "building": null, "layer": null, "height": null, "amenity": null, "shop": null, "addr:housenumber": null, "footway": null, "sidewalk": null, "gap_length_m": 180.60785309086526, "box_id": 1, "provider": "protomaps" }, "geometry": { "type": "LineString", "coordinates": [ [ -49.245898353656784, -25.422291576376846 ], [ -49.24573237600012, -25.420668192709449 ] ] } },
{ "type": "Feature", "properties": { "name": null, "pmap:kind_detail": "service", "pmap:min_zoom": 14.0, "pmap:kind": "minor_road", "pmap:level": 0.0, "oneway": "yes", "highway": "minor_road", "pmap:link": null, "service": null, "building": null, "layer": null, "height": null, "amenity": null, "shop": null, "addr:housenumber": null, "footway": null, "sidewalk": null, "gap_length_m": 26.391599477945032, "box_id": 1, "provider": "protomaps" }, "geometry": { "type": "LineString", "coordinates": [ [ -49.241621196269989, -25.423305453055139 ], [ -49.241397304071398, -25.423429622471019 ] ] } },
{ "type": "Feature", "properties": { "name": null, "pmap:kind_detail": "service", "pmap:min_zoom": 14.0, "pmap:kind": "minor_road", "pmap:level": 0.0, "oneway": "yes", "highway": "minor_road", "pmap:link": null, "service": null, "building": null, "layer": null, "height": null, "amenity": null, "shop": null, "addr:housenumber": null, "footway": null, "sidewalk": null, "gap_length_m": 16.521812710687673, "box_id": 1, "provider": "protomaps" }, "geometry": { "type": "LineString", "coordinates": [ [ -49.241399428417168, -25.423283262044031 ], [ -49.241524636745453, -25.423186747465213 ] ] } },
{ "type": "Feature", "properties": { "name": null, "pmap:kind_detail": "service", "pmap:min_zoom": 14.0, "pmap:kind": "minor_road", "pmap:level": 0.0, "oneway": "yes", "highway": "minor_road", "pmap:link": null, "service": null, "building": null, "layer": null, "height": null, "amenity": null, "shop": null, "addr:housenumber": null, "footway": null, "sidewalk": null, "gap_length_m": 2.5673364240557071, "box_id": 1, "provider": "protomaps" }, "geometry": { "type": "LineString", "coordinates": [ [ -49.241428077220917, -25.42306561931224 ], [ -49.241402608760026, -25.423064144759035 ] ] } },
{ "type": "Feature", "properties": { "name": "Rua Flávio Dallegrave", "pmap:kind_detail": "residential", "pmap:min_zoom": 13.0, "pmap:kind": "minor_road", "pmap:level": 0.0, "oneway": "no", "highway": "minor_road", "pmap:link": null, "service": null, "building": null, "layer": null, "height": null, "amenity": null, "shop": null, "addr:housenumber": null, "footway": null, "sidewalk": null, "gap_length_m": 110.1115191748337, "box_id": 1, "provider": "protomaps" }, "geometry": { "type": "LineString", "coordinates": [ [ -49.24565255641938, -25.421396473364201 ], [ -49.244919334872208, -25.420658483118277 ] ] } },
{ "type": "Feature", "properties": { "name": null, "pmap:kind_detail": "secondary_link", "pmap:min_zoom": 10.0, "pmap:kind": "medium_road", "pmap:level": 0.0, "oneway": "yes", "highway": "medium_road", "pmap:link": 1.0, "service": null, "building": null, "layer": null, "height": null, "amenity": null, "shop": null, "addr:housenumber": null, "footway": null, "sidewalk": null, "gap_length_m": 10.351309861612256, "box_id": 1, "provider": "protomaps" }, "geometry": { "type": "LineString", "coordinates": [ [ -49.241487085819244, -25.422835475821586 ], [ -49.24140510804768, -25.422891948593783 ] ] } },
{ "type": "Feature", "properties": { "name": "Rua Presidente Rodrigo Otávio", "pmap:kind_detail": "residential", "pmap:min_zoom": 13.0, "pmap:kind": "minor_road", "pmap:level": 0.0, "oneway": "no", "highway": "minor_road", "pmap:link": null, "service": null, "building": null, "layer": null, "height": null, "amenity": null, "shop": null, "addr:housenumber": null, "footway": null, "sidewalk": null, "gap_length_m": 75.890713114017416, "box_id": 1, "provider": "protomaps" }, "geometry": { "type": "LineString", "coordinates": [ [ -49.244166612625122, -25.421331064161599 ], [ -49.244099712556263, -25.420648690378535 ] ] } },
{ "type": "Feature", "properties": { "name": "Rua Presidente Rodrigo Otávio", "pmap:kind_detail": "residential", "pmap:min_zoom": 13.0, "pmap:kind": "minor_road", "pmap:level": 0.0, "oneway": "no", "highway": "minor_road", "pmap:link": null, "service": null, "building": null, "layer": null, "height": null, "amenity": null, "shop": null, "addr:housenumber": null, "footway": null, "sidewalk": null, "gap_length_m": 29.580321917175333, "box_id": 1, "provider": "protomaps" }, "geometry": { "type": "LineString", "coordinates": [ [ -49.244376817310922, -25.423431426334236 ], [ -49.244350910774706, -25.423165440276374 ] ] } },
{ "type": "Feature", "properties": { "name": "Rua Presidente Rodrigo Otávio", "pmap:kind_detail": "residential", "pmap:min_zoom": 13.0, "pmap:kind": "minor_road", "pmap:level": 0.0, "oneway": "no", "highway": "minor_road", "pmap:link": null, "service": null, "building": null, "layer": null, "height": null, "amenity": null, "shop": null, "addr:housenumber": null, "footway": null, "sidewalk": null, "gap_length_m": 79.010764506294052, "box_id": 1, "provider": "protomaps" }, "geometry": { "type": "LineString", "coordinates": [ [ -49.244278724894251, -25.422424293488731 ], [ -49.24420952796936, -25.421713829125007 ] ] } },
{ "type": "Feature", "properties": { "name": null, "pmap:kind_detail": "service", "pmap:min_zoom": 14.0, "pmap:kind": "minor_road", "pmap:level": 0.0, "oneway": null, "highway": "minor_road", "pmap:link": null, "service": null, "building": null, "layer": null, "height": null, "amenity": null, "shop": null, "addr:housenumber": null, "footway": null, "sidewalk": null, "gap_length_m": 35.638956074546137, "box_id": 1, "provider": "protomaps" }, "geometry": { "type": "LineString", "coordinates": [ [ -49.251265428011919, -25.42073415065008 ], [ -49.251282513141639, -25.420924073567587 ], [ -49.251312017440796, -25.421052469409751 ] ] } },
{ "type": "Feature", "properties": { "name": null, "pmap:kind_detail": "service", "pmap:min_zoom": 14.0, "pmap:kind": "minor_road", "pmap:level": 0.0, "oneway": null, "highway": "minor_road", "pmap:link": null, "service": null, "building": null, "layer": null, "height": null, "amenity": null, "shop": null, "addr:housenumber": null, "footway": null, "sidewalk": null, "gap_length_m": 60.82876474524312, "box_id": 1, "provider": "protomaps" }, "geometry": { "type": "LineString", "coordinates": [ [ -49.251180589199066, -25.421255964706752 ], [ -49.250577092170715, -25.42128988058958 ] ] } },
{ "type": "Feature", "properties": { "name": null, "pmap:kind_detail": "service", "pmap:min_zoom": 14.0, "pmap:kind": "minor_road", "pmap:level": 0.0, "oneway": null, "highway": "minor_road", "pmap:link": null, "service": null, "building": null, "layer": null, "height": null, "amenity": null, "shop": null, "addr:housenumber": null, "footway": null, "sidewalk": null, "gap_length_m": 19.559496778309143, "box_id": 1, "provider": "protomaps" }, "geometry": { "type": "LineString", "coordinates": [ [ -49.250566363334656, -25.421115456049304 ], [ -49.25058513879776, -25.421268077522051 ], [ -49.250577092170715, -25.42128988058958 ] ] } },
{ "type": "Feature", "properties": { "name": null, "pmap:kind_detail": "service", "pmap:min_zoom": 14.0, "pmap:kind": "minor_road", "pmap:level": 0.0, "oneway": null, "highway": "minor_road", "pmap:link": null, "service": null, "building": null, "layer": null, "height": null, "amenity": null, "shop": null, "addr:housenumber": null, "footway": null, "sidewalk": null, "gap_length_m": 27.513917553337961, "box_id": 1, "provider": "protomaps" }, "geometry": { "type": "LineString", "coordinates": [ [ -49.250577092170715, -25.42128988058958 ], [ -49.250547587871559, -25.421299570841832 ], [ -49.250306189060211, -25.421316528783233 ] ] } },
{ "type": "Feature", "properties": { "name": null, "pmap:kind_detail": "service", "pmap:min_zoom": 14.0, "pmap:kind": "minor_road", "pmap:level": 0.0, "oneway": null, "highway": "minor_road", "pmap:link": null, "service": null, "building": null, "layer": null, "height": null, "amenity": null, "shop": null, "addr:housenumber": null, "footway": null, "sidewalk": null, "gap_length_m": 61.153160230873937, "box_id": 1, "provider": "protomaps" }, "geometry": { "type": "LineString", "coordinates": [ [ -49.251177906990051, -25.423133451077906 ], [ -49.251100122928619, -25.422585951826452 ] ] } },
{ "type": "Feature", "properties": { "name": null, "pmap:kind_detail": "service", "pmap:min_zoom": 14.0, "pmap:kind": "minor_road", "pmap:level": 0.0, "oneway": null, "highway": "minor_road", "pmap:link": null, "service": null, "building": null, "layer": null, "height": null, "amenity": null, "shop": null, "addr:housenumber": null, "footway": null, "sidewalk": null, "gap_length_m": 67.808301422564085, "box_id": 1, "provider": "protomaps" }, "geometry": { "type": "LineString", "coordinates": [ [ -49.250657558441162, -25.42324004385253 ], [ -49.2505426957376, -25.422636883130377 ] ] } },
{ "type": "Feature", "properties": { "name": null, "pmap:kind_detail": "service", "pmap:min_zoom": 14.0, "pmap:kind": "minor_road", "pmap:level": 0.0, "oneway": null, "highway": "minor_road", "pmap:link": null, "service": null, "building": null, "layer": null, "height": null, "amenity": null, "shop": null, "addr:housenumber": null, "footway": null, "sidewalk": null, "gap_length_m": 13.467293906565564, "box_id": 1, "provider": "protomaps" }, "geometry": { "type": "LineString", "coordinates": [ [ -49.249917268753052, -25.422687699474949 ], [ -49.249981641769409, -25.422794292249577 ] ] } },
{ "type": "Feature", "properties": { "name": null, "pmap:kind_detail": "service", "pmap:min_zoom": 14.0, "pmap:kind": "minor_road", "pmap:level": 0.0, "oneway": null, "highway": "minor_road", "pmap:link": null, "service": null, "building": null, "layer": null, "height": null, "amenity": null, "shop": null, "addr:housenumber": null, "footway": null, "sidewalk": null, "gap_length_m": 16.460462769431047, "box_id": 1, "provider": "protomaps" }, "geometry": { "type": "LineString", "coordinates": [ [ -49.249981641769409, -25.422794292249577 ], [ -49.250011146068573, -25.422910575276429 ], [ -49.250035285949707, -25.422929955780898 ] ] } },
{ "type": "Feature", "properties": { "name": null, "pmap:kind_detail": "service", "pmap:min_zoom": 14.0, "pmap:kind": "minor_road", "pmap:level": 0.0, "oneway": null, "highway": "minor_road", "pmap:link": null, "service": null, "building": null, "layer": null, "height": null, "amenity": null, "shop": null, "addr:housenumber": null, "footway": null, "sidewalk": null, "gap_length_m": 38.495375125827763, "box_id": 1, "provider": "protomaps" }, "geometry": { "type": "LineString", "coordinates": [ [ -49.249981641769409, -25.422794292249577 ], [ -49.250177443027496, -25.422772489182034 ], [ -49.250198900699615, -25.422760376366735 ], [ -49.250311128115591, -25.422656655618475 ] ] } },
{ "type": "Feature", "properties": { "name": null, "pmap:kind_detail": "service", "pmap:min_zoom": 14.0, "pmap:kind": "minor_road", "pmap:level": 0.0, "oneway": null, "highway": "minor_road", "pmap:link": null, "service": null, "building": null, "layer": null, "height": null, "amenity": null, "shop": null, "addr:housenumber": null, "footway": null, "sidewalk": null, "gap_length_m": 46.61149317335019, "box_id": 1, "provider": "protomaps" }, "geometry": { "type": "LineString", "coordinates": [ [ -49.249865969080467, -25.422174462332393 ], [ -49.24983445815726, -25.421754668918801 ] ] } },
{ "type": "Feature", "properties": { "name": null, "pmap:kind_detail": "service", "pmap:min_zoom": 14.0, "pmap:kind": "minor_road", "pmap:level": 0.0, "oneway": null, "highway": "minor_road", "pmap:link": null, "service": null, "building": null, "layer": null, "height": null, "amenity": null, "shop": null, "addr:housenumber": null, "footway": null, "sidewalk": null, "gap_length_m": 17.040545425930301, "box_id": 1, "provider": "protomaps" }, "geometry": { "type": "LineString", "coordinates": [ [ -49.246854520688728, -25.4229517541871 ], [ -49.246875643730164, -25.423104380321192 ] ] } },
{ "type": "Feature", "properties": { "name": null, "pmap:kind_detail": "residential", "pmap:min_zoom": 13.0, "pmap:kind": "minor_road", "pmap:level": 0.0, "oneway": "no", "highway": "minor_road", "pmap:link": null, "service": null, "building": null, "layer": null, "height": null, "amenity": null, "shop": null, "addr:housenumber": null, "footway": null, "sidewalk": null, "gap_length_m": 60.529547622173823, "box_id": 1, "provider": "protomaps" }, "geometry": { "type": "LineString", "coordinates": [ [ -49.246188998222351, -25.421478840508232 ], [ -49.245775938034058, -25.421081540166462 ] ] } }
]
}
