{
"type": "FeatureCollection",
"name": "curitiba_1km_protomaps_protoblocks",
"crs": { "type": "name", "properties": { "name": "urn:ogc:def:crs:OGC:1.3:CRS84" } },
"features": [
{ "type": "Feature", "properties": { "box_id": 1, "provider": "protomaps" }, "geometry": { "type": "Polygon", "coordinates": [ [ [ -49.267142414979851, -25.460779851949646 ], [ -49.267965359759117, -25.461124069283574 ], [ -49.268714377954751, -25.459573847837621 ], [ -49.268714189239482, -25.459573762554729 ], [ -49.267931335425466, -25.459254219437231 ], [ -49.26714071359163, -25.460779151156871 ], [ -49.267142414979851, -25.460779851949646 ] ] ] } },
{ "type": "Feature", "properties": { "box_id": 1, "provider": "protomaps" }, "geometry": { "type": "Polygon", "coordinates": [ [ [ -49.267965359759117, -25.461124069283574 ], [ -49.267142414979851, -25.460779851949646 ], [ -49.26714071359163, -25.460779151156871 ], [ -49.266148619265415, -25.46269261098238 ], [ -49.266149998168935, -25.462693124710928 ], [ -49.266597869762279, -25.462900138516432 ], [ -49.266600609235859, -25.462901404988287 ], [ -49.267023128285409, -25.463060769443043 ], [ -49.267024398304073, -25.46306124847462 ], [ -49.267026354061919, -25.463062174360047 ], [ -49.26753938151446, -25.462053752200308 ], [ -49.267963170757859, -25.461128599835831 ], [ -49.267965359759117, -25.461124069283574 ] ] ] } },
{ "type": "Feature", "properties": { "box_id": 1, "provider": "protomaps" }, "geometry": { "type": "Polygon", "coordinates": [ [ [ -49.267965359759117, -25.461124069283574 ], [ -49.268601536426395, -25.461390161398484 ], [ -49.269010770026597, -25.461551708763412 ], [ -49.269379377515165, -25.460799226002898 ], [ -49.269717335886426, -25.46002907331199 ], [ -49.268714377954751, -25.459573847837621 ], [ -49.267965359759117, -25.461124069283574 ] ] ] } },
{ "type": "Feature", "properties": { "box_id": 1, "provider": "protomaps" }, "geometry": { "type": "Polygon", "coordinates": [ [ [ -49.269010770026597, -25.461551708763412 ], [ -49.268601536426395, -25.461390161398484 ], [ -49.267965359759117, -25.461124069283574 ], [ -49.267963170757859, -25.461128599835831 ], [ -49.26753938151446, -25.462053752200308 ], [ -49.267026354061919, -25.463062174360047 ], [ -49.26702634995543, -25.463062183339453 ], [ -49.267024398187672, -25.463061256598365 ], [ -49.267023125199074, -25.463060776628925 ], [ -49.266536236016094, -25.464020156946425 ], [ -49.266187548264128, -25.463845812118993 ], [ -49.265672564929226, -25.463618193930909 ], [ -49.265671433348196, -25.463617769788314 ], [ -49.264382537093816, -25.463134949068728 ], [ -49.264381432212687, -25.463134536065763 ], [ -49.26389213946738, -25.464148363449077 ], [ -49.262835370914146, -25.463721455760382 ], [ -49.262018839735575, -25.463396993168903 ], [ -49.262003060805696, -25.464494999960621 ], [ -49.262001252431006, -25.464620835040158 ], [ -49.271944270272101, -25.464738257996434 ], [ -49.272073216153764, -25.455711853148696 ], [ -49.272028185545309, -25.455711323049215 ], [ -49.271571904048287, -25.455705950932806 ], [ -49.271283745702625, -25.455771435172856 ], [ -49.271047711295097, -25.455819872376274 ], [ -49.27109089919599, -25.45570028619553 ], [ -49.269912113371909, -25.455686397109325 ], [ -49.269304275506812, -25.457001742256082 ], [ -49.268660545337646, -25.457878457481442 ], [ -49.269266724317603, -25.458430642721122 ], [ -49.270139403593745, -25.459218632595537 ], [ -49.271251554341255, -25.460222833325329 ], [ -49.27071241993405, -25.461326072676794 ], [ -49.27010893812389, -25.461075318834393 ], [ -49.269379377515165, -25.460799226002898 ], [ -49.269010770026597, -25.461551708763412 ] ] ] } },
{ "type": "Feature", "properties": { "box_id": 1, "provider": "protomaps" }, "geometry": { "type": "Polygon", "coordinates": [ [ [ -49.269379377515165, -25.460799226002898 ], [ -49.27010893812389, -25.461075318834393 ], [ -49.27071241993405, -25.461326072676794 ], [ -49.271251554341255, -25.460222833325329 ], [ -49.270139403593745, -25.459218632595537 ], [ -49.269717335886426, -25.46002907331199 ], [ -49.269379377515165, -25.460799226002898 ] ] ] } },
{ "type": "Feature", "properties": { "box_id": 1, "provider": "protomaps" }, "geometry": { "type": "Polygon", "coordinates": [ [ [ -49.269717335886426, -25.46002907331199 ], [ -49.270139403593745, -25.459218632595537 ], [ -49.269266724317603, -25.458430642721122 ], [ -49.268714377954751, -25.459573847837621 ], [ -49.269717335886426, -25.46002907331199 ] ] ] } },
{ "type": "Feature", "properties": { "box_id": 1, "provider": "protomaps" }, "geometry": { "type": "Polygon", "coordinates": [ [ [ -49.26702634995543, -25.463062183339453 ], [ -49.267026354061919, -25.463062174360047 ], [ -49.267024398304073, -25.46306124847462 ], [ -49.267023128285409, -25.463060769443043 ], [ -49.267023125199074, -25.463060776628925 ], [ -49.267024398187672, -25.463061256598365 ], [ -49.26702634995543, -25.463062183339453 ] ] ] } },
{ "type": "Feature", "properties": { "box_id": 1, "provider": "protomaps" }, "geometry": { "type": "Polygon", "coordinates": [ [ [ -49.268714377954751, -25.459573847837621 ], [ -49.269266724317603, -25.458430642721122 ], [ -49.268660545337646, -25.457878457481442 ], [ -49.268252849684991, -25.458634078930551 ], [ -49.267931335425466, -25.459254219437231 ], [ -49.268714189239482, -25.459573762554729 ], [ -49.268714377954751, -25.459573847837621 ] ] ] } },
{ "type": "Feature", "properties": { "box_id": 1, "provider": "protomaps" }, "geometry": { "type": "Polygon", "coordinates": [ [ [ -49.267458915587035, -25.456793462310142 ], [ -49.268660545337646, -25.457878457481442 ], [ -49.269304275506812, -25.457001742256082 ], [ -49.269912113371909, -25.455686397109325 ], [ -49.269281317819427, -25.455678960849713 ], [ -49.267992353118174, -25.455663757202029 ], [ -49.267775416665998, -25.456110495841482 ], [ -49.267458915587035, -25.456793462310142 ] ] ] } },
{ "type": "Feature", "properties": { "box_id": 1, "provider": "protomaps" }, "geometry": { "type": "Polygon", "coordinates": [ [ [ -49.268660545337646, -25.457878457481442 ], [ -49.267458915587035, -25.456793462310142 ], [ -49.266824754158669, -25.458088344598689 ], [ -49.267475767446427, -25.458337125472283 ], [ -49.268252849684991, -25.458634078930551 ], [ -49.268660545337646, -25.457878457481442 ] ] ] } },
{ "type": "Feature", "properties": { "box_id": 1, "provider": "protomaps" }, "geometry": { "type": "Polygon", "coordinates": [ [ [ -49.271047711295097, -25.455819872376274 ], [ -49.271283745702625, -25.455771435172856 ], [ -49.271571904048287, -25.455705950932806 ], [ -49.27109089919599, -25.45570028619553 ], [ -49.271047711295097, -25.455819872376274 ] ] ] } },
{ "type": "Feature", "properties": { "box_id": 1, "provider": "protomaps" }, "geometry": { "type": "Polygon", "coordinates": [ [ [ -49.266536236016094, -25.464020156946425 ], [ -49.267023125199074, -25.463060776628925 ], [ -49.266600608731331, -25.462901440191146 ], [ -49.266597869762279, -25.462900138516432 ], [ -49.266149998168935, -25.462693124710928 ], [ -49.266148619265415, -25.46269261098238 ], [ -49.265629649274153, -25.46249937541976 ], [ -49.264844662534379, -25.462174791541738 ], [ -49.264380653775554, -25.463134243383429 ], [ -49.26438143222564, -25.463134535163128 ], [ -49.264382537093816, -25.463134949068728 ], [ -49.265671433348196, -25.463617769788314 ], [ -49.265672564929226, -25.463618193930909 ], [ -49.266187548264128, -25.463845812118993 ], [ -49.266536236016094, -25.464020156946425 ] ] ] } },
{ "type": "Feature", "properties": { "box_id": 1, "provider": "protomaps" }, "geometry": { "type": "Polygon", "coordinates": [ [ [ -49.267023125199074, -25.463060776628925 ], [ -49.267023128285409, -25.463060769443043 ], [ -49.266600609235859, -25.462901404988287 ], [ -49.266597869762279, -25.462900138516432 ], [ -49.266600608731331, -25.462901440191146 ], [ -49.267023125199074, -25.463060776628925 ] ] ] } },
{ "type": "Feature", "properties": { "box_id": 1, "provider": "protomaps" }, "geometry": { "type": "Polygon", "coordinates": [ [ [ -49.26438143222564, -25.463134535163128 ], [ -49.264380653775554, -25.463134243383429 ], [ -49.264380652755356, -25.463134245176938 ], [ -49.264381432212687, -25.463134536065763 ], [ -49.26438143222564, -25.463134535163128 ] ] ] } },
{ "type": "Feature", "properties": { "box_id": 1, "provider": "protomaps" }, "geometry": { "type": "Polygon", "coordinates": [ [ [ -49.264382537093816, -25.463134949068728 ], [ -49.26438143222564, -25.463134535163128 ], [ -49.264381432212687, -25.463134536065763 ], [ -49.264382537093816, -25.463134949068728 ] ] ] } },
{ "type": "Feature", "properties": { "box_id": 1, "provider": "protomaps" }, "geometry": { "type": "Polygon", "coordinates": [ [ [ -49.262835370914146, -25.463721455760382 ], [ -49.26389213946738, -25.464148363449077 ], [ -49.264381432212687, -25.463134536065763 ], [ -49.264380652755356, -25.463134245176938 ], [ -49.264379739768664, -25.463133903958251 ], [ -49.263443595697751, -25.462755993589479 ], [ -49.263906249597234, -25.461786780561759 ], [ -49.262713662206515, -25.461311491570793 ], [ -49.262614840927398, -25.461272839732317 ], [ -49.262052522523732, -25.461052897281171 ], [ -49.262036209201632, -25.462188231553366 ], [ -49.26201884445706, -25.46339666460586 ], [ -49.262018839735575, -25.463396993168903 ], [ -49.262835370914146, -25.463721455760382 ] ] ] } },
{ "type": "Feature", "properties": { "box_id": 1, "provider": "protomaps" }, "geometry": { "type": "Polygon", "coordinates": [ [ [ -49.263443595697751, -25.462755993589479 ], [ -49.264379739768664, -25.463133903958251 ], [ -49.264380652755356, -25.463134245176938 ], [ -49.264380653775554, -25.463134243383429 ], [ -49.264844662534379, -25.462174791541738 ], [ -49.263907670482247, -25.461787347169075 ], [ -49.263906249597234, -25.461786780561759 ], [ -49.263443595697751, -25.462755993589479 ] ] ] } },
{ "type": "Feature", "properties": { "box_id": 1, "provider": "protomaps" }, "geometry": { "type": "Polygon", "coordinates": [ [ [ -49.262615140109958, -25.461272226668967 ], [ -49.262713662206515, -25.461311491570793 ], [ -49.263906249597234, -25.461786780561759 ], [ -49.264836294078762, -25.459838379388692 ], [ -49.263564667836619, -25.459326079782631 ], [ -49.263564348208966, -25.459326732329316 ], [ -49.262615140109958, -25.461272226668967 ] ] ] } },
{ "type": "Feature", "properties": { "box_id": 1, "provider": "protomaps" }, "geometry": { "type": "Polygon", "coordinates": [ [ [ -49.262713662206515, -25.461311491570793 ], [ -49.262615140109958, -25.461272226668967 ], [ -49.262614840927398, -25.461272839732317 ], [ -49.262713662206515, -25.461311491570793 ] ] ] } },
{ "type": "Feature", "properties": { "box_id": 1, "provider": "protomaps" }, "geometry": { "type": "Polygon", "coordinates": [ [ [ -49.263906249597234, -25.461786780561759 ], [ -49.263907670482247, -25.461787347169075 ], [ -49.264844662534379, -25.462174791541738 ], [ -49.265788959575566, -25.460222168477017 ], [ -49.264836294078762, -25.459838379388692 ], [ -49.263906249597234, -25.461786780561759 ] ] ] } },
{ "type": "Feature", "properties": { "box_id": 1, "provider": "protomaps" }, "geometry": { "type": "Polygon", "coordinates": [ [ [ -49.264844662534379, -25.462174791541738 ], [ -49.265629649274153, -25.46249937541976 ], [ -49.266148619265415, -25.46269261098238 ], [ -49.26714071359163, -25.460779151156871 ], [ -49.26579058206616, -25.460222822310307 ], [ -49.265788959575566, -25.460222168477017 ], [ -49.264844662534379, -25.462174791541738 ] ] ] } },
{ "type": "Feature", "properties": { "box_id": 1, "provider": "protomaps" }, "geometry": { "type": "Polygon", "coordinates": [ [ [ -49.266514778406673, -25.458721266155024 ], [ -49.266161023356005, -25.459452792501057 ], [ -49.265788959575566, -25.460222168477017 ], [ -49.26579058206616, -25.460222822310307 ], [ -49.26714071359163, -25.460779151156871 ], [ -49.267931335425466, -25.459254219437231 ], [ -49.267930984454345, -25.459254076265491 ], [ -49.266514778406673, -25.458721266155024 ] ] ] } },
{ "type": "Feature", "properties": { "box_id": 1, "provider": "protomaps" }, "geometry": { "type": "Polygon", "coordinates": [ [ [ -49.266161023356005, -25.459452792501057 ], [ -49.266514778406673, -25.458721266155024 ], [ -49.265554547072099, -25.458338611459297 ], [ -49.265552571474814, -25.458337757546055 ], [ -49.264836294078762, -25.459838379388692 ], [ -49.265788959575566, -25.460222168477017 ], [ -49.266161023356005, -25.459452792501057 ] ] ] } },
{ "type": "Feature", "properties": { "box_id": 1, "provider": "protomaps" }, "geometry": { "type": "Polygon", "coordinates": [ [ [ -49.267931335425466, -25.459254219437231 ], [ -49.268252849684991, -25.458634078930551 ], [ -49.267475767446427, -25.458337125472283 ], [ -49.266824754158669, -25.458088344598689 ], [ -49.266514778406673, -25.458721266155024 ], [ -49.267930984454345, -25.459254076265491 ], [ -49.267931335425466, -25.459254219437231 ] ] ] } },
{ "type": "Feature", "properties": { "box_id": 1, "provider": "protomaps" }, "geometry": { "type": "Polygon", "coordinates": [ [ [ -49.262052522523732, -25.461052897281171 ], [ -49.262614840927398, -25.461272839732317 ], [ -49.262615140109958, -25.461272226668967 ], [ -49.263564348208966, -25.459326732329316 ], [ -49.263564667836619, -25.459326079782631 ], [ -49.262948997345006, -25.459078040324609 ], [ -49.262816807259291, -25.459025586425241 ], [ -49.262351989657141, -25.460004854960385 ], [ -49.262069293487365, -25.459885641539501 ], [ -49.262052522523732, -25.461052897281171 ] ] ] } },
{ "type": "Feature", "properties": { "box_id": 1, "provider": "protomaps" }, "geometry": { "type": "Polygon", "coordinates": [ [ [ -49.262069293487365, -25.459885641539501 ], [ -49.262351989657141, -25.460004854960385 ], [ -49.262816807259291, -25.459025586425241 ], [ -49.262085817190162, -25.45873552403609 ], [ -49.262069293487365, -25.459885641539501 ] ] ] } },
{ "type": "Feature", "properties": { "box_id": 1, "provider": "protomaps" }, "geometry": { "type": "Polygon", "coordinates": [ [ [ -49.262817127201075, -25.459024912217046 ], [ -49.262948997345006, -25.459078040324609 ], [ -49.263564667836619, -25.459326079782631 ], [ -49.264311486532144, -25.457801422419944 ], [ -49.263553360581767, -25.457473790270083 ], [ -49.262817127201075, -25.459024912217046 ] ] ] } },
{ "type": "Feature", "properties": { "box_id": 1, "provider": "protomaps" }, "geometry": { "type": "Polygon", "coordinates": [ [ [ -49.262948997345006, -25.459078040324609 ], [ -49.262817127201075, -25.459024912217046 ], [ -49.262816807259291, -25.459025586425241 ], [ -49.262948997345006, -25.459078040324609 ] ] ] } },
{ "type": "Feature", "properties": { "box_id": 1, "provider": "protomaps" }, "geometry": { "type": "Polygon", "coordinates": [ [ [ -49.263564667836619, -25.459326079782631 ], [ -49.264836294078762, -25.459838379388692 ], [ -49.265552571474814, -25.458337757546055 ], [ -49.264311486532144, -25.457801422419944 ], [ -49.263564667836619, -25.459326079782631 ] ] ] } },
{ "type": "Feature", "properties": { "box_id": 1, "provider": "protomaps" }, "geometry": { "type": "Polygon", "coordinates": [ [ [ -49.266835393420806, -25.455650100945235 ], [ -49.266641815870926, -25.456055676337236 ], [ -49.267458915587035, -25.456793462310142 ], [ -49.267775416665998, -25.456110495841482 ], [ -49.267992353118174, -25.455663757202029 ], [ -49.266835393420806, -25.455650100945235 ] ] ] } },
{ "type": "Feature", "properties": { "box_id": 1, "provider": "protomaps" }, "geometry": { "type": "Polygon", "coordinates": [ [ [ -49.266641815870926, -25.456055676337236 ], [ -49.266835393420806, -25.455650100945235 ], [ -49.266184128545561, -25.455642409681964 ], [ -49.266641815870926, -25.456055676337236 ] ] ] } },
{ "type": "Feature", "properties": { "box_id": 1, "provider": "protomaps" }, "geometry": { "type": "Polygon", "coordinates": [ [ [ -49.266641815870926, -25.456055676337236 ], [ -49.266097083234719, -25.457196961593905 ], [ -49.265552571474814, -25.458337757546055 ], [ -49.265554547072099, -25.458338611459297 ], [ -49.266514778406673, -25.458721266155024 ], [ -49.266824754158669, -25.458088344598689 ], [ -49.267458915587035, -25.456793462310142 ], [ -49.266641815870926, -25.456055676337236 ] ] ] } },
{ "type": "Feature", "properties": { "box_id": 1, "provider": "protomaps" }, "geometry": { "type": "Polygon", "coordinates": [ [ [ -49.266097083234719, -25.457196961593905 ], [ -49.266641815870926, -25.456055676337236 ], [ -49.266184128545561, -25.455642409681964 ], [ -49.265373681471715, -25.455632834484227 ], [ -49.26485163403796, -25.456698664006133 ], [ -49.266097083234719, -25.457196961593905 ] ] ] } },
{ "type": "Feature", "properties": { "box_id": 1, "provider": "protomaps" }, "geometry": { "type": "Polygon", "coordinates": [ [ [ -49.265552571474814, -25.458337757546055 ], [ -49.266097083234719, -25.457196961593905 ], [ -49.26485163403796, -25.456698664006133 ], [ -49.264311486532144, -25.457801422419944 ], [ -49.265552571474814, -25.458337757546055 ] ] ] } },
{ "type": "Feature", "properties": { "box_id": 1, "provider": "protomaps" }, "geometry": { "type": "Polygon", "coordinates": [ [ [ -49.262085817190162, -25.45873552403609 ], [ -49.262816807259291, -25.459025586425241 ], [ -49.262817127201075, -25.459024912217046 ], [ -49.263553360581767, -25.457473790270083 ], [ -49.26354825513063, -25.457471583938013 ], [ -49.262545786436711, -25.457077857858597 ], [ -49.262545249628282, -25.457078953810608 ], [ -49.262112062621043, -25.456908589349737 ], [ -49.262085817190162, -25.45873552403609 ] ] ] } },
{ "type": "Feature", "properties": { "box_id": 1, "provider": "protomaps" }, "geometry": { "type": "Polygon", "coordinates": [ [ [ -49.262545786436711, -25.457077857858597 ], [ -49.26354825513063, -25.457471583938013 ], [ -49.263553360581767, -25.457473790270083 ], [ -49.264069110874821, -25.456387161728355 ], [ -49.263076792485315, -25.455992150310102 ], [ -49.262545786436711, -25.457077857858597 ] ] ] } },
{ "type": "Feature", "properties": { "box_id": 1, "provider": "protomaps" }, "geometry": { "type": "Polygon", "coordinates": [ [ [ -49.263553360581767, -25.457473790270083 ], [ -49.264311486532144, -25.457801422419944 ], [ -49.26485163403796, -25.456698664006133 ], [ -49.264846444193417, -25.456696587626421 ], [ -49.264069110874821, -25.456387161728355 ], [ -49.263553360581767, -25.457473790270083 ] ] ] } },
{ "type": "Feature", "properties": { "box_id": 1, "provider": "protomaps" }, "geometry": { "type": "Polygon", "coordinates": [ [ [ -49.264846444193417, -25.456696587626421 ], [ -49.26485163403796, -25.456698664006133 ], [ -49.265373681471715, -25.455632834484227 ], [ -49.264432414383812, -25.455621708069156 ], [ -49.264069110874821, -25.456387161728355 ], [ -49.264846444193417, -25.456696587626421 ] ] ] } },
{ "type": "Feature", "properties": { "box_id": 1, "provider": "protomaps" }, "geometry": { "type": "Polygon", "coordinates": [ [ [ -49.264069110874821, -25.456387161728355 ], [ -49.264432414383812, -25.455621708069156 ], [ -49.263264722776185, -25.455607896773913 ], [ -49.263076792485315, -25.455992150310102 ], [ -49.264069110874821, -25.456387161728355 ] ] ] } },
{ "type": "Feature", "properties": { "box_id": 1, "provider": "protomaps" }, "geometry": { "type": "Polygon", "coordinates": [ [ [ -49.262112062621043, -25.456908589349737 ], [ -49.262545249628282, -25.457078953810608 ], [ -49.262545786436711, -25.457077857858597 ], [ -49.263076792485315, -25.455992150310102 ], [ -49.263264722776185, -25.455607896773913 ], [ -49.262232768178862, -25.455595683224811 ], [ -49.262207917782206, -25.455648516399275 ], [ -49.262127713766162, -25.455819034222444 ], [ -49.262112062621043, -25.456908589349737 ] ] ] } },
{ "type": "Feature", "properties": { "box_id": 1, "provider": "protomaps" }, "geometry": { "type": "Polygon", "coordinates": [ [ [ -49.262207917782206, -25.455648516399275 ], [ -49.262232768178862, -25.455595683224811 ], [ -49.2621309393435, -25.455594477651097 ], [ -49.262130604221987, -25.455617808092139 ], [ -49.262207917782206, -25.455648516399275 ] ] ] } },
{ "type": "Feature", "properties": { "box_id": 1, "provider": "protomaps" }, "geometry": { "type": "Polygon", "coordinates": [ [ [ -49.262127713766162, -25.455819034222444 ], [ -49.262207917782206, -25.455648516399275 ], [ -49.262130604221987, -25.455617808092139 ], [ -49.262127713766162, -25.455819034222444 ] ] ] } }
]
}
