{
"type": "FeatureCollection",
"name": "curitiba_1km_osmnx_sidewalk_kerbs",
"crs": { "type": "name", "properties": { "name": "urn:ogc:def:crs:OGC:1.3:CRS84" } },
"features": [
{ "type": "Feature", "properties": { "box_id": 1, "provider": "osmnx" }, "geometry": { "type": "Point", "coordinates": [ -49.310432256722898, -25.417148636788657 ] } },
{ "type": "Feature", "properties": { "box_id": 1, "provider": "osmnx" }, "geometry": { "type": "Point", "coordinates": [ -49.310443113854937, -25.417191757908558 ] } },
{ "type": "Feature", "properties": { "box_id": 1, "provider": "osmnx" }, "geometry": { "type": "Point", "coordinates": [ -49.310112723401488, -25.417223583480403 ] } },
{ "type": "Feature", "properties": { "box_id": 1, "provider": "osmnx" }, "geometry": { "type": "Point", "coordinates": [ -49.310130193749409, -25.417264874162971 ] } },
{ "type": "Feature", "properties": { "box_id": 1, "provider": "osmnx" }, "geometry": { "type": "Point", "coordinates": [ -49.310524126929096, -25.41628527822953 ] } },
{ "type": "Feature", "properties": { "box_id": 1, "provider": "osmnx" }, "geometry": { "type": "Point", "coordinates": [ -49.310535240867935, -25.416328345345068 ] } },
{ "type": "Feature", "properties": { "box_id": 1, "provider": "osmnx" }, "geometry": { "type": "Point", "coordinates": [ -49.310373403769681, -25.417080366862528 ] } },
{ "type": "Feature", "properties": { "box_id": 1, "provider": "osmnx" }, "geometry": { "type": "Point", "coordinates": [ -49.310329915500219, -25.417060446832863 ] } },
{ "type": "Feature", "properties": { "box_id": 1, "provider": "osmnx" }, "geometry": { "type": "Point", "coordinates": [ -49.310497322327514, -25.416440212187823 ] } },
{ "type": "Feature", "properties": { "box_id": 1, "provider": "osmnx" }, "geometry": { "type": "Point", "coordinates": [ -49.310457730084231, -25.416465975771846 ] } },
{ "type": "Feature", "properties": { "box_id": 1, "provider": "osmnx" }, "geometry": { "type": "Point", "coordinates": [ -49.310287321150049, -25.416212580810384 ] } },
{ "type": "Feature", "properties": { "box_id": 1, "provider": "osmnx" }, "geometry": { "type": "Point", "coordinates": [ -49.310246939294565, -25.416237312829914 ] } },
{ "type": "Feature", "properties": { "box_id": 1, "provider": "osmnx" }, "geometry": { "type": "Point", "coordinates": [ -49.310195617955841, -25.414365572929039 ] } },
{ "type": "Feature", "properties": { "box_id": 1, "provider": "osmnx" }, "geometry": { "type": "Point", "coordinates": [ -49.310148217877476, -25.414375745673564 ] } },
{ "type": "Feature", "properties": { "box_id": 1, "provider": "osmnx" }, "geometry": { "type": "Point", "coordinates": [ -49.307605060682455, -25.414717531813029 ] } },
{ "type": "Feature", "properties": { "box_id": 1, "provider": "osmnx" }, "geometry": { "type": "Point", "coordinates": [ -49.307614286040696, -25.414760965126298 ] } },
{ "type": "Feature", "properties": { "box_id": 1, "provider": "osmnx" }, "geometry": { "type": "Point", "coordinates": [ -49.307850188400913, -25.414674605587656 ] } },
{ "type": "Feature", "properties": { "box_id": 1, "provider": "osmnx" }, "geometry": { "type": "Point", "coordinates": [ -49.307859406768728, -25.414718040129433 ] } },
{ "type": "Feature", "properties": { "box_id": 1, "provider": "osmnx" }, "geometry": { "type": "Point", "coordinates": [ -49.307701198358487, -25.41466936488046 ] } },
{ "type": "Feature", "properties": { "box_id": 1, "provider": "osmnx" }, "geometry": { "type": "Point", "coordinates": [ -49.307749822749471, -25.414671918641563 ] } },
{ "type": "Feature", "properties": { "box_id": 1, "provider": "osmnx" }, "geometry": { "type": "Point", "coordinates": [ -49.307701076356373, -25.414671280877368 ] } },
{ "type": "Feature", "properties": { "box_id": 1, "provider": "osmnx" }, "geometry": { "type": "Point", "coordinates": [ -49.307749700748111, -25.414673834638549 ] } },
{ "type": "Feature", "properties": { "box_id": 1, "provider": "osmnx" }, "geometry": { "type": "Point", "coordinates": [ -49.30761787085958, -25.414664755751993 ] } },
{ "type": "Feature", "properties": { "box_id": 1, "provider": "osmnx" }, "geometry": { "type": "Point", "coordinates": [ -49.307609021207085, -25.414621258006669 ] } },
{ "type": "Feature", "properties": { "box_id": 1, "provider": "osmnx" }, "geometry": { "type": "Point", "coordinates": [ -49.312136308670269, -25.415121694085922 ] } },
{ "type": "Feature", "properties": { "box_id": 1, "provider": "osmnx" }, "geometry": { "type": "Point", "coordinates": [ -49.31208923246578, -25.415133040838548 ] } },
{ "type": "Feature", "properties": { "box_id": 1, "provider": "osmnx" }, "geometry": { "type": "Point", "coordinates": [ -49.312212954050686, -25.414908793699698 ] } },
{ "type": "Feature", "properties": { "box_id": 1, "provider": "osmnx" }, "geometry": { "type": "Point", "coordinates": [ -49.312233617517627, -25.414948849684173 ] } },
{ "type": "Feature", "properties": { "box_id": 1, "provider": "osmnx" }, "geometry": { "type": "Point", "coordinates": [ -49.311905163613226, -25.414992017101632 ] } },
{ "type": "Feature", "properties": { "box_id": 1, "provider": "osmnx" }, "geometry": { "type": "Point", "coordinates": [ -49.311915062523177, -25.415035328018281 ] } },
{ "type": "Feature", "properties": { "box_id": 1, "provider": "osmnx" }, "geometry": { "type": "Point", "coordinates": [ -49.311760113658636, -25.414441918965906 ] } },
{ "type": "Feature", "properties": { "box_id": 1, "provider": "osmnx" }, "geometry": { "type": "Point", "coordinates": [ -49.311749441080806, -25.414398759871908 ] } },
{ "type": "Feature", "properties": { "box_id": 1, "provider": "osmnx" }, "geometry": { "type": "Point", "coordinates": [ -49.312080187118447, -25.4143852223383 ] } },
{ "type": "Feature", "properties": { "box_id": 1, "provider": "osmnx" }, "geometry": { "type": "Point", "coordinates": [ -49.312073016191611, -25.414341470266361 ] } },
{ "type": "Feature", "properties": { "box_id": 1, "provider": "osmnx" }, "geometry": { "type": "Point", "coordinates": [ -49.311857626726031, -25.414246351235029 ] } },
{ "type": "Feature", "properties": { "box_id": 1, "provider": "osmnx" }, "geometry": { "type": "Point", "coordinates": [ -49.311905316001301, -25.414237362269429 ] } },
{ "type": "Feature", "properties": { "box_id": 1, "provider": "osmnx" }, "geometry": { "type": "Point", "coordinates": [ -49.310873126794391, -25.414048155687553 ] } },
{ "type": "Feature", "properties": { "box_id": 1, "provider": "osmnx" }, "geometry": { "type": "Point", "coordinates": [ -49.310884088110086, -25.414091255029945 ] } },
{ "type": "Feature", "properties": { "box_id": 1, "provider": "osmnx" }, "geometry": { "type": "Point", "coordinates": [ -49.310860916878823, -25.41400043091183 ] } },
{ "type": "Feature", "properties": { "box_id": 1, "provider": "osmnx" }, "geometry": { "type": "Point", "coordinates": [ -49.310850034480957, -25.413957315078932 ] } },
{ "type": "Feature", "properties": { "box_id": 1, "provider": "osmnx" }, "geometry": { "type": "Point", "coordinates": [ -49.310553507997156, -25.414115097053148 ] } },
{ "type": "Feature", "properties": { "box_id": 1, "provider": "osmnx" }, "geometry": { "type": "Point", "coordinates": [ -49.310564452421211, -25.414158199930839 ] } },
{ "type": "Feature", "properties": { "box_id": 1, "provider": "osmnx" }, "geometry": { "type": "Point", "coordinates": [ -49.31028852044701, -25.414170593966375 ] } },
{ "type": "Feature", "properties": { "box_id": 1, "provider": "osmnx" }, "geometry": { "type": "Point", "coordinates": [ -49.310299464779362, -25.414213696858926 ] } },
{ "type": "Feature", "properties": { "box_id": 1, "provider": "osmnx" }, "geometry": { "type": "Point", "coordinates": [ -49.309968914808131, -25.414237630774458 ] } },
{ "type": "Feature", "properties": { "box_id": 1, "provider": "osmnx" }, "geometry": { "type": "Point", "coordinates": [ -49.309979862901343, -25.414280732873991 ] } },
{ "type": "Feature", "properties": { "box_id": 1, "provider": "osmnx" }, "geometry": { "type": "Point", "coordinates": [ -49.307894127825868, -25.414616712198534 ] } },
{ "type": "Feature", "properties": { "box_id": 1, "provider": "osmnx" }, "geometry": { "type": "Point", "coordinates": [ -49.307884746292068, -25.414573306482222 ] } },
{ "type": "Feature", "properties": { "box_id": 1, "provider": "osmnx" }, "geometry": { "type": "Point", "coordinates": [ -49.310541247005546, -25.414067092035776 ] } },
{ "type": "Feature", "properties": { "box_id": 1, "provider": "osmnx" }, "geometry": { "type": "Point", "coordinates": [ -49.310530310486023, -25.414023987504887 ] } },
{ "type": "Feature", "properties": { "box_id": 1, "provider": "osmnx" }, "geometry": { "type": "Point", "coordinates": [ -49.317282187948237, -25.415875191623844 ] } },
{ "type": "Feature", "properties": { "box_id": 1, "provider": "osmnx" }, "geometry": { "type": "Point", "coordinates": [ -49.317260440351021, -25.41591477156928 ] } },
{ "type": "Feature", "properties": { "box_id": 1, "provider": "osmnx" }, "geometry": { "type": "Point", "coordinates": [ -49.316994979782393, -25.415746868702747 ] } },
{ "type": "Feature", "properties": { "box_id": 1, "provider": "osmnx" }, "geometry": { "type": "Point", "coordinates": [ -49.316973714208054, -25.415786664074599 ] } },
{ "type": "Feature", "properties": { "box_id": 1, "provider": "osmnx" }, "geometry": { "type": "Point", "coordinates": [ -49.313294619955713, -25.413717952449865 ] } },
{ "type": "Feature", "properties": { "box_id": 1, "provider": "osmnx" }, "geometry": { "type": "Point", "coordinates": [ -49.313339303211968, -25.413700350758155 ] } },
{ "type": "Feature", "properties": { "box_id": 1, "provider": "osmnx" }, "geometry": { "type": "Point", "coordinates": [ -49.313541195151323, -25.414234249888661 ] } },
{ "type": "Feature", "properties": { "box_id": 1, "provider": "osmnx" }, "geometry": { "type": "Point", "coordinates": [ -49.313585878571445, -25.41421664813101 ] } },
{ "type": "Feature", "properties": { "box_id": 1, "provider": "osmnx" }, "geometry": { "type": "Point", "coordinates": [ -49.313673080323298, -25.414507215644427 ] } },
{ "type": "Feature", "properties": { "box_id": 1, "provider": "osmnx" }, "geometry": { "type": "Point", "coordinates": [ -49.313717597497309, -25.414489269590231 ] } },
{ "type": "Feature", "properties": { "box_id": 1, "provider": "osmnx" }, "geometry": { "type": "Point", "coordinates": [ -49.314555377909301, -25.413452493176248 ] } },
{ "type": "Feature", "properties": { "box_id": 1, "provider": "osmnx" }, "geometry": { "type": "Point", "coordinates": [ -49.31460264855631, -25.413441836220535 ] } },
{ "type": "Feature", "properties": { "box_id": 1, "provider": "osmnx" }, "geometry": { "type": "Point", "coordinates": [ -49.314692251089696, -25.413953264236255 ] } },
{ "type": "Feature", "properties": { "box_id": 1, "provider": "osmnx" }, "geometry": { "type": "Point", "coordinates": [ -49.314739521925482, -25.413942607246547 ] } },
{ "type": "Feature", "properties": { "box_id": 1, "provider": "osmnx" }, "geometry": { "type": "Point", "coordinates": [ -49.314771315402716, -25.414242389638112 ] } },
{ "type": "Feature", "properties": { "box_id": 1, "provider": "osmnx" }, "geometry": { "type": "Point", "coordinates": [ -49.314818583660426, -25.414231722802612 ] } },
{ "type": "Feature", "properties": { "box_id": 1, "provider": "osmnx" }, "geometry": { "type": "Point", "coordinates": [ -49.313699628309713, -25.414358220547637 ] } },
{ "type": "Feature", "properties": { "box_id": 1, "provider": "osmnx" }, "geometry": { "type": "Point", "coordinates": [ -49.313692536943343, -25.414333778134459 ] } },
{ "type": "Feature", "properties": { "box_id": 1, "provider": "osmnx" }, "geometry": { "type": "Point", "coordinates": [ -49.314691662770258, -25.414120822609053 ] } },
{ "type": "Feature", "properties": { "box_id": 1, "provider": "osmnx" }, "geometry": { "type": "Point", "coordinates": [ -49.314684571211721, -25.414096380233492 ] } },
{ "type": "Feature", "properties": { "box_id": 1, "provider": "osmnx" }, "geometry": { "type": "Point", "coordinates": [ -49.317165066777434, -25.415684258418729 ] } },
{ "type": "Feature", "properties": { "box_id": 1, "provider": "osmnx" }, "geometry": { "type": "Point", "coordinates": [ -49.317210840130748, -25.415699376264456 ] } },
{ "type": "Feature", "properties": { "box_id": 1, "provider": "osmnx" }, "geometry": { "type": "Point", "coordinates": [ -49.315698575314386, -25.413357039040257 ] } },
{ "type": "Feature", "properties": { "box_id": 1, "provider": "osmnx" }, "geometry": { "type": "Point", "coordinates": [ -49.315650264077995, -25.413362654290296 ] } },
{ "type": "Feature", "properties": { "box_id": 1, "provider": "osmnx" }, "geometry": { "type": "Point", "coordinates": [ -49.315819366051748, -25.413215383408161 ] } },
{ "type": "Feature", "properties": { "box_id": 1, "provider": "osmnx" }, "geometry": { "type": "Point", "coordinates": [ -49.315811163694512, -25.413258985825703 ] } },
{ "type": "Feature", "properties": { "box_id": 1, "provider": "osmnx" }, "geometry": { "type": "Point", "coordinates": [ -49.315493804659035, -25.413167882877641 ] } },
{ "type": "Feature", "properties": { "box_id": 1, "provider": "osmnx" }, "geometry": { "type": "Point", "coordinates": [ -49.315489075113952, -25.413211908024305 ] } },
{ "type": "Feature", "properties": { "box_id": 1, "provider": "osmnx" }, "geometry": { "type": "Point", "coordinates": [ -49.314693836305992, -25.413247566922234 ] } },
{ "type": "Feature", "properties": { "box_id": 1, "provider": "osmnx" }, "geometry": { "type": "Point", "coordinates": [ -49.31470478459557, -25.413290669057918 ] } },
{ "type": "Feature", "properties": { "box_id": 1, "provider": "osmnx" }, "geometry": { "type": "Point", "coordinates": [ -49.3156328632097, -25.413187084071037 ] } },
{ "type": "Feature", "properties": { "box_id": 1, "provider": "osmnx" }, "geometry": { "type": "Point", "coordinates": [ -49.315681098791117, -25.413193211908542 ] } },
{ "type": "Feature", "properties": { "box_id": 1, "provider": "osmnx" }, "geometry": { "type": "Point", "coordinates": [ -49.315502175100725, -25.413126755543193 ] } },
{ "type": "Feature", "properties": { "box_id": 1, "provider": "osmnx" }, "geometry": { "type": "Point", "coordinates": [ -49.315506740712145, -25.413082716123924 ] } },
{ "type": "Feature", "properties": { "box_id": 1, "provider": "osmnx" }, "geometry": { "type": "Point", "coordinates": [ -49.315639640375466, -25.413142803941586 ] } },
{ "type": "Feature", "properties": { "box_id": 1, "provider": "osmnx" }, "geometry": { "type": "Point", "coordinates": [ -49.315687887862786, -25.413148853858956 ] } },
{ "type": "Feature", "properties": { "box_id": 1, "provider": "osmnx" }, "geometry": { "type": "Point", "coordinates": [ -49.314374217062607, -25.4133145424113 ] } },
{ "type": "Feature", "properties": { "box_id": 1, "provider": "osmnx" }, "geometry": { "type": "Point", "coordinates": [ -49.314385168731143, -25.413357643833699 ] } },
{ "type": "Feature", "properties": { "box_id": 1, "provider": "osmnx" }, "geometry": { "type": "Point", "coordinates": [ -49.315824571027747, -25.413171787418264 ] } },
{ "type": "Feature", "properties": { "box_id": 1, "provider": "osmnx" }, "geometry": { "type": "Point", "coordinates": [ -49.315832673339237, -25.41312816957468 ] } },
{ "type": "Feature", "properties": { "box_id": 1, "provider": "osmnx" }, "geometry": { "type": "Point", "coordinates": [ -49.317266592988993, -25.41309329470311 ] } },
{ "type": "Feature", "properties": { "box_id": 1, "provider": "osmnx" }, "geometry": { "type": "Point", "coordinates": [ -49.317248872507697, -25.413052092079017 ] } },
{ "type": "Feature", "properties": { "box_id": 1, "provider": "osmnx" }, "geometry": { "type": "Point", "coordinates": [ -49.317442621562421, -25.413030602913416 ] } },
{ "type": "Feature", "properties": { "box_id": 1, "provider": "osmnx" }, "geometry": { "type": "Point", "coordinates": [ -49.317424442676661, -25.412989565339846 ] } },
{ "type": "Feature", "properties": { "box_id": 1, "provider": "osmnx" }, "geometry": { "type": "Point", "coordinates": [ -49.317341136635939, -25.412881724908615 ] } },
{ "type": "Feature", "properties": { "box_id": 1, "provider": "osmnx" }, "geometry": { "type": "Point", "coordinates": [ -49.31730037061795, -25.412905930229652 ] } },
{ "type": "Feature", "properties": { "box_id": 1, "provider": "osmnx" }, "geometry": { "type": "Point", "coordinates": [ -49.315668154183733, -25.412974618978421 ] } },
{ "type": "Feature", "properties": { "box_id": 1, "provider": "osmnx" }, "geometry": { "type": "Point", "coordinates": [ -49.315716275618513, -25.412981446566217 ] } },
{ "type": "Feature", "properties": { "box_id": 1, "provider": "osmnx" }, "geometry": { "type": "Point", "coordinates": [ -49.310720990057526, -25.41405571355461 ] } },
{ "type": "Feature", "properties": { "box_id": 1, "provider": "osmnx" }, "geometry": { "type": "Point", "coordinates": [ -49.310693874147205, -25.414061409179713 ] } },
{ "type": "Feature", "properties": { "box_id": 1, "provider": "osmnx" }, "geometry": { "type": "Point", "coordinates": [ -49.310720526069417, -25.414053891552712 ] } },
{ "type": "Feature", "properties": { "box_id": 1, "provider": "osmnx" }, "geometry": { "type": "Point", "coordinates": [ -49.31069341015948, -25.414059587177753 ] } },
{ "type": "Feature", "properties": { "box_id": 1, "provider": "osmnx" }, "geometry": { "type": "Point", "coordinates": [ -49.311951834543656, -25.413822162243946 ] } },
{ "type": "Feature", "properties": { "box_id": 1, "provider": "osmnx" }, "geometry": { "type": "Point", "coordinates": [ -49.311962784411129, -25.413865264004205 ] } },
{ "type": "Feature", "properties": { "box_id": 1, "provider": "osmnx" }, "geometry": { "type": "Point", "coordinates": [ -49.311632213879335, -25.413889116603233 ] } },
{ "type": "Feature", "properties": { "box_id": 1, "provider": "osmnx" }, "geometry": { "type": "Point", "coordinates": [ -49.311643157496135, -25.413932219667636 ] } },
{ "type": "Feature", "properties": { "box_id": 1, "provider": "osmnx" }, "geometry": { "type": "Point", "coordinates": [ -49.31177867273923, -25.413902270194196 ] } },
{ "type": "Feature", "properties": { "box_id": 1, "provider": "osmnx" }, "geometry": { "type": "Point", "coordinates": [ -49.311826224978702, -25.413892701710221 ] } },
{ "type": "Feature", "properties": { "box_id": 1, "provider": "osmnx" }, "geometry": { "type": "Point", "coordinates": [ -49.313332953383565, -25.413532770785995 ] } },
{ "type": "Feature", "properties": { "box_id": 1, "provider": "osmnx" }, "geometry": { "type": "Point", "coordinates": [ -49.313343906184393, -25.41357587195408 ] } },
{ "type": "Feature", "properties": { "box_id": 1, "provider": "osmnx" }, "geometry": { "type": "Point", "coordinates": [ -49.313086415221278, -25.413584434211671 ] } },
{ "type": "Feature", "properties": { "box_id": 1, "provider": "osmnx" }, "geometry": { "type": "Point", "coordinates": [ -49.313097364309527, -25.413627536153751 ] } },
{ "type": "Feature", "properties": { "box_id": 1, "provider": "osmnx" }, "geometry": { "type": "Point", "coordinates": [ -49.307752960514442, -25.414474763089441 ] } },
{ "type": "Feature", "properties": { "box_id": 1, "provider": "osmnx" }, "geometry": { "type": "Point", "coordinates": [ -49.307704254974801, -25.41447473392229 ] } },
{ "type": "Feature", "properties": { "box_id": 1, "provider": "osmnx" }, "geometry": { "type": "Point", "coordinates": [ -49.311715501732401, -25.412626004464972 ] } },
{ "type": "Feature", "properties": { "box_id": 1, "provider": "osmnx" }, "geometry": { "type": "Point", "coordinates": [ -49.311740475617775, -25.412588028035824 ] } },
{ "type": "Feature", "properties": { "box_id": 1, "provider": "osmnx" }, "geometry": { "type": "Point", "coordinates": [ -49.311383540813146, -25.412666580132296 ] } },
{ "type": "Feature", "properties": { "box_id": 1, "provider": "osmnx" }, "geometry": { "type": "Point", "coordinates": [ -49.311426413265472, -25.412645590537814 ] } },
{ "type": "Feature", "properties": { "box_id": 1, "provider": "osmnx" }, "geometry": { "type": "Point", "coordinates": [ -49.310708606877739, -25.413861684018361 ] } },
{ "type": "Feature", "properties": { "box_id": 1, "provider": "osmnx" }, "geometry": { "type": "Point", "coordinates": [ -49.310660066698802, -25.413865324026897 ] } },
{ "type": "Feature", "properties": { "box_id": 1, "provider": "osmnx" }, "geometry": { "type": "Point", "coordinates": [ -49.311403030603408, -25.412919211973868 ] } },
{ "type": "Feature", "properties": { "box_id": 1, "provider": "osmnx" }, "geometry": { "type": "Point", "coordinates": [ -49.311364237381895, -25.412892465954396 ] } },
{ "type": "Feature", "properties": { "box_id": 1, "provider": "osmnx" }, "geometry": { "type": "Point", "coordinates": [ -49.311591873204371, -25.412696083657647 ] } },
{ "type": "Feature", "properties": { "box_id": 1, "provider": "osmnx" }, "geometry": { "type": "Point", "coordinates": [ -49.311553458745095, -25.412668890526074 ] } },
{ "type": "Feature", "properties": { "box_id": 1, "provider": "osmnx" }, "geometry": { "type": "Point", "coordinates": [ -49.311595541200873, -25.412691809663844 ] } },
{ "type": "Feature", "properties": { "box_id": 1, "provider": "osmnx" }, "geometry": { "type": "Point", "coordinates": [ -49.311557126742009, -25.412664616533242 ] } },
{ "type": "Feature", "properties": { "box_id": 1, "provider": "osmnx" }, "geometry": { "type": "Point", "coordinates": [ -49.311786748004806, -25.412470111302834 ] } },
{ "type": "Feature", "properties": { "box_id": 1, "provider": "osmnx" }, "geometry": { "type": "Point", "coordinates": [ -49.311748469777648, -25.412442760248222 ] } }
]
}
